{
  "type" : "FeatureCollection",
  "features" : [{
     "type":"Feature",
        "properties" : {
           "srid"          : "4326",
           "id"            : "9407",
           "name"          : "Andorra",
           "localname"     : "Andorra",
           "official_name" : "Principat d'Andorra",
           "boundary"      : "adminstrative",
           "admin_level"   : "2",
           "note"          : "",
           "wikidata"      : "Q228",
           "wikipedia"     : "ca:Andorra",
           "timestamp"     : "2018-12-09 01:48:00",
           "rpath"         : "9407,0",
           "alltags"       : {
              "flag" : "http://upload.wikimedia.org/wikipedia/commons/1/19/Flag_of_Andorra.svg",
              "name" : "Andorra",
              "name:ab" : "–ê–Ω–¥–æ—Ä–∞",
              "name:af" : "Andorra",
              "name:ak" : "Andora",
              "name:am" : "·ä†·äï·ã∂·à´",
              "name:an" : "Andorra",
              "name:ar" : "ÿ£ŸÜÿØŸàÿ±ÿß",
              "name:av" : "–ê–Ω–¥–æÃÅ—Ä—Ä–∞",
              "name:az" : "Andorra",
              "name:ba" : "–ê–Ω–¥–æÃÅ—Ä—Ä–∞",
              "name:be" : "–ê–Ω–¥–æÃÅ—Ä–∞",
              "name:bg" : "–ê–Ω–¥–æ—Ä–∞",
              "name:bh" : "‡§Ö‡§Ç‡§°‡•ã‡§∞‡§æ",
              "name:bi" : "Andorra",
              "name:bm" : "And…îr",
              "name:bn" : "‡¶Ö‡ßç‡¶Ø‡¶æ‡¶®‡ßç‡¶°‡ßã‡¶∞‡¶æ",
              "name:bo" : "‡Ω®‡Ωì‡ºã‡Ωå‡Ωº‡Ω¢‡ºã‡Ω¢‡ºç",
              "name:br" : "Andorra",
              "name:bs" : "Andora",
              "name:ca" : "Andorra",
              "name:ce" : "–ê–Ω–¥–æÃÅ—Ä—Ä–∞",
              "name:co" : "Andorra",
              "name:cs" : "Andorra",
              "name:cu" : "–ê–Ω–¥–æÃÅ—Ä–∞",
              "name:cv" : "–ê–Ω–¥–æ—Ä—Ä–∞",
              "name:cy" : "Andorra",
              "name:da" : "Andorra",
              "name:de" : "Andorra",
              "name:dv" : "ﬁáﬁ¨ﬁÇﬁ∞ﬁëﬁØﬁÉﬁß",
              "name:dz" : "‡Ω®‡Ω±‡Ωì‡ºã‡Ωë‡Ωº‡ºã‡Ω¢",
              "name:ee" : "Andorra",
              "name:el" : "ŒëŒΩŒ¥œåœÅœÅŒ±",
              "name:en" : "Andorra",
              "name:eo" : "Andoro",
              "name:es" : "Andorra",
              "name:et" : "Andorra",
              "name:eu" : "Andorra",
              "name:fa" : "ÿ¢ŸÜÿØŸàÿ±ÿß",
              "name:ff" : "Anndoora",
              "name:fi" : "Andorra",
              "name:fo" : "Andorra",
              "name:fr" : "Andorre",
              "name:fy" : "Andorra",
              "name:ga" : "And√≥ra",
              "name:gd" : "Andorra",
              "name:gl" : "Andorra",
              "name:gn" : "Andorra",
              "name:gu" : "‡™è‡™®‡´ç‡™°‡´ã‡™∞‡™æ",
              "name:gv" : "Andorra",
              "name:ha" : "Andorra",
              "name:he" : "◊ê÷∑◊†÷∞◊ì÷º◊ï÷π◊®÷∏◊î",
              "name:hi" : "‡§Ö‡§£‡•ç‡§°‡•ã‡§∞‡§æ",
              "name:hr" : "Andora",
              "name:ht" : "Andora",
              "name:hu" : "Andorra",
              "name:hy" : "‘±’∂’§’∏÷Ä÷Ä’°",
              "name:ia" : "Andorra",
              "name:id" : "Andorra",
              "name:ie" : "Andorra",
              "name:ig" : "Andorra",
              "name:io" : "Andora",
              "name:is" : "Andorra",
              "name:it" : "Andorra",
              "name:ja" : "„Ç¢„É≥„Éâ„É©",
              "name:jv" : "Andorra",
              "name:ka" : "·Éê·Éú·Éì·Éù·É†·Éê",
              "name:kg" : "Andora",
              "name:ki" : "Andora",
              "name:kk" : "–ê–Ω–¥–æ—Ä—Ä–∞",
              "name:kl" : "Andorra",
              "name:km" : "·û¢·ûÑ·üã·ûä·ûº·ûö·üâ·û∂",
              "name:kn" : "‡≤Ö‡≤Ç‡≤°‡≥ã‡≤∞",
              "name:ko" : "ÏïàÎèÑÎùº",
              "name:ks" : "ÿßŸÆ€™ŸÜ⁄ëŸàÿ±ÿß",
              "name:ku" : "Andorra",
              "name:kv" : "–ê–Ω–¥–æ—Ä—Ä–∞",
              "name:kw" : "Andorra",
              "name:ky" : "–ê–Ω–¥–æ—Ä—Ä–∞",
              "name:la" : "Andorra",
              "name:lb" : "Andorra",
              "name:lg" : "Andora",
              "name:li" : "Andorra",
              "name:ln" : "Andora",
              "name:lo" : "‡∫≠‡∫±‡∫á‡∫î‡∫≠‡∫Å",
              "name:lt" : "Andora",
              "name:lv" : "Andora",
              "name:mg" : "Andora",
              "name:mi" : "Andorra",
              "name:mk" : "–ê–Ω–¥–æ—Ä–∞",
              "name:ml" : "‡¥Ö‡µª‡¥°‡µã‡¥±",
              "name:mn" : "–ê–Ω–¥–æ—Ä—Ä–∞",
              "name:mr" : "‡§Ü‡§Ç‡§¶‡•ã‡§∞‡§æ",
              "name:ms" : "Andorra",
              "name:mt" : "Andorra",
              "name:my" : "·Ä°·ÄÑ·Ä∫·Äí·Ä≠·ÄØ·Äõ·Ä¨·Äî·Ä≠·ÄØ·ÄÑ·Ä∫·ÄÑ·Ä∂",
              "name:na" : "Andorra",
              "name:ne" : "‡§è‡§£‡•ç‡§°‡•ã‡§∞‡§æ",
              "name:nl" : "Andorra",
              "name:nn" : "Andorra",
              "name:no" : "Andorra",
              "name:nv" : "And√≥wa",
              "name:oc" : "And√≤rra",
              "name:om" : "Andooraa",
              "name:or" : "‡¨Ü‡¨£‡≠ç‡¨°‡≠ã‡¨∞‡¨æ",
              "name:os" : "–ê–Ω–¥–æ—Ä—Ä√¶",
              "name:pa" : "‡®Ö‡©∞‡®°‡©ã‡®∞‡®æ",
              "name:pi" : "‡§Ö‡§Ç‡§°‡•ã‡§∞‡§æ",
              "name:pl" : "Andora",
              "name:ps" : "ÿßŸÜÿØŸàÿ±ÿß",
              "name:pt" : "Andorra",
              "name:qu" : "Andurra",
              "name:rm" : "Andorra",
              "name:rn" : "Andora",
              "name:ro" : "Andorra",
              "name:ru" : "–ê–Ω–¥–æ—Ä—Ä–∞",
              "name:rw" : "Andora",
              "name:sa" : "‡§Ö‡§£‡•ç‡§°‡•ã‡§∞‡§æ",
              "name:sc" : "Andorra",
              "name:sd" : "ÿßŸÜ⁄äŸàÿ±ÿß",
              "name:se" : "Andorra",
              "name:sg" : "And√¥ro",
              "name:sh" : "Andora",
              "name:si" : "‡∂á‡∂±‡∑ä‡∂©‡∑ù‡∂ª‡∑è",
              "name:sk" : "Andorra",
              "name:sl" : "Andora",
              "name:sm" : "Andora",
              "name:sn" : "Andorra",
              "name:so" : "Andorra",
              "name:sq" : "Andorra",
              "name:sr" : "–ê–Ω–¥–æ—Ä–∞",
              "name:ss" : "iYandola",
              "name:su" : "Andorra",
              "name:sv" : "Andorra",
              "name:sw" : "Andorra",
              "name:ta" : "‡ÆÖ‡Æ£‡Øç‡Æü‡Øã‡Æ∞‡Ææ",
              "name:te" : "‡∞Ö‡∞Ç‡∞°‡±ä‡∞∞‡±ç‡∞∞‡∞æ",
              "name:tg" : "–ê–Ω–¥–æ—Ä—Ä–∞",
              "name:th" : "‡∏≠‡∏±‡∏ô‡∏î‡∏≠‡∏£‡πå‡∏£‡∏≤",
              "name:ti" : "·ä†·äï·ã∂·à´",
              "name:tk" : "Andorra",
              "name:tl" : "Andorra",
              "name:to" : " ªEnitola",
              "name:tr" : "Andorra",
              "name:ts" : "Andorra",
              "name:tt" : "–ê–Ω–¥–æ—Ä—Ä–∞",
              "name:tw" : "Andorra",
              "name:ug" : "ÿ¶ÿßŸÜÿØŸàÿ±ÿ±ÿß",
              "name:uk" : "–ê–Ω–¥–æÃÅ—Ä—Ä–∞",
              "name:ur" : "ÿßŸÜ⁄àŸàÿ±ÿß",
              "name:uz" : "Andorra",
              "name:vi" : "Andorra",
              "name:vo" : "Landor√§n",
              "name:wo" : "Andoor",
              "name:yi" : "◊ê÷∑◊†◊ì◊ê÷∏◊®◊¢",
              "name:yo" : "√Änd√≥r√†",
              "name:zh" : "ÂÆâÈÅìÁàæ",
              "name:zu" : "I-Andora",
              "boundary" : "administrative",
              "int_name" : "Andorra",
              "name:ace" : "Andorra",
              "name:ady" : "–ê–Ω–¥–æ—Ä—Ä—ç",
              "name:als" : "Andorra",
              "name:ang" : "Andorra",
              "name:arc" : "‹ê‹¢‹ï‹ò‹™‹ê",
              "name:arz" : "ÿßŸÜÿØŸàÿ±ÿß",
              "name:ast" : "Andorra",
              "name:azb" : "ÿ¢ŸÜÿØŸàÿ±ÿß",
              "name:bar" : "Andorra",
              "name:bcl" : "Andora",
              "name:bpy" : "‡¶è‡¶®‡ßç‡¶°‡ßã‡¶∞‡¶æ",
              "name:bxr" : "–ê–Ω–¥–æ—Ä—Ä–∞",
              "name:cdo" : "ƒÇng-d√¥Ã§-ƒ´",
              "name:ceb" : "Andorra",
              "name:chr" : "·é†·èÇ·èô·é≥",
              "name:ckb" : "ÿ¶€ïŸÜÿØ€Üÿ±ÿß",
              "name:crh" : "Andorra",
              "name:csb" : "Andorra",
              "name:diq" : "Andorra",
              "name:dsb" : "Andorra",
              "name:dty" : "‡§è‡§£‡•ç‡§°‡•ã‡§∞‡§æ",
              "name:eml" : "And√≤ra",
              "name:ext" : "Andorra",
              "name:frp" : "Andorra",
              "name:frr" : "Andora",
              "name:fur" : "Andore",
              "name:gag" : "Andorra",
              "name:gom" : "‡§Ö‡§Å‡§°‡•ã‡§∞‡§æ",
              "name:got" : "êå∞êåΩêå≥êå∞êåøêçÇêå∞",
              "name:gsw" : "Andorra",
              "name:hak" : "Andorra",
              "name:haw" : " ªAnakola",
              "name:hif" : "Andorra",
              "name:hsb" : "Andorra",
              "name:ilo" : "Andorra",
              "name:jam" : "Anduora",
              "name:jbo" : "andoras",
              "name:kaa" : "Andorra",
              "name:kab" : "Andorra",
              "name:kbd" : "–ê–Ω–¥–æ—Ä—Ä—ç",
              "name:koi" : "–ê–Ω–¥–æ—Ä—Ä–∞",
              "name:krc" : "–ê–Ω–¥–æ—Ä—Ä–∞",
              "name:ksh" : "Andorra",
              "name:lad" : "Andorra",
              "name:lez" : "–ê–Ω–¥–æ—Ä—Ä–∞",
              "name:lij" : "Andora",
              "name:lmo" : "Andora",
              "name:lrc" : "ÿ¢ŸÜÿØŸàÿ±ÿß",
              "name:ltg" : "Andora",
              "name:lzh" : "ÂÆâÈÅìÁàæ",
              "name:mai" : "‡§Ö‡§Ç‡§°‡•ã‡§∞‡§æ",
              "name:mdf" : "–ê–Ω–¥–æ—Ä–∞",
              "name:mhr" : "–ê–Ω–¥–æ—Ä—Ä–æ",
              "name:min" : "Andorra",
              "name:mrj" : "–ê–Ω–¥–æ—Ä—Ä–∞",
              "name:mwl" : "Andorra",
              "name:myv" : "–ê–Ω–¥–æ—Ä—Ä–∞",
              "name:mzn" : "ÿ¢ŸÜÿØŸàÿ±ÿß",
              "name:nah" : "Andorra",
              "name:nan" : "Andorra",
              "name:nap" : "Andorra",
              "name:nds" : "Andorra",
              "name:nov" : "Andora",
              "name:nrm" : "Aundorre",
              "name:olo" : "Andorra",
              "name:pag" : "Andorra",
              "name:pam" : "Andorra",
              "name:pap" : "Andorra",
              "name:pcd" : "Andore",
              "name:pdc" : "Andorra",
              "name:pih" : "Endora",
              "name:pms" : "Andorra",
              "name:pnb" : "ÿßŸÜÿØŸàÿ±€Å",
              "name:pnt" : "ŒëŒΩŒ¥œåœÅœÅŒ±",
              "name:rmy" : "Andorra",
              "name:rue" : "–ê–Ω–¥–æ—Ä–∞",
              "name:sah" : "–ê–Ω–¥–æ—Ä—Ä–∞",
              "name:scn" : "Andorra",
              "name:sco" : "Andorrae",
              "name:srn" : "Andorra",
              "name:stq" : "Andorra",
              "name:szl" : "Andora",
              "name:tet" : "Andorra",
              "name:tok" : "ma Antola",
              "name:tpi" : "Andora",
              "name:tum" : "Andorra",
              "name:tzl" : "Anduora",
              "name:udm" : "–ê–Ω–¥–æÃÅ—Ä—Ä–∞",
              "name:vec" : "Andora",
              "name:vep" : "Andorr",
              "name:vls" : "Andorra",
              "name:war" : "Andorra",
              "name:wuu" : "ÂÆâÈÅìÂ∞î",
              "name:xal" : "–ê–Ω–¥–æ—Ä–º—É–¥–∏–Ω –ù—É—Ç–≥",
              "name:xmf" : "·Éê·Éú·Éì·Éù·É†·Éê",
              "name:yue" : "ÂÆâÈÅìÁàæ",
              "name:zea" : "Andorra",
              "timezone" : "Europe/Andorra",
              "wikidata" : "Q228",
              "ISO3166-1" : "AD",
              "land_area" : "administrative",
              "wikipedia" : "ca:Andorra",
              "admin_level" : "2",
              "alt_name:af" : "Prinsdom van die Valleie van Andorra",
              "alt_name:ar" : "ÿ•ŸÖÿßÿ±ÿ© ŸàÿØŸäÿßŸÜ ÿ£ŸÜÿØŸàÿ±ÿß",
              "alt_name:cs" : "Andorsk√© kn√≠≈æectv√≠",
              "alt_name:el" : "ŒëŒΩŒ¥œåœÅŒ±",
              "alt_name:en" : "Principality of the Valleys of Andorra",
              "alt_name:gd" : "Prionnsalachd Glinntean Andorra",
              "alt_name:hu" : "Andorrai Fejedelems√©g",
              "alt_name:kn" : "‡≤Ö‡≤Ç‡≤°‡≥ã‡≤∞ ‡≤∞‡≤æ‡≤ú‡≥ç‡≤Ø",
              "alt_name:mt" : "Prinƒãipalit√† tal-Widien tal-Andorra",
              "alt_name:pt" : "Principado dos Vales de Andorra",
              "alt_name:ro" : "Principatul VƒÉilor Andorrei",
              "alt_name:su" : "Kapang√©ranan Lebak Andorra",
              "alt_name:tl" : "Prinsipalidad ng Andorra",
              "alt_name:vi" : "C√¥ng qu·ªëc Andorra",
              "alt_name:yo" : "Il·∫πÃÄ-·ªåm·ªçba √†w·ªçn √Äfon√≠foj√¨ il·∫πÃÄ Andorra",
              "name:nds-nl" : "Andorra",
              "alt_name:ckb" : "ÿ¶€ïŸÜÿØ€Üÿ±ÿß",
              "alt_name:war" : "Prinsipado han mga Siong han Andorra",
              "name:bat-smg" : "Anduora",
              "name:cbk-zam" : "Andorra",
              "name:fiu-vro" : "Andorra",
              "name:roa-rup" : "Andorra",
              "name:roa-tara" : "Andorre",
              "official_name" : "Principat d'Andorra",
              "name:be-tarask" : "–ê–Ω–¥–æ—Ä–∞",
              "name:zh_pinyin" : "ƒÄnd√†oƒõr",
              "is_in:continent" : "Europe",
              "ISO3166-1:alpha2" : "AD",
              "ISO3166-1:alpha3" : "AND",
              "default_language" : "ca",
              "official_name:af" : "Prinsdom van Andorra",
              "official_name:am" : "·ã®·ä†·äï·ã∂·à´ ·åç·ãõ·âµ",
              "official_name:an" : "Prencipato d'Andorra",
              "official_name:ar" : "ÿ•ŸÖÿßÿ±ÿ© ÿ£ŸÜÿØŸàÿ±ÿß",
              "official_name:az" : "Andorra Knyazlƒ±ƒüƒ±",
              "official_name:ba" : "–ê–Ω–¥–æ—Ä—Ä–∞ –ö–µ–Ω”ô–∑–ª–µ–≥–µ",
              "official_name:be" : "–ö–Ω—èÃÅ—Å—Ç–≤–∞ –ê–Ω–¥–æÃÅ—Ä–∞",
              "official_name:bg" : "–ö–Ω—è–∂–µ—Å—Ç–≤–æ –ê–Ω–¥–æ—Ä–∞",
              "official_name:bn" : "‡¶Ö‡ßç‡¶Ø‡¶æ‡¶®‡ßç‡¶°‡ßã‡¶∞‡¶æ ‡¶∞‡¶æ‡¶ú‡ßç‡¶Ø",
              "official_name:br" : "Pri√±selezh Andorra",
              "official_name:bs" : "Kne≈æevina Andora",
              "official_name:ca" : "Principat d'Andorra",
              "official_name:ce" : "–ú–∞–Ω–∞—Ä—Ö–∏ –ê–Ω–¥–æ—Ä—Ä–∞",
              "official_name:co" : "Principatu d'Andorra",
              "official_name:cs" : "Andorrsk√© kn√≠≈æectv√≠",
              "official_name:cu" : "–ö—ä–Ω—ßÃÅ–∂—å—Å—Ç–≤–æ –ê–Ω–¥–æÃÅ—Ä–∞",
              "official_name:cv" : "–ê–Ω–¥–æ—Ä—Ä–∞ –∫–Ω—è–∂–µ—Å—Ç–≤–∏",
              "official_name:cy" : "Tywysogaeth Andorra",
              "official_name:da" : "Fyrstend√∏mmet Andorra",
              "official_name:de" : "F√ºrstentum Andorra",
              "official_name:el" : "Œ†œÅŒπŒ≥Œ∫Œ∑œÄŒ¨œÑŒø œÑŒ∑œÇ ŒëŒΩŒ¥œåœÅœÅŒ±œÇ",
              "official_name:en" : "Principality of Andorra",
              "official_name:eo" : "Andora Princlando",
              "official_name:es" : "Principado de Andorra",
              "official_name:et" : "Andorra V√ºrstiriik",
              "official_name:eu" : "Andorrako Printzerria",
              "official_name:fa" : "ÿ¥ÿßŸáÿ≤ÿßÿØŸá‚ÄåŸÜÿ¥€åŸÜ ÿ¢ŸÜÿØŸàÿ±ÿ±ÿß",
              "official_name:fi" : "Andorran ruhtinaskunta",
              "official_name:fo" : "Prinsad√∏mi√∞ Andorra",
              "official_name:fr" : "Principaut√© d'Andorre",
              "official_name:ga" : "Phrionsacht And√≥ra",
              "official_name:gd" : "Prionnsalachd Andorra",
              "official_name:gl" : "Principado de Andorra",
              "official_name:gn" : "Tet√£ Andorra",
              "official_name:gu" : "‡™™‡´ç‡™∞‡™ø‡™®‡´ç‡™∏‡™ø‡™™‡™æ‡™≤‡™ø‡™ü‡´Ä ‡™ì‡™´ ‡™è‡™®‡´ç‡™°‡´ã‡™∞‡™æ",
              "official_name:gv" : "Prinsaght Andorra",
              "official_name:he" : "◊†÷∞◊°÷¥◊ô◊õ◊ï÷º◊™ ◊ê÷∑◊†÷∞◊ì÷º◊ï÷π◊®÷∏◊î",
              "official_name:hr" : "Kne≈æevina Andora",
              "official_name:hu" : "Andorrai Hercegs√©g",
              "official_name:ia" : "Principato de Andorra",
              "official_name:id" : "Kepangeranan Andorra",
              "official_name:io" : "princio di Andora",
              "official_name:it" : "Principato di Andorra",
              "official_name:ja" : "„Ç¢„É≥„Éâ„É©ÂÖ¨ÂõΩ",
              "official_name:ka" : "·Éê·Éú·Éì·Éù·É†·Éò·É° ·É°·Éê·Éõ·Éó·Éê·Éï·É†·Éù",
              "official_name:kk" : "–ê–Ω–¥–æ—Ä—Ä–∞ –∫–Ω—è–∑–¥—ñ–≥—ñ",
              "official_name:km" : "·ûÄ·üí·ûü·ûè·üí·ûö·ûî·üí·ûö·ûë·üÅ·ûü·û¢·ûÑ·üã·ûä·ûº·ûö·üâ·û∂",
              "official_name:kn" : "‡≤™‡≥ç‡≤∞‡≤ø‡≤®‡≥ç‡≤∏‡≤ø‡≤™‡≤æ‡≤ü‡≥ç ‡≤¶‡≥ç'‡≤Ö‡≤Ç‡≤°‡≥ã‡≤∞",
              "official_name:ko" : "ÏïàÎèÑÎùº Í≥µÍµ≠",
              "official_name:ku" : "M√Æritiya Andorray√™",
              "official_name:kv" : "–ê–Ω–¥–æ—Ä—Ä–∞ ”ß–∫—Å—ã—É–≤",
              "official_name:kw" : "Prynseth Andorra",
              "official_name:la" : "Principatus Andorrae",
              "official_name:lb" : "F√ºrstentum Andorra",
              "official_name:li" : "Prinsdom Andorra",
              "official_name:ln" : "Mani ya Andora",
              "official_name:lo" : "‡∫•‡∫≤‡∫ä‡∫∞‡∫•‡∫±‡∫î‡∫≠‡∫±‡∫á‡∫î‡∫≠‡∫Å",
              "official_name:lt" : "Andoros Kunigaik≈°tystƒó",
              "official_name:lv" : "Andoras Firstiste",
              "official_name:mk" : "–ö–Ω–µ–∂–µ—Å—Ç–≤–æ –ê–Ω–¥–æ—Ä–∞",
              "official_name:ml" : "‡¥™‡µç‡¥∞‡¥ø‡µª‡¥∏‡¥ø‡¥™‡µç‡¥™‡¥æ‡¥≤‡¥ø‡¥±‡µç‡¥±‡¥ø ‡¥ì‡¥´‡µç ‡¥Ö‡µª‡¥°‡µã‡¥±",
              "official_name:mn" : "–ê–Ω–¥–æ—Ä—Ä—ã–Ω –ì“Ø–Ω—Ç –£–ª—Å",
              "official_name:mr" : "‡§Ü‡§Ç‡§¶‡•ã‡§∞‡§æ‡§ö‡•á ‡§∞‡§æ‡§ú‡•ç‡§Ø",
              "official_name:ms" : "Prinsipaliti Andorra",
              "official_name:mt" : "Prinƒãipalit√† tal-Andorra",
              "official_name:my" : "·Ä°·ÄÑ·Ä∫·Äí·Ä≠·ÄØ·Äõ·Ä¨·Äê·Ä±·Ä¨·ÄÑ·Ä∫·ÄÄ·Äº·Ä¨·Ä∏·Äô·ÄÑ·Ä∫·Ä∏·Äû·Ä¨·Ä∏·Äî·Ä≠·ÄØ·ÄÑ·Ä∫·ÄÑ·Ä∂",
              "official_name:nl" : "Vorstendom Andorra",
              "official_name:nn" : "Fyrsted√∏met Andorra",
              "official_name:no" : "Fyrsted√∏mmet Andorra",
              "official_name:oc" : "Principat d'And√≤rra",
              "official_name:pa" : "‡®Ö‡©∞‡®°‡©ã‡®∞‡®æ ‡®¶‡©Ä ‡®∞‡®ø‡®Ü‡®∏‡®§",
              "official_name:pl" : "Ksiƒôstwo Andory",
              "official_name:pt" : "Principado de Andorra",
              "official_name:qu" : "Andurra Awki Suyu",
              "official_name:rm" : "Principadi da l‚ÄôAndorra",
              "official_name:ro" : "Principatul Andorrei",
              "official_name:ru" : "–ö–Ω—è–∂–µ—Å—Ç–≤–æ –ê–Ω–¥–æ—Ä—Ä–∞",
              "official_name:se" : "Andorra prinsip√°hta",
              "official_name:sg" : "Limondo t√Æ And√¥ro",
              "official_name:sh" : "Principat Andora",
              "official_name:sk" : "Andorrsk√© knie≈æatstvo",
              "official_name:sl" : "Principat Andore",
              "official_name:so" : "Dowlada Andorra",
              "official_name:sq" : "Principata e Andorr√´s",
              "official_name:sr" : "–ö–Ω–µ–∂–µ–≤–∏–Ω–∞ –ê–Ω–¥–æ—Ä–∞",
              "official_name:su" : "Kapang√©ranan Andorra",
              "official_name:sv" : "Furstend√∂met Andorra",
              "official_name:sw" : "Utemi wa Andorra",
              "official_name:ta" : "‡ÆÖ‡Æ®‡Øç‡Æ§‡Øã‡Æ∞‡Ææ ‡Æ™‡Æø‡Æ∞‡Æø‡Æ©‡Øç‡Æö‡Æø‡Æ™‡Ææ‡Æ≤‡Æø‡Æü‡Æø",
              "official_name:te" : "‡∞™‡±ç‡∞∞‡∞ø‡∞®‡±ç‡∞∏‡∞ø‡∞™‡∞æ‡∞≤‡∞ø‡∞ü‡±Ä ‡∞Ü‡∞´‡±ç ‡∞Ö‡∞Ç‡∞°‡±ä‡∞∞‡±ç‡∞∞‡∞æ",
              "official_name:tg" : "·èÑ·é¨·è´·è≥·èí·é¢ ·éæ·éø ·é†·èÇ·èô·é≥",
              "official_name:th" : "‡∏£‡∏≤‡∏ä‡∏£‡∏±‡∏ê‡∏≠‡∏±‡∏ô‡∏î‡∏≠‡∏£‡πå‡∏£‡∏≤",
              "official_name:tk" : "Andorra kn√Ωazlygy",
              "official_name:tl" : "Prinsipalya ng Andora",
              "official_name:tr" : "Andorra Prensliƒüi",
              "official_name:tt" : "–ê–Ω–¥–æ—Ä—Ä–∞ –∫–µ–Ω”ô–∑–ª–µ–≥–µ",
              "official_name:ug" : "ÿ¶ÿßŸÜÿØŸàÿ±ÿ±ÿß ŸÉ€êŸÜ€ïÿ≤ŸÑŸâŸÉŸâ",
              "official_name:uk" : "–ö–Ω—è–∑—ñ–≤—Å—Ç–≤–æ –ê–Ω–¥–æ—Ä—Ä–∞",
              "official_name:ur" : "ÿßŸÖÿßÿ±ÿßÿ™Ÿê ÿßŸÜ⁄àŸàÿ±ÿß",
              "official_name:uz" : "Andorra Qirolligi",
              "official_name:vi" : "Th√¢n v∆∞∆°ng qu·ªëc Andorra",
              "official_name:wo" : "Pirinsip√≥ote bu Andoor",
              "official_name:yi" : "◊ì◊ô ◊§◊®◊ô◊†◊¶◊ô◊§◊ê÷∑◊ú◊ô◊ò◊¢◊ò ◊§◊ï◊ü ◊ê÷∑◊†◊ì◊ê◊®◊¢",
              "official_name:yo" : "Il·∫πÃÄ-·ªåm·ªçba Andorra",
              "official_name:zh" : "ÂÆâÈÅìÁàæË¶™ÁéãÂúã",
              "ISO3166-1:numeric" : "020",
              "official_name:als" : "F√ºrstentum Andorra",
              "official_name:arc" : "‹™‹ù‹´‹¢‹ò‹¨‹ê ‹ï‹ê‹¢‹ï‹ò‹™‹ê",
              "official_name:arz" : "ÿ•ŸÖÿßÿ±ÿ© ÿ£ŸÜÿØŸàÿ±ÿß",
              "official_name:ast" : "Principat d'Andorra",
              "official_name:azb" : "ÿ¢ŸÜÿØŸàÿ±ÿß Ÿæ€åÿ±ŸÜÿ≥‚ÄåŸÑ€å⁄Ø€å",
              "official_name:bar" : "Fiaschtntum Andorra",
              "official_name:bpy" : "‡¶®‡ßà‡¶§‡¶ø‡¶ï ‡¶è‡¶®‡ßç‡¶°‡ßã‡¶∞‡¶æ",
              "official_name:bxr" : "–ê–Ω–¥–æ—Ä—Ä—ã–Ω –ì“Ø–Ω—Ç—ç –£–ª–∞—Å",
              "official_name:ckb" : "ŸÖ€åÿ±ŸÜÿ¥€åŸÜ€å ÿ¶ÿßŸÜÿØ€Üÿ±ÿß",
              "official_name:crh" : "Andorra Prinsligi",
              "official_name:dsb" : "Wjerchojstwo Andorry",
              "official_name:eml" : "Princip√§ d'And√≤ra",
              "official_name:ext" : "Prencipau d'Andorra",
              "official_name:frp" : "Princip√¥t√¢t d‚ÄôAndorra",
              "official_name:frr" : "F√∂√∂rstendoom faan Andora",
              "official_name:fur" : "Princip√¢t di Andorra",
              "official_name:got" : "êçÄêçÇêåπêåΩêçÉêåπêçÄêå∞êçÑ êå≥ êå∞êåΩêå≥êçâêçÇêçÇêå∞êå∞",
              "official_name:hsb" : "Wjerchowstwo Andorra",
              "official_name:ilo" : "Principalidad ti Andorra",
              "official_name:jam" : "Prinspaliti a Anduora",
              "official_name:koi" : "–ü—Ä–∏–Ω—Ü–∏–ø–∞—Ç –ê–Ω–¥–æ—Ä—Ä–∞",
              "official_name:krc" : "–ê–Ω–¥–æ—Ä—Ä–∞ –ë–∏–π–ª–∏–∫",
              "official_name:ksh" : "F√∂rstedom Andorra",
              "official_name:lad" : "Prinsipado de Andorra",
              "official_name:lij" : "Prin√ßipato de Andora",
              "official_name:lmo" : "Principaa d'Andora",
              "official_name:lzh" : "ÂÆâÈÅìÁàæË¶™ÁéãÂúã",
              "official_name:min" : "Kapangeranan Andorra",
              "official_name:myv" : "–ê–Ω–¥–æ—Ä—Ä–∞ –ú–∞—Å—Ç–æ—Ä",
              "official_name:nan" : "Andorra Kong-kok",
              "official_name:nap" : "Principato 'e Andorra",
              "official_name:nds" : "F√ºrstendom Andorra",
              "official_name:olo" : "Andorran Ruhtinaskundu",
              "official_name:pam" : "Principalidad ning Andorra",
              "official_name:pcd" : "Principaut√© d‚ÄôAndore",
              "official_name:pms" : "Prinsip√† d'Andorra",
              "official_name:pnt" : "Œ†œÅŒπŒ≥Œ∫Œ∑œÄŒ¨œÑŒø œÑŒ∑ ŒëŒΩŒ¥œåœÅœÅŒ±œÇ",
              "official_name:rue" : "–ö–Ω—è–∑—ó–≤—Å—Ç–≤–æ –ê–Ω–¥–æ—Ä–∞",
              "official_name:sah" : "–ê–Ω–¥–æ—Ä—Ä–∞ –ö–∏–Ω—ç—çh–∏–ª–∏–≥—ç",
              "official_name:scn" : "Principatu di Andorra",
              "official_name:sco" : "Preencipality o Andorrae",
              "official_name:srn" : "Andorrakondre",
              "official_name:szl" : "K≈õynstwo Andory",
              "official_name:udm" : "–ö–Ω—è–∂–µ—Å—Ç–≤–æ –ê–Ω–¥–æÃÅ—Ä—Ä–∞",
              "official_name:vec" : "Principato de Andora",
              "official_name:vep" : "Andorran Ruhtinazkund",
              "official_name:vls" : "Prinsdom Andorra",
              "official_name:war" : "Prinsipado han Andorra",
              "official_name:wuu" : "ÂÆâÈÅìÂ∞îÂÖ¨ÂõΩ",
              "official_name:nds-nl" : "Vorstendom Andorra",
              "official_name:bat-smg" : "Andoras konƒógƒÅk≈°tƒ´stƒó",
              "official_name:fiu-vro" : "Andorra V√ºrstiriik",
              "official_name:roa-rup" : "Printsipatlu Andorra",
              "official_name:roa-tara" : "Prengep√°te d'Andorre",
              "official_name:be-tarask" : "–ö–Ω—è—Å—Ç–≤–∞ –ê–Ω–¥–æ—Ä–∞"}
           },
           "geometry": {"type":"MultiPolygon","coordinates":[[[[1.4135781,42.5353776],[1.4138791,42.5360124],[1.4139407,42.5367744],[1.4140558,42.5370746],[1.4142155,42.5374914],[1.4143211,42.5378868],[1.4143794,42.5400737],[1.415008,42.5407543],[1.4153617,42.5411387],[1.4160847,42.5419025],[1.4162924,42.5421468],[1.4164394,42.5423197],[1.4168127,42.5428924],[1.4173735,42.5435911],[1.4185402,42.5440772],[1.4188136,42.5443278],[1.4191705,42.5450703],[1.4194324,42.5453303],[1.4192558,42.5469668],[1.4190286,42.5487814],[1.4192789,42.549532],[1.4194546,42.5496062],[1.4205264,42.5497809],[1.4208081,42.5499771],[1.4208617,42.5502181],[1.4212903,42.5509399],[1.4223015,42.5521523],[1.4225976,42.5532393],[1.422795,42.5536188],[1.4230386,42.5554866],[1.423328,42.5559168],[1.4237033,42.5562165],[1.4245008,42.5570113],[1.4252275,42.5579616],[1.4264338,42.5585297],[1.4279867,42.5590705],[1.4307507,42.560541],[1.4348453,42.56212],[1.4356,42.5624384],[1.4366683,42.5630938],[1.4370659,42.5632044],[1.4376553,42.5632716],[1.4400608,42.5638715],[1.4406764,42.5641584],[1.4410913,42.5643177],[1.4421754,42.5653616],[1.4428381,42.5660244],[1.443427,42.5666235],[1.4443594,42.5672426],[1.4449787,42.5681995],[1.4443929,42.5688295],[1.4438994,42.5693705],[1.4435478,42.5702586],[1.4435813,42.5713491],[1.4434009,42.5719235],[1.4411074,42.5727146],[1.4374021,42.572961],[1.4363594,42.5731824],[1.4358319,42.5735231],[1.4338695,42.5743014],[1.432461,42.5752854],[1.4318003,42.5756873],[1.4315753,42.5767871],[1.4306684,42.5773391],[1.4283011,42.5800784],[1.4266614,42.5830732],[1.4274737,42.5849204],[1.4274448,42.5867266],[1.4276581,42.5874554],[1.4290401,42.5877674],[1.4303704,42.5877626],[1.4324458,42.5890158],[1.4341742,42.590256],[1.4358685,42.5916773],[1.4375964,42.5917861],[1.4383921,42.5922966],[1.4405939,42.5944398],[1.4405211,42.5948336],[1.4408335,42.5961218],[1.4415511,42.597333],[1.4421881,42.5983942],[1.4428035,42.598759],[1.4427787,42.5998577],[1.4428628,42.6015039],[1.4426756,42.6027558],[1.4419909,42.6037228],[1.4433331,42.6035278],[1.4456716,42.6035256],[1.447125,42.6037336],[1.4481871,42.6036006],[1.4509584,42.6023687],[1.4527676,42.602462],[1.4541149,42.6025608],[1.4561692,42.6020278],[1.4587379,42.6033323],[1.4595102,42.6047676],[1.4606772,42.6052179],[1.4614921,42.6056473],[1.4631586,42.6055402],[1.4639392,42.6064838],[1.4640241,42.6067878],[1.4646436,42.6069182],[1.4659065,42.6067827],[1.4674837,42.6064952],[1.4689753,42.606463],[1.4704844,42.608964],[1.4728722,42.6100942],[1.4748768,42.6116996],[1.474871,42.6124515],[1.4755831,42.6127624],[1.4766019,42.6130817],[1.4768834,42.6134593],[1.4775431,42.6146403],[1.4759742,42.6164325],[1.4750056,42.6180323],[1.4744002,42.6199801],[1.4735591,42.622062],[1.4725685,42.6226663],[1.472077,42.6237578],[1.470936,42.6248062],[1.4705824,42.6260547],[1.471316,42.6282428],[1.4711014,42.6294066],[1.4680186,42.6308896],[1.4694584,42.6338453],[1.4698972,42.6354374],[1.4709365,42.6360956],[1.4716613,42.6368603],[1.4734977,42.6377771],[1.4769949,42.6406393],[1.4777379,42.6423331],[1.4780969,42.6435349],[1.4769565,42.6445491],[1.4772575,42.6456576],[1.4781124,42.646692],[1.4787141,42.6486903],[1.4787773,42.6514498],[1.4870487,42.651924],[1.4934425,42.6535572],[1.4966068,42.649971],[1.4993566,42.6459371],[1.5012149,42.6454761],[1.5066124,42.6452694],[1.5121761,42.6460262],[1.5128856,42.6460422],[1.5170458,42.6458592],[1.5187225,42.6454747],[1.520769,42.6466507],[1.5221905,42.6486647],[1.5237408,42.6494475],[1.525198,42.6505699],[1.5283562,42.6518063],[1.5317806,42.6508257],[1.5334268,42.6497571],[1.5362901,42.6506794],[1.5384266,42.6524711],[1.5417003,42.6530671],[1.5430017,42.6539271],[1.5448458,42.6544201],[1.5471188,42.6550278],[1.5491774,42.6558852],[1.5492987,42.6559357],[1.5502197,42.6551626],[1.5514195,42.6547121],[1.5519598,42.6545092],[1.5523898,42.6543556],[1.5524372,42.6543387],[1.5526267,42.654271],[1.5558665,42.6531139],[1.5581418,42.6520488],[1.5591671,42.6528046],[1.5606224,42.6534695],[1.5623621,42.6533307],[1.5637655,42.6528241],[1.5653109,42.6520607],[1.5665284,42.6509663],[1.5668044,42.6501054],[1.5675293,42.6496148],[1.5684573,42.6482489],[1.5710843,42.6477822],[1.5728436,42.6469392],[1.5746951,42.6471436],[1.5756133,42.646375],[1.576065,42.6424898],[1.5784025,42.6416754],[1.5800818,42.6370926],[1.5843433,42.6339381],[1.5851587,42.6337022],[1.5857193,42.6334575],[1.5861538,42.6335009],[1.5866473,42.6337417],[1.5888532,42.6336957],[1.5936564,42.6328769],[1.5969107,42.6301286],[1.6003844,42.6258772],[1.6025216,42.6255422],[1.6038785,42.6257687],[1.604777,42.6267646],[1.6064658,42.627438],[1.6081654,42.6284641],[1.6087429,42.628432],[1.6093857,42.6285683],[1.6104643,42.6277266],[1.6106059,42.6273659],[1.6113359,42.6267326],[1.6156695,42.6267391],[1.6165465,42.6268588],[1.6171784,42.6265863],[1.6174399,42.6262496],[1.6181319,42.6259739],[1.6184532,42.6258087],[1.6191504,42.6257606],[1.6198558,42.6260082],[1.622267,42.6275731],[1.6239578,42.6270047],[1.6264726,42.6266549],[1.6285657,42.6266562],[1.6298915,42.6272445],[1.6304594,42.6278073],[1.6343626,42.6293026],[1.637122,42.630316],[1.6385483,42.6285505],[1.639353,42.6281823],[1.6404539,42.6283016],[1.6421976,42.6282945],[1.6456662,42.6277516],[1.6498178,42.6270947],[1.6531544,42.6263668],[1.6550893,42.6244289],[1.655366,42.6224787],[1.6596655,42.620488],[1.6605662,42.6204339],[1.6612658,42.6198181],[1.66201,42.6194608],[1.6626009,42.6194655],[1.6631695,42.6190918],[1.6636103,42.6191223],[1.6639012,42.6189812],[1.6643992,42.6193668],[1.6651325,42.6204786],[1.6661337,42.6210732],[1.6676988,42.621682],[1.669353,42.6213241],[1.6707728,42.6214715],[1.6729577,42.6211113],[1.6746472,42.622288],[1.6784875,42.6225038],[1.6797871,42.6241079],[1.6804765,42.6247542],[1.6809309,42.6248799],[1.6826526,42.6248785],[1.683443,42.6249425],[1.6840619,42.6247849],[1.6858219,42.6241662],[1.6874736,42.623942],[1.6890226,42.6238513],[1.6906579,42.6233179],[1.6917336,42.6222928],[1.6921293,42.6219763],[1.6925518,42.6221223],[1.6945117,42.6225423],[1.6965939,42.622386],[1.6985702,42.6228381],[1.699972,42.622542],[1.7008524,42.6223242],[1.7040765,42.6200095],[1.7054542,42.6191921],[1.7078756,42.6181653],[1.7113121,42.6161889],[1.7133034,42.6149958],[1.7154978,42.6145763],[1.7198288,42.6151673],[1.7214072,42.6158554],[1.7227373,42.6167283],[1.7302339,42.6146174],[1.7319813,42.6146994],[1.7332333,42.6155792],[1.7338406,42.6162645],[1.7350553,42.6174573],[1.73608,42.6178377],[1.7361106,42.615652],[1.7379897,42.6125608],[1.7384087,42.6117099],[1.7358522,42.6093963],[1.7356452,42.6092126],[1.7338747,42.6075698],[1.732985,42.603519],[1.7302129,42.6004497],[1.727676,42.6010001],[1.7270214,42.5968441],[1.7270029,42.5919231],[1.7263033,42.5913994],[1.7268159,42.5898819],[1.7268146,42.5890618],[1.7276538,42.5882686],[1.7286637,42.5881691],[1.7302364,42.587974],[1.7316027,42.5879591],[1.7328924,42.5883091],[1.733715,42.5887995],[1.7348812,42.588147],[1.7371009,42.5878606],[1.7419455,42.5878725],[1.7452022,42.5863474],[1.7481994,42.5850816],[1.7510638,42.5845205],[1.7537594,42.582669],[1.7555043,42.5826268],[1.7600986,42.5809222],[1.7682962,42.580141],[1.7749424,42.5814356],[1.7795965,42.5817916],[1.7824244,42.5789197],[1.7845513,42.5755421],[1.7863837,42.5739723],[1.7861811,42.5737635],[1.786061,42.573685],[1.7858202,42.5735862],[1.7855389,42.5734982],[1.785358,42.5733856],[1.7852997,42.5732812],[1.785305,42.573001],[1.7852328,42.5727352],[1.7851255,42.5725071],[1.7848858,42.5723991],[1.7834572,42.5719428],[1.7827192,42.5716955],[1.7822111,42.5713725],[1.78205,42.5708967],[1.7818231,42.570721],[1.7815766,42.570603],[1.7811265,42.5703819],[1.7806939,42.5701806],[1.7802618,42.5699376],[1.7800071,42.5698366],[1.7794124,42.5695935],[1.7790532,42.5694617],[1.7786108,42.5691853],[1.7779664,42.5688137],[1.7776234,42.5686544],[1.7770523,42.5684631],[1.7769281,42.568363],[1.7766724,42.5681358],[1.7764412,42.5680526],[1.7761073,42.567932],[1.775924,42.5679469],[1.7755819,42.5679812],[1.7754753,42.5679512],[1.7754078,42.5679128],[1.7752809,42.5677969],[1.7751123,42.5676537],[1.7750546,42.5675321],[1.7749147,42.567247],[1.7746708,42.56706],[1.7743478,42.566876],[1.7739277,42.5666859],[1.7736509,42.5664872],[1.7733932,42.5664168],[1.77299,42.5663486],[1.7726213,42.5663724],[1.7722065,42.566267],[1.7720414,42.5662546],[1.7714573,42.5663325],[1.7713033,42.5663499],[1.7712238,42.5662814],[1.7712931,42.5660877],[1.7713013,42.5660055],[1.7712303,42.5659149],[1.7711143,42.5658515],[1.7707598,42.5658487],[1.7706354,42.5658033],[1.7702048,42.5654559],[1.7700908,42.5653018],[1.7699937,42.5651249],[1.7698052,42.5649663],[1.7696872,42.5649222],[1.7683621,42.564738],[1.7638304,42.5653945],[1.7580984,42.5646358],[1.7532069,42.5642586],[1.7499655,42.5636551],[1.7481698,42.5630675],[1.7454544,42.5610333],[1.7434364,42.5590606],[1.7416814,42.5576846],[1.7401241,42.5564982],[1.7389233,42.5551606],[1.7371331,42.5519693],[1.7368701,42.5513609],[1.7369541,42.5510514],[1.7368453,42.5509276],[1.7363808,42.5507965],[1.7356525,42.5499734],[1.7353225,42.5498573],[1.7352866,42.549868],[1.7350157,42.5500394],[1.7349401,42.5499612],[1.734444,42.5490119],[1.7348163,42.5483944],[1.7350928,42.548589],[1.735467,42.5487738],[1.7357661,42.5489042],[1.7360058,42.548995],[1.7365012,42.5491269],[1.7365944,42.5494638],[1.7366492,42.5495078],[1.7367256,42.5495508],[1.7368784,42.5496129],[1.7374411,42.549575],[1.7379149,42.549538],[1.7378862,42.5493984],[1.7376483,42.5492935],[1.7375638,42.549208],[1.7375013,42.5491276],[1.7374887,42.5490904],[1.7374881,42.5490366],[1.7375001,42.5489941],[1.7375337,42.5489432],[1.7376269,42.5488543],[1.7376878,42.5487683],[1.7377744,42.5486315],[1.7377666,42.5485547],[1.7367618,42.548703],[1.7363012,42.5485752],[1.7361604,42.5485278],[1.7359706,42.5484418],[1.7355676,42.5482432],[1.7353548,42.5481435],[1.7350271,42.5479636],[1.7349125,42.5478777],[1.7347936,42.5477559],[1.7346838,42.547603],[1.7346463,42.5475299],[1.7346924,42.547367],[1.7348205,42.5471575],[1.7349413,42.547023],[1.7353946,42.5466107],[1.7354751,42.5464766],[1.7354992,42.5463699],[1.7354991,42.5462479],[1.735392,42.5457823],[1.7353798,42.5455993],[1.7354254,42.5453117],[1.7355175,42.5449253],[1.7351132,42.5443859],[1.735168,42.5440167],[1.7352496,42.5437941],[1.7355747,42.5434682],[1.7356389,42.543406],[1.7356704,42.5433727],[1.7356004,42.5429194],[1.7354324,42.5427246],[1.7352248,42.5426918],[1.7349684,42.5424523],[1.7346228,42.5421994],[1.7342413,42.5419927],[1.7340095,42.541545],[1.7341029,42.5412043],[1.7339843,42.5409804],[1.734055,42.5407712],[1.7343962,42.540457],[1.734271,42.54011],[1.7342635,42.5398333],[1.7340894,42.5396009],[1.734056,42.5391651],[1.7337792,42.5391141],[1.733495,42.5388282],[1.7335301,42.5385441],[1.7335494,42.5384367],[1.7334851,42.5383311],[1.7335222,42.5381837],[1.7338764,42.5378912],[1.7336383,42.5375536],[1.7336282,42.53734],[1.7338855,42.5370201],[1.7341252,42.5369965],[1.734422,42.5364717],[1.7343032,42.5361986],[1.7344242,42.5358948],[1.7344069,42.5357273],[1.7342635,42.5354742],[1.7342688,42.5349812],[1.7346792,42.5339049],[1.7348789,42.5336733],[1.7345057,42.5333128],[1.7343031,42.5329686],[1.7342656,42.5326334],[1.7336128,42.5322771],[1.7336459,42.531776],[1.7334607,42.5314567],[1.7335201,42.5313047],[1.7331497,42.530921],[1.7330623,42.5303956],[1.7331942,42.5300573],[1.7333025,42.5281143],[1.7327317,42.5258662],[1.7321327,42.5238503],[1.7322097,42.5234235],[1.7321567,42.5229284],[1.7313413,42.5221343],[1.7303864,42.5207945],[1.7279609,42.5194908],[1.7275879,42.5186721],[1.726577,42.5184502],[1.7252713,42.5188325],[1.7233221,42.5181791],[1.7225307,42.5176901],[1.7244072,42.516058],[1.7252228,42.5156057],[1.7256058,42.5148528],[1.7259466,42.5113814],[1.7261687,42.5106187],[1.7256731,42.5082624],[1.7258121,42.5053391],[1.725891,42.5026989],[1.72217,42.5009415],[1.718326,42.4991287],[1.7143786,42.4946802],[1.7113736,42.4922559],[1.7093993,42.4915629],[1.7074028,42.4910598],[1.7061151,42.4904375],[1.7036101,42.4898022],[1.7031122,42.4898136],[1.7025732,42.4899258],[1.7021602,42.4900958],[1.7005904,42.4910607],[1.6993137,42.4915543],[1.693689,42.4936037],[1.6924257,42.4941147],[1.6909338,42.4948241],[1.6904217,42.4949712],[1.688403,42.4951439],[1.6865979,42.4954069],[1.6859881,42.4955489],[1.6856592,42.4955443],[1.6825412,42.4945194],[1.6818095,42.4943332],[1.6811822,42.4942418],[1.6798649,42.4945208],[1.6794754,42.4946808],[1.6769305,42.4966035],[1.6759659,42.4975343],[1.6739522,42.5000565],[1.673011,42.5013014],[1.6721905,42.5022082],[1.6716895,42.502994],[1.6690951,42.5057918],[1.6691545,42.5041964],[1.6689511,42.5034617],[1.6687722,42.5027988],[1.6677171,42.4998156],[1.6660539,42.498722],[1.6659023,42.4986107],[1.6658103,42.4980656],[1.6657896,42.4964818],[1.6654268,42.4958573],[1.6637159,42.4946144],[1.6622382,42.4937229],[1.6623289,42.4931384],[1.6623587,42.4928851],[1.6625864,42.4923437],[1.6628134,42.4918041],[1.6622532,42.4901612],[1.6623212,42.489114],[1.6623395,42.4884628],[1.6618271,42.4841101],[1.6619331,42.4837366],[1.6632892,42.4815295],[1.663237,42.479848],[1.6608522,42.4790177],[1.6615168,42.477325],[1.6619185,42.4768404],[1.6626832,42.4755127],[1.6623837,42.4747631],[1.6624963,42.4739807],[1.6618527,42.4733407],[1.6602072,42.4723092],[1.6591725,42.4714779],[1.6588138,42.4710694],[1.6577557,42.4691046],[1.6574381,42.4687574],[1.6570261,42.46845],[1.6565443,42.4682319],[1.6535853,42.4673114],[1.6509076,42.4671141],[1.6495996,42.4671852],[1.6487246,42.4673558],[1.6467199,42.4686473],[1.6461908,42.4686891],[1.6457538,42.4687819],[1.64504,42.4686668],[1.6436003,42.4676177],[1.642802,42.4671819],[1.6424297,42.4666566],[1.6405201,42.4665811],[1.6374633,42.4675464],[1.6361739,42.4680891],[1.6350459,42.467208],[1.6343072,42.4670848],[1.632872,42.4664226],[1.6325243,42.4659955],[1.632347,42.4655705],[1.6319443,42.463741],[1.6316418,42.4631119],[1.63168,42.4627495],[1.6312959,42.4630289],[1.6309395,42.4631424],[1.6306012,42.4633361],[1.6303564,42.4636431],[1.6298462,42.4639789],[1.6291495,42.4642592],[1.6285857,42.464363],[1.6282316,42.4641792],[1.6275307,42.4640725],[1.6268161,42.4641104],[1.6254749,42.4648848],[1.6233701,42.4655281],[1.6225665,42.4656776],[1.6218997,42.4657045],[1.6205683,42.4654653],[1.6188683,42.4647121],[1.6170611,42.4649639],[1.6167075,42.4650014],[1.6152287,42.4651018],[1.6148837,42.4652958],[1.6141089,42.4652926],[1.6127243,42.4652851],[1.6122258,42.4653503],[1.6114617,42.4649748],[1.6105108,42.4652722],[1.6103055,42.4650204],[1.6097587,42.464779],[1.6092182,42.4646072],[1.6075063,42.4645089],[1.6064137,42.4643715],[1.6058163,42.4647462],[1.6054895,42.4647899],[1.6048018,42.4650929],[1.6045209,42.465171],[1.6037821,42.4655429],[1.6017613,42.4661733],[1.6014045,42.4664488],[1.6005815,42.466833],[1.6000412,42.4669267],[1.5987321,42.4676456],[1.5983346,42.4676976],[1.5976114,42.4676186],[1.5968831,42.4673057],[1.5960309,42.4666286],[1.5947727,42.4658867],[1.5922909,42.4647078],[1.5903367,42.4634267],[1.589408,42.4630317],[1.5881149,42.4626424],[1.5867117,42.4617443],[1.5861342,42.4611642],[1.5856715,42.4604895],[1.5855224,42.4591185],[1.58401,42.4577199],[1.5835823,42.4573589],[1.5829952,42.4569772],[1.5826203,42.456506],[1.5825033,42.4560695],[1.5824974,42.4556556],[1.5818266,42.4536296],[1.5816352,42.4526739],[1.5816531,42.4520879],[1.581543,42.4515791],[1.5811997,42.450195],[1.5788543,42.449886],[1.5775927,42.4500896],[1.5765771,42.4511657],[1.5752643,42.4516684],[1.5744669,42.4520695],[1.5721767,42.4540068],[1.5719099,42.4543506],[1.5713525,42.4555434],[1.5710737,42.4558877],[1.5701828,42.4565085],[1.5699924,42.4567322],[1.5695975,42.4574863],[1.5684384,42.458433],[1.5674495,42.4588776],[1.5669833,42.4589863],[1.5663719,42.4589387],[1.565925,42.4588124],[1.5654198,42.4585535],[1.563335,42.4581415],[1.5616602,42.4586855],[1.5611409,42.4586557],[1.5605466,42.4585858],[1.5601249,42.4583055],[1.5580818,42.4556228],[1.5574038,42.4549926],[1.5570583,42.4544211],[1.5570097,42.4539188],[1.557113,42.4535005],[1.557893,42.4528572],[1.5580658,42.4523911],[1.5584839,42.4521224],[1.5587553,42.4518414],[1.5590642,42.4507397],[1.5601644,42.4493182],[1.5601383,42.4489591],[1.5600057,42.4486403],[1.5596772,42.4483022],[1.5587614,42.4477445],[1.5581817,42.4474615],[1.5557849,42.4467646],[1.5551386,42.4464032],[1.5548364,42.4460911],[1.5530422,42.4434795],[1.554079,42.440179],[1.5532847,42.4392832],[1.5533874,42.4380187],[1.5527231,42.4357313],[1.5532606,42.4350977],[1.5529359,42.4338051],[1.5526311,42.4334571],[1.5510875,42.4326182],[1.5503875,42.4328531],[1.5495621,42.4328679],[1.5481306,42.43324],[1.546282,42.4327193],[1.5447555,42.4326179],[1.5437745,42.4326658],[1.5425258,42.4323733],[1.5413261,42.432421],[1.5395466,42.4330228],[1.5389911,42.4330719],[1.5382306,42.432976],[1.5361219,42.4325554],[1.5349743,42.4324839],[1.5314098,42.4324361],[1.5294344,42.4325144],[1.5257503,42.432156],[1.5238409,42.4312952],[1.5229879,42.4310949],[1.5208165,42.4309826],[1.5196652,42.4310281],[1.518834,42.4309619],[1.5183969,42.4307991],[1.5170338,42.4294214],[1.516282,42.4289379],[1.5157512,42.4288238],[1.5128402,42.4289027],[1.5104309,42.429538],[1.5096046,42.4298767],[1.5083064,42.4297388],[1.5073217,42.4299036],[1.5064272,42.4304791],[1.5051912,42.4306988],[1.5039403,42.4315584],[1.4970311,42.4330007],[1.4960686,42.4331376],[1.4946283,42.4332212],[1.4852027,42.4333031],[1.4845776,42.4333997],[1.4829996,42.4337676],[1.4823969,42.4340074],[1.4792335,42.4343023],[1.4776918,42.435011],[1.4762636,42.435436],[1.4760044,42.4352991],[1.4732507,42.4349142],[1.4729508,42.4351828],[1.4728358,42.4352638],[1.4728004,42.4352876],[1.4727529,42.4353242],[1.4724653,42.4355457],[1.4691654,42.4361188],[1.4620994,42.4364036],[1.4597958,42.4363134],[1.4578411,42.4360025],[1.4565441,42.4358819],[1.4551833,42.436061],[1.4524043,42.4369795],[1.450045,42.4379897],[1.4472306,42.4394407],[1.444393,42.4414237],[1.4438243,42.4423192],[1.4432567,42.4439168],[1.4425834,42.4447083],[1.446796,42.4437703],[1.4463408,42.4452376],[1.4453203,42.4466188],[1.4455696,42.4472214],[1.4462107,42.4482048],[1.443723,42.4503274],[1.4417739,42.4516456],[1.4415964,42.4520576],[1.4420493,42.4527873],[1.4418882,42.453775],[1.4414494,42.4553047],[1.4418284,42.4558482],[1.4433023,42.4570874],[1.4440591,42.4574722],[1.4455491,42.4580806],[1.4461635,42.4590291],[1.4468565,42.4595424],[1.4474698,42.4601308],[1.4472227,42.4605905],[1.4449931,42.4616345],[1.4445177,42.4618842],[1.4429258,42.4629274],[1.4405053,42.4637777],[1.4401216,42.4643689],[1.4405942,42.4658902],[1.4406748,42.4675437],[1.4405333,42.469665],[1.4402156,42.47119],[1.440403,42.4724612],[1.4412336,42.4745719],[1.4412514,42.4749943],[1.4410304,42.4754801],[1.439789,42.4763843],[1.4338041,42.4809556],[1.4333876,42.4817731],[1.4312771,42.4824392],[1.4283583,42.4822806],[1.426182,42.4823957],[1.4233179,42.4825541],[1.4202306,42.4827517],[1.4173887,42.4823861],[1.4191502,42.4842779],[1.4209885,42.4863402],[1.4220951,42.4879466],[1.4235121,42.4897185],[1.4235189,42.4902211],[1.4237358,42.4909256],[1.4250765,42.4923319],[1.4262655,42.4930077],[1.4316232,42.4923486],[1.4352648,42.4933153],[1.4410755,42.4948182],[1.4438432,42.4955998],[1.4519768,42.4999291],[1.4535079,42.5012263],[1.4554275,42.5024254],[1.4564299,42.5029905],[1.4577898,42.5035047],[1.4590065,42.5040155],[1.4603314,42.5044741],[1.4607144,42.5052725],[1.4614809,42.5059116],[1.46249,42.5066258],[1.4668285,42.5094457],[1.4683999,42.509996],[1.4675276,42.511531],[1.4666241,42.5128981],[1.4658019,42.5141826],[1.4643638,42.5163545],[1.4633294,42.5191713],[1.4602687,42.5224151],[1.4600349,42.5228924],[1.4599545,42.5234718],[1.4575136,42.5256018],[1.4567898,42.5260352],[1.4551062,42.5264299],[1.4548047,42.5271865],[1.454921,42.5281648],[1.4545929,42.5301827],[1.4546243,42.5304637],[1.4539813,42.5312845],[1.4526453,42.5331044],[1.452541,42.5340806],[1.4522456,42.5364135],[1.4526245,42.5374611],[1.4526603,42.5377929],[1.4525421,42.5381847],[1.4525271,42.5387141],[1.451969,42.5394539],[1.450724,42.540077],[1.4469326,42.5415002],[1.444061,42.542579],[1.4429108,42.5431512],[1.4418183,42.5434638],[1.4406666,42.5435984],[1.4396504,42.5436919],[1.4386509,42.5436767],[1.4373,42.5433419],[1.4367728,42.5431193],[1.4362744,42.5427875],[1.4351812,42.5417944],[1.4343001,42.5412163],[1.4330509,42.540357],[1.4326473,42.5400794],[1.4310123,42.5396036],[1.429138,42.5392857],[1.4264438,42.5392787],[1.4253863,42.5391306],[1.425016,42.5390044],[1.4231937,42.5380748],[1.4215077,42.5372147],[1.4210093,42.5369605],[1.4195069,42.5364232],[1.4177839,42.535807],[1.4161534,42.5356249],[1.4137168,42.5353876],[1.4135781,42.5353776]]]]}
        } ]
}