{
  "type" : "FeatureCollection",
  "features" : [{
     "type":"Feature",
        "properties" : {
           "srid"          : "4326",
           "id"            : "184818",
           "name"          : "Jordan",
           "localname"     : "الأردن",
           "official_name" : "المملكة الأردنية الهاشمية",
           "boundary"      : "adminstrative",
           "admin_level"   : "2",
           "note"          : "",
           "wikidata"      : "Q810",
           "wikipedia"     : "en:Jordan",
           "timestamp"     : "2018-12-09 04:03:05",
           "rpath"         : "184818,0",
           "alltags"       : {
              "flag" : "http://upload.wikimedia.org/wikipedia/commons/c/c0/Flag_of_Jordan.svg",
              "name" : "الأردن",
              "sqkm" : "89342",
              "name:af" : "Jordanië",
              "name:am" : "ጆርዳን",
              "name:an" : "Chordania",
              "name:ar" : "الأردن",
              "name:az" : "İordaniya",
              "name:ba" : "Иордания",
              "name:be" : "Іарданія",
              "name:bg" : "Йордания",
              "name:bm" : "Ordon",
              "name:bn" : "জর্দান",
              "name:bo" : "རྗོར་ཌན།",
              "name:br" : "Jordania",
              "name:bs" : "Jordan",
              "name:ca" : "Jordània",
              "name:cs" : "Jordánsko",
              "name:cv" : "Иордани",
              "name:cy" : "Gwlad Iorddonen",
              "name:da" : "Jordan",
              "name:de" : "Jordanien",
              "name:dv" : "އުރުދުން",
              "name:el" : "Ιορδανία",
              "name:en" : "Jordan",
              "name:eo" : "Jordanio",
              "name:es" : "Jordania",
              "name:et" : "Jordaania",
              "name:eu" : "Jordania",
              "name:fa" : "اردن",
              "name:fi" : "Jordania",
              "name:fo" : "Jordan",
              "name:fr" : "Jordanie",
              "name:fy" : "Jordaanje",
              "name:ga" : "An Iordáin",
              "name:gd" : "Iòrdan",
              "name:gl" : "Xordania",
              "name:gu" : "જૉર્ડન",
              "name:gv" : "Yn Jordaan",
              "name:he" : "ירדן",
              "name:hi" : "जॉर्डन",
              "name:hr" : "Jordan",
              "name:ht" : "Jòdani",
              "name:hu" : "Jordánia",
              "name:hy" : "Հորդանան",
              "name:ia" : "Jordania",
              "name:id" : "Yordania",
              "name:ie" : "Jordania",
              "name:io" : "Jordania",
              "name:is" : "Jórdanía",
              "name:it" : "Giordania",
              "name:ja" : "ヨルダン",
              "name:jv" : "Yordania",
              "name:ka" : "იორდანია",
              "name:kk" : "Иордания",
              "name:kl" : "Jordan",
              "name:km" : "ហ្សកដង់",
              "name:ko" : "요르단",
              "name:ku" : "Urdun",
              "name:kv" : "Иордания",
              "name:kw" : "Jordan",
              "name:la" : "Iordania",
              "name:lb" : "Jordanien",
              "name:li" : "Jordanië",
              "name:ln" : "Zordaní",
              "name:lt" : "Jordanija",
              "name:lv" : "Jordānija",
              "name:mi" : "Hōrano",
              "name:mk" : "Јордан",
              "name:ml" : "ജോർദാൻ",
              "name:mn" : "Йордан",
              "name:mr" : "जॉर्डन",
              "name:ms" : "Jordan",
              "name:mt" : "Ġordan",
              "name:my" : "ဂျော်ဒန်နိုင်ငံ",
              "name:na" : "Djordan",
              "name:nl" : "Jordanië",
              "name:nn" : "Jordan",
              "name:no" : "Jordan",
              "name:nv" : "Jóoʼdan",
              "name:oc" : "Jordania",
              "name:or" : "ଜୋର୍ଡାନ",
              "name:os" : "Иордани",
              "name:pa" : "ਜਾਰਡਨ",
              "name:pl" : "Jordania",
              "name:ps" : "اردن",
              "name:pt" : "Jordânia",
              "name:qu" : "Hurdanya",
              "name:ro" : "Iordania",
              "name:ru" : "Иордания",
              "name:rw" : "Yorudani",
              "name:sa" : "जार्डन",
              "name:se" : "Jordánia",
              "name:sh" : "Jordan",
              "name:sk" : "Jordánsko",
              "name:sl" : "Jordanija",
              "name:so" : "Urdun",
              "name:sq" : "Jordania",
              "name:sr" : "Јордан",
              "name:ss" : "IJoridane",
              "name:su" : "Yordania",
              "name:sv" : "Jordanien",
              "name:sw" : "Yordani",
              "name:ta" : "ஜோர்தான்",
              "name:te" : "జోర్డాన్",
              "name:th" : "ประเทศจอร์แดน",
              "name:tk" : "Iordaniýa",
              "name:tl" : "Hordan",
              "name:tr" : "Ürdün",
              "name:tt" : "Үрдүн",
              "name:ug" : "ئىئوردانىيە",
              "name:uk" : "Йорданія",
              "name:ur" : "اردن",
              "name:uz" : "Iordaniya",
              "name:vi" : "Jordan",
              "name:vo" : "Yordän",
              "name:wo" : "Jordaani",
              "name:yi" : "יארדאניע",
              "name:yo" : "Jọ́rdánì",
              "name:zh" : "约旦",
              "boundary" : "administrative",
              "name:ace" : "Yordania",
              "name:als" : "Jordanien",
              "name:alt" : "الأردن",
              "name:ang" : "Hascemisce Cynerīce þæs Iordanes",
              "name:arc" : "ܝܘܪܕܢܢ",
              "name:arz" : "الاردن",
              "name:ast" : "Xordania",
              "name:bar" : "Jordanien",
              "name:bcl" : "Yordanya",
              "name:bjn" : "Yordania",
              "name:bpy" : "জর্ডান",
              "name:bug" : "Yordania",
              "name:bxr" : "Йордан",
              "name:ceb" : "Hordanya",
              "name:ckb" : "ئوردن",
              "name:crh" : "Urdun",
              "name:csb" : "Jordaniô",
              "name:diq" : "Urdun",
              "name:dsb" : "Jordaniska",
              "name:ext" : "Jordania",
              "name:frp" : "J·ordanie",
              "name:gag" : "İordaniya",
              "name:hak" : "Yok-tan",
              "name:haw" : "Ioredāne",
              "name:hif" : "Jordan",
              "name:hsb" : "Jordaniska",
              "name:ilo" : "Hordania",
              "name:jbo" : "gugdeju'o",
              "name:kab" : "Urdun",
              "name:kbd" : "Йордан",
              "name:krc" : "Иордания",
              "name:lez" : "Иордания",
              "name:lij" : "Giordannia",
              "name:lmo" : "Giurdania",
              "name:mdf" : "Иордание",
              "name:mzn" : "اوردون",
              "name:nah" : "Iordania",
              "name:nan" : "Iok-tàn",
              "name:nap" : "Giordania",
              "name:nds" : "Jordanien",
              "name:nov" : "Jordan",
              "name:pam" : "Hordanya",
              "name:pap" : "Jordan",
              "name:pih" : "Jordan",
              "name:pms" : "Giordania",
              "name:pnb" : "اردن",
              "name:sah" : "Иордания",
              "name:scn" : "Giurdania",
              "name:sco" : "Jordan",
              "name:stq" : "Jordanien",
              "name:szl" : "Jordańijo",
              "name:tzl" : "Xhordan",
              "name:udm" : "Иордания",
              "name:vec" : "Zordania",
              "name:war" : "Hordanya",
              "name:wuu" : "约旦",
              "name:xal" : "Хашимит Җордин Нутг",
              "name:yue" : "約旦",
              "name:zea" : "Jordaonië",
              "timezone" : "Asia/Amman",
              "wikidata" : "Q810",
              "ISO3166-1" : "JO",
              "wikipedia" : "en:Jordan",
              "admin_level" : "2",
              "alt_name:vi" : "Gioóc-đa-ni;Gioócđani;Gioocđani;Ước Đán",
              "border_type" : "administrative",
              "name:simple" : "Jordan",
              "name:bat-smg" : "Juordanėjė",
              "name:fiu-vro" : "Jordaania",
              "official_name" : "المملكة الأردنية الهاشمية",
              "name:be-tarask" : "Ярданія",
              "is_in:continent" : "Asia",
              "ISO3166-1:alpha2" : "JO",
              "ISO3166-1:alpha3" : "JOR",
              "default_language" : "ar",
              "official_name:cs" : "Jordánské hášimovské království",
              "official_name:en" : "Hashemite Kingdom of Jordan",
              "official_name:eo" : "Haŝemida Reĝlando Jordanio",
              "official_name:es" : "Reino Hachemita de Jordania",
              "official_name:fr" : "Royaume hachémite de Jordanie",
              "official_name:he" : "הממלכה הירדנית ההאשמית",
              "official_name:ru" : "Иорданское Хашимитское Королевство",
              "ISO3166-1:numeric" : "400"}
           },
           "geometry": {"type":"MultiPolygon","coordinates":[[[[34.9878556,29.5361094],[34.9879366,29.5360334],[34.9879376,29.5359688],[34.9879161,29.5359031],[34.9878455,29.5357987],[34.9877198,29.5357091],[34.9875399,29.5356323],[34.9874487,29.5356061],[34.9873809,29.5355799],[34.9873067,29.5355847],[34.9872091,29.535557],[34.9871074,29.5355625],[34.986941,29.5355979],[34.9867311,29.5356757],[34.9866379,29.5357373],[34.9865276,29.5358339],[34.9864724,29.5358943],[34.9864406,29.5359548],[34.9864245,29.5360042],[34.986427,29.5360536],[34.9864507,29.5360954],[34.9865107,29.5361112],[34.9865752,29.5361147],[34.986699,29.535959],[34.9867744,29.535974],[34.9868776,29.5359428],[34.9873729,29.5359402],[34.9875542,29.535962],[34.9875759,29.5359935],[34.9876155,29.5360349],[34.9876878,29.5361088],[34.9877765,29.5361347],[34.9878556,29.5361094]]],[[[34.9773642,29.5429248],[34.9773648,29.5429288],[34.977467,29.5432546],[34.9773857,29.5436412],[34.9772594,29.5439236],[34.9772154,29.5442377],[34.9771562,29.5447884],[34.9770982,29.5453274],[34.9771848,29.5467729],[34.9772374,29.5481296],[34.9773152,29.5492612],[34.9773029,29.5496643],[34.9772704,29.5507296],[34.9771846,29.5515787],[34.9770996,29.5520582],[34.9772187,29.5523033],[34.9774417,29.5524968],[34.9776204,29.5526518],[34.9777248,29.5529084],[34.9779134,29.5559199],[34.9780511,29.5581189],[34.9785332,29.5658172],[34.9784348,29.5681433],[34.9780409,29.5750183],[34.9780853,29.5760969],[34.9782937,29.5772931],[34.9784053,29.5775038],[34.9785645,29.5778045],[34.9787322,29.5781212],[34.9803249,29.5809078],[34.9803978,29.5811137],[34.9804574,29.5812819],[34.980867,29.5833593],[34.9848407,29.5906499],[34.9861078,29.5922448],[34.9871154,29.5937442],[34.9885573,29.5973127],[34.9901595,29.6008168],[34.9905752,29.602404],[34.9911417,29.6035169],[34.9977174,29.6146562],[35.0006709,29.6217931],[35.0146046,29.6390908],[35.0196686,29.6560237],[35.0210848,29.6725249],[35.0119438,29.6967963],[35.0129309,29.7053328],[35.0132742,29.7108681],[35.0153985,29.7176516],[35.0183382,29.7291677],[35.0190892,29.7314596],[35.025548,29.755605],[35.0299897,29.7719223],[35.0323715,29.7769883],[35.0439372,29.7880878],[35.0453749,29.8023144],[35.0507179,29.8108791],[35.049881,29.8191453],[35.0586143,29.8406638],[35.0621119,29.8487972],[35.0671974,29.8562228],[35.0690213,29.8632012],[35.0788274,29.8717793],[35.0788274,29.8774915],[35.0845351,29.8855474],[35.0846639,29.8901426],[35.0836554,29.9001507],[35.0817242,29.9221911],[35.0772825,29.9249063],[35.0778189,29.9300389],[35.080544,29.9332374],[35.0844064,29.9398943],[35.0836125,29.9470528],[35.0752869,29.9503437],[35.0782695,29.9571854],[35.0889983,29.9634131],[35.0920024,29.9696219],[35.088183,29.9726332],[35.0943842,29.9814435],[35.0988903,29.9914797],[35.1162281,29.9952337],[35.1167646,30.0012546],[35.1102414,30.0031129],[35.1103916,30.0092077],[35.1008644,30.0122549],[35.1038685,30.0188323],[35.1127091,30.0391931],[35.1182881,30.0459173],[35.1307121,30.0615556],[35.1458397,30.0627627],[35.1469984,30.0679068],[35.1487794,30.0736262],[35.1515689,30.0826132],[35.1532212,30.0942172],[35.1570632,30.1122061],[35.1574912,30.1142099],[35.1621905,30.122488],[35.1577702,30.1286497],[35.1609245,30.1344398],[35.151011,30.1435883],[35.1549592,30.1549996],[35.1445952,30.1625878],[35.1465478,30.1841618],[35.1513973,30.2025044],[35.1510968,30.2145393],[35.1452389,30.2413853],[35.1501527,30.2530447],[35.1488009,30.2668525],[35.1460114,30.2820482],[35.1546803,30.3067269],[35.1612954,30.3119954],[35.1652375,30.315211],[35.1691213,30.3201567],[35.1735201,30.3246391],[35.1920381,30.346085],[35.1884332,30.3556952],[35.1798501,30.3727099],[35.1787343,30.3756718],[35.1781764,30.3766715],[35.1707726,30.390943],[35.1691662,30.3940392],[35.1679243,30.3964328],[35.165731,30.40066],[35.1650482,30.4038938],[35.161933,30.4186476],[35.1619544,30.4413124],[35.1713314,30.4554081],[35.1781764,30.4663762],[35.1815024,30.4714252],[35.1863463,30.4877958],[35.1931539,30.4989034],[35.1943555,30.5216604],[35.1950851,30.5340072],[35.1983466,30.5390527],[35.2039042,30.5484961],[35.2036467,30.5664009],[35.203754,30.5752135],[35.2040329,30.5819564],[35.2058568,30.5850229],[35.2116075,30.5939261],[35.218946,30.6079628],[35.2201476,30.6128567],[35.2221861,30.6190984],[35.2277007,30.624638],[35.233666,30.6313036],[35.2410903,30.6383564],[35.2484932,30.6453164],[35.2612845,30.6567887],[35.2638594,30.6601851],[35.2660241,30.6679283],[35.2626767,30.6725239],[35.2708092,30.6801089],[35.2681055,30.6845194],[35.2738133,30.6900368],[35.2747145,30.6952217],[35.2766886,30.7014765],[35.281817,30.7103691],[35.2904001,30.7096865],[35.2936616,30.7122508],[35.2939191,30.7187259],[35.2863446,30.7228763],[35.2896061,30.7275062],[35.2945414,30.734884],[35.2949276,30.7508365],[35.2958074,30.7620109],[35.3082099,30.762269],[35.3138129,30.7696161],[35.3156557,30.7901625],[35.3222003,30.7969088],[35.3369014,30.7987423],[35.3411045,30.8154863],[35.3373924,30.8189692],[35.3358689,30.8231706],[35.335556,30.824444],[35.3298607,30.8414667],[35.3311696,30.8555779],[35.3313413,30.8590041],[35.3314915,30.8608645],[35.3317061,30.8622091],[35.333056,30.867222],[35.341641,30.8849911],[35.3434245,30.8884987],[35.3458038,30.8930565],[35.348207,30.8970522],[35.3511682,30.902539],[35.3542795,30.9083016],[35.355567,30.910069],[35.3589573,30.9134748],[35.3711667,30.926784],[35.3816166,30.927281],[35.3940835,30.9265815],[35.3978815,30.931404],[35.4020014,30.9332078],[35.4047076,30.9363639],[35.4164664,30.9509396],[35.4175822,30.9602139],[35.4180972,30.9682362],[35.4182083,31.0041039],[35.4210154,31.0167234],[35.4259502,31.0448151],[35.4273669,31.0501866],[35.4329884,31.0580067],[35.4381296,31.0661678],[35.4426855,31.0727294],[35.4453726,31.077672],[35.448558,31.0855457],[35.4503262,31.0895222],[35.4518196,31.0946158],[35.4535362,31.1000913],[35.4547379,31.1044493],[35.4550726,31.1081899],[35.4552013,31.1137307],[35.4561712,31.1225263],[35.456197,31.128294],[35.4540941,31.1372425],[35.4535448,31.1437513],[35.4516308,31.1478797],[35.4492533,31.1573772],[35.4447643,31.1650083],[35.4417088,31.1694295],[35.4383013,31.1733511],[35.4348852,31.1798427],[35.430216,31.1861944],[35.4258816,31.1930963],[35.4228174,31.1995058],[35.4184658,31.2036024],[35.4140112,31.2069206],[35.4109642,31.210202],[35.4081318,31.2169774],[35.405471,31.2223284],[35.4041214,31.2258995],[35.4019949,31.2327358],[35.4001066,31.239216],[35.3992311,31.2452261],[35.3992998,31.2529455],[35.4013769,31.266519],[35.4034798,31.2738699],[35.4066383,31.2814696],[35.4099514,31.2866115],[35.4137966,31.2927433],[35.4186804,31.3008842],[35.4218046,31.3054824],[35.4244225,31.3100803],[35.4269373,31.3139961],[35.428889,31.3175],[35.4311258,31.3215486],[35.436001,31.3278907],[35.438018,31.3324876],[35.4409964,31.3369596],[35.4440948,31.3412408],[35.4466011,31.3455512],[35.4509098,31.3523901],[35.4541971,31.3578433],[35.4566948,31.3624094],[35.4606945,31.3716582],[35.4639303,31.3838517],[35.4663164,31.3904827],[35.4675524,31.3937577],[35.4669601,31.3981389],[35.4686749,31.4015556],[35.4696638,31.4112666],[35.4721786,31.4195657],[35.4723417,31.425264],[35.4744875,31.4457473],[35.4747107,31.4538823],[35.4751398,31.4649889],[35.476453,31.4725219],[35.4759638,31.4802446],[35.4769165,31.4842485],[35.4765989,31.4870957],[35.4762814,31.491414],[35.4752188,31.4939466],[35.4748566,31.4948099],[35.4748995,31.4965737],[35.4812309,31.5220426],[35.4821117,31.5359099],[35.4832824,31.5578318],[35.4849612,31.5768123],[35.4882607,31.6018857],[35.4915229,31.621088],[35.4961147,31.6402781],[35.5023049,31.660826],[35.5108693,31.6809079],[35.5177319,31.6969493],[35.5191713,31.7003134],[35.5256572,31.7163537],[35.5277469,31.7215213],[35.5446783,31.7385794],[35.5554324,31.7516771],[35.5583275,31.7579168],[35.5581866,31.7592886],[35.5579462,31.7597753],[35.5579767,31.7602742],[35.557978,31.7607077],[35.5579545,31.760949],[35.5580054,31.7612275],[35.5579675,31.7614521],[35.5580161,31.7616505],[35.5580844,31.761862],[35.5582576,31.7620581],[35.5584723,31.762236],[35.5586066,31.7627135],[35.5586819,31.7629833],[35.5588546,31.7633008],[35.5585732,31.7638305],[35.558403,31.7642737],[35.5581912,31.7651859],[35.5580335,31.7655675],[35.5579062,31.7656631],[35.5575207,31.7660146],[35.5571139,31.7660965],[35.5567009,31.7661714],[35.5566514,31.7663634],[35.556532,31.7664642],[35.5560457,31.7664523],[35.5554279,31.7662797],[35.5549388,31.766251],[35.5541789,31.766471],[35.5536877,31.7667514],[35.5532923,31.7668362],[35.5529773,31.7669847],[35.5528628,31.7673418],[35.5529454,31.7678615],[35.5532703,31.7682688],[35.553722,31.7684445],[35.5542882,31.7686321],[35.5547165,31.7689245],[35.5551552,31.76941],[35.5556035,31.7697957],[35.5557628,31.7700895],[35.5557339,31.7704706],[35.5555962,31.7708126],[35.5553753,31.7711621],[35.5554166,31.771409],[35.5554946,31.7716065],[35.5557538,31.7718394],[35.5557014,31.772165],[35.5553741,31.7724863],[35.5548829,31.7727793],[35.5543856,31.7730238],[35.5539363,31.7730553],[35.5533446,31.7730648],[35.5528,31.7732478],[35.5523273,31.7734936],[35.551945,31.7738173],[35.5516263,31.7745034],[35.5513119,31.7750083],[35.5512379,31.7755462],[35.5509451,31.7756788],[35.5505271,31.7759524],[35.5505134,31.7764434],[35.5505643,31.7766634],[35.550244,31.7769382],[35.5501126,31.7773585],[35.5497137,31.7776699],[35.5495052,31.7779014],[35.5493449,31.7781155],[35.5492014,31.7782522],[35.5492837,31.778568],[35.5491704,31.7792666],[35.5489912,31.7796623],[35.5486768,31.7800398],[35.5483716,31.7804465],[35.5481348,31.7808618],[35.5482195,31.7812684],[35.5481224,31.7818595],[35.5476036,31.7825448],[35.5473484,31.7831352],[35.547272,31.7836175],[35.5474646,31.7839899],[35.5480198,31.7845426],[35.5482606,31.7849805],[35.5485049,31.7855456],[35.5490014,31.7859625],[35.5492507,31.7862352],[35.5493961,31.7866823],[35.5495061,31.7871684],[35.5497647,31.7876592],[35.5499248,31.7882277],[35.5501134,31.7886062],[35.5500939,31.7889509],[35.5504256,31.7892457],[35.550872,31.7897095],[35.5511427,31.7902306],[35.5513358,31.7905248],[35.551381,31.7908734],[35.5513105,31.7912413],[35.5509573,31.7917585],[35.5506404,31.7923533],[35.5503933,31.7929836],[35.5503485,31.7935385],[35.5503816,31.7939232],[35.5505112,31.7941742],[35.5507011,31.7946097],[35.5509525,31.7953145],[35.5512606,31.7958931],[35.5515222,31.7965155],[35.5512425,31.7969006],[35.5506953,31.7972718],[35.5501128,31.7976532],[35.5494399,31.7981752],[35.5490458,31.7984131],[35.5487946,31.7985867],[35.5485981,31.7987162],[35.54846,31.7988496],[35.548123,31.7989493],[35.5478514,31.7992214],[35.5476325,31.7993931],[35.5474393,31.7995305],[35.5472207,31.7996666],[35.5470025,31.7999402],[35.5468285,31.8002249],[35.5465786,31.8005648],[35.5465658,31.8008863],[35.5464334,31.8013006],[35.5463357,31.8015969],[35.5462465,31.8018965],[35.5458581,31.8024055],[35.5454528,31.8027151],[35.5452504,31.8030154],[35.5449908,31.8033419],[35.5447348,31.8037131],[35.5444103,31.8038834],[35.5439932,31.8040385],[35.5436843,31.8042618],[35.5435342,31.8044191],[35.5433412,31.8045674],[35.5431375,31.8046973],[35.5428841,31.8049082],[35.5428247,31.8052583],[35.5428659,31.8055464],[35.542957,31.8059477],[35.5429412,31.8062709],[35.5430187,31.8064731],[35.5430597,31.806864],[35.5430357,31.8070052],[35.5429615,31.8072229],[35.5430475,31.8073606],[35.5430587,31.8075543],[35.543048,31.8077564],[35.5430852,31.8079765],[35.5431694,31.8082937],[35.5432602,31.8085524],[35.5434016,31.8089273],[35.5433795,31.809236],[35.5434257,31.8094756],[35.5435236,31.8097234],[35.5434478,31.8099091],[35.5432456,31.8101533],[35.5430087,31.8102552],[35.542876,31.8103758],[35.5427576,31.8104312],[35.5426748,31.8105649],[35.5425979,31.8107156],[35.5425797,31.8108784],[35.5425824,31.8109931],[35.5432846,31.8115145],[35.5435817,31.8116591],[35.5437363,31.8118902],[35.5438186,31.8121318],[35.5441402,31.8124316],[35.5440935,31.8125951],[35.5440446,31.8127846],[35.5440432,31.8130968],[35.5441798,31.8133637],[35.544408,31.8135571],[35.5442421,31.8137377],[35.5436701,31.8138987],[35.5432249,31.8138435],[35.5429064,31.8136001],[35.542446,31.8131957],[35.5420697,31.8129907],[35.541701,31.8129815],[35.5414186,31.8129439],[35.541144,31.8130592],[35.5410149,31.8131521],[35.5409504,31.8132447],[35.5408967,31.8133649],[35.5408861,31.8135403],[35.5409266,31.8139011],[35.541012,31.814253],[35.5415474,31.8145571],[35.5419934,31.8148132],[35.5422418,31.8152015],[35.5421578,31.8152511],[35.5420208,31.8153958],[35.5418751,31.8153486],[35.5417376,31.8153961],[35.5415734,31.8154194],[35.5413959,31.8154464],[35.5412453,31.8154008],[35.5410085,31.815365],[35.5407502,31.8154618],[35.5405115,31.8154989],[35.5402406,31.8155369],[35.5398727,31.815578],[35.5395522,31.8156411],[35.5393717,31.8157088],[35.539142,31.8158123],[35.5389889,31.8159633],[35.5389779,31.8160777],[35.5389498,31.8162225],[35.5390992,31.8164113],[35.5393004,31.8165458],[35.5394335,31.8166444],[35.5395986,31.8167491],[35.5398348,31.8168942],[35.5399076,31.8174715],[35.5399696,31.8177185],[35.5402653,31.8177973],[35.5408237,31.8176109],[35.5411934,31.8174215],[35.5415076,31.8173176],[35.5418336,31.8171022],[35.5419716,31.8169995],[35.5422303,31.8168872],[35.5425675,31.8168866],[35.54274,31.8168945],[35.5429236,31.8169964],[35.5431948,31.8170768],[35.5432068,31.8171461],[35.5432552,31.817361],[35.5432459,31.8175162],[35.5427879,31.8181281],[35.5424467,31.8183417],[35.5419146,31.8188049],[35.5416911,31.8187893],[35.5413874,31.8186106],[35.5409201,31.8185114],[35.5405619,31.8184783],[35.5404685,31.8184717],[35.5402348,31.8186305],[35.5400947,31.8187628],[35.5400479,31.8189547],[35.5401416,31.8190774],[35.5404607,31.8192062],[35.5407644,31.8192525],[35.5409751,31.8193963],[35.5412246,31.8195526],[35.5415009,31.8197046],[35.5417515,31.8197167],[35.5419684,31.8197014],[35.5420658,31.8197893],[35.542219,31.8199713],[35.5422925,31.8201271],[35.5423541,31.8204276],[35.5422812,31.8206582],[35.5424788,31.8207517],[35.5427425,31.8207872],[35.5429066,31.8209451],[35.5429024,31.82114],[35.5428313,31.821479],[35.5428016,31.8217189],[35.5429247,31.821982],[35.5429259,31.8222327],[35.5429757,31.8224988],[35.5431263,31.8226445],[35.5433813,31.8227182],[35.5438521,31.8227681],[35.5441967,31.8228655],[35.5443621,31.8228634],[35.5445392,31.8228427],[35.5448222,31.8227801],[35.5450043,31.8225646],[35.5451723,31.8224793],[35.5455664,31.8225085],[35.5459628,31.8227051],[35.5462491,31.8229091],[35.5464062,31.8230082],[35.5465187,31.8230677],[35.5467003,31.823115],[35.547007,31.8232105],[35.547246,31.823249],[35.5476353,31.8232497],[35.5481438,31.8233407],[35.548301,31.8234143],[35.5484715,31.8234779],[35.5486373,31.8235686],[35.5486969,31.8236834],[35.5487458,31.8238339],[35.5487403,31.8240873],[35.5487352,31.8243894],[35.5487063,31.8247091],[35.5486709,31.8249765],[35.54855,31.8251419],[35.5483946,31.825354],[35.5482092,31.8254978],[35.5479566,31.8256862],[35.5477792,31.8258439],[35.5477135,31.8259977],[35.547652,31.8260918],[35.5475389,31.8262208],[35.5473697,31.8264413],[35.5473017,31.8265701],[35.5472223,31.8266798],[35.5471455,31.8268535],[35.5470621,31.8270043],[35.5470756,31.8271973],[35.5471881,31.8274067],[35.5472323,31.8275828],[35.5472614,31.8278158],[35.5473851,31.8280278],[35.547478,31.8282263],[35.5475509,31.828541],[35.5476395,31.8287488],[35.5476683,31.8289171],[35.5476809,31.8291202],[35.5476425,31.8292601],[35.5473451,31.8293976],[35.5468049,31.8295868],[35.5462704,31.8296617],[35.5459149,31.829667],[35.5455951,31.8296362],[35.5452809,31.8296231],[35.5450846,31.8297023],[35.5449127,31.8298269],[35.5447953,31.8299449],[35.5446979,31.8302092],[35.5447115,31.8304012],[35.5447612,31.8305275],[35.5448021,31.8306841],[35.5449287,31.8307601],[35.5451938,31.8307492],[35.5455032,31.830679],[35.5457756,31.8306228],[35.5460307,31.8305405],[35.5463229,31.8304407],[35.5467062,31.8303156],[35.5469545,31.8303459],[35.5471464,31.8304608],[35.5472479,31.8306741],[35.5472078,31.8309],[35.54708,31.83106],[35.5469323,31.8311846],[35.5467364,31.8312439],[35.5465723,31.8313508],[35.5464753,31.831578],[35.5464307,31.8317899],[35.5464209,31.8320554],[35.5464382,31.8322503],[35.5464364,31.8324242],[35.5464639,31.8325848],[35.5466014,31.8327392],[35.5466752,31.83285],[35.5468115,31.8330943],[35.5468226,31.8332408],[35.5468546,31.8334499],[35.5468349,31.8336161],[35.5467923,31.83377],[35.5467384,31.8339568],[35.5467289,31.8341321],[35.5467717,31.8343023],[35.54686,31.8344052],[35.5469657,31.834513],[35.5471917,31.8346417],[35.5474309,31.8347459],[35.5475767,31.8348101],[35.5478774,31.8349239],[35.5481795,31.8350218],[35.5483546,31.8350713],[35.5486436,31.8350989],[35.5488604,31.8350927],[35.5491431,31.8352811],[35.5493046,31.835646],[35.5493551,31.8358516],[35.5493666,31.8361452],[35.5493135,31.8363212],[35.5492211,31.8365593],[35.5490037,31.8366362],[35.5486646,31.8365588],[35.5483085,31.8364801],[35.5480293,31.8364954],[35.5478583,31.836521],[35.5476654,31.8364821],[35.5474557,31.836386],[35.5472582,31.836207],[35.5470823,31.836076],[35.546879,31.8360163],[35.5466389,31.8360087],[35.5465013,31.8360796],[35.5463972,31.8362274],[35.5463591,31.836358],[35.5463396,31.8364956],[35.5463166,31.8366263],[35.546372,31.8367571],[35.5464604,31.8369019],[35.5466256,31.837065],[35.5467423,31.8371451],[35.5469279,31.8371724],[35.5472166,31.837243],[35.5474429,31.8373684],[35.5476026,31.8375141],[35.5476742,31.837679],[35.54771,31.8378383],[35.5477187,31.8381574],[35.547645,31.8384555],[35.5474637,31.8387101],[35.5471311,31.8389621],[35.5468692,31.8391995],[35.5467917,31.8394727],[35.54675,31.839783],[35.5468261,31.8399526],[35.5470319,31.8400902],[35.5472616,31.8400845],[35.5474543,31.8401124],[35.5475205,31.8401819],[35.54752,31.8403845],[35.5473359,31.8406993],[35.5471756,31.8408495],[35.5468802,31.8410473],[35.5465246,31.8412306],[35.5463251,31.8413582],[35.5461027,31.8413769],[35.5459254,31.8413443],[35.5457752,31.8412565],[35.545597,31.8412212],[35.5453236,31.841259],[35.5451382,31.8413298],[35.5450524,31.8414535],[35.5450065,31.84161],[35.5449826,31.8418283],[35.5449905,31.8419903],[35.5450397,31.8421974],[35.5449701,31.8423449],[35.5447479,31.8424089],[35.544662,31.8425141],[35.5446616,31.8426746],[35.5447267,31.8427991],[35.5448841,31.842898],[35.5450175,31.8429694],[35.5452062,31.8429899],[35.5454077,31.8429498],[35.5456756,31.8429142],[35.5459833,31.8429378],[35.5464702,31.8430034],[35.5467186,31.8430171],[35.5469728,31.8429569],[35.5471264,31.842845],[35.5471805,31.8426787],[35.5472832,31.8425998],[35.547568,31.842575],[35.5478795,31.8426164],[35.5481655,31.8427691],[35.5483614,31.8428794],[35.5485432,31.8430121],[35.5486617,31.843224],[35.5487173,31.8434076],[35.5488235,31.8436184],[35.5489337,31.8438424],[35.5489658,31.8440076],[35.5488425,31.8441487],[35.5486567,31.8441798],[35.5484829,31.8441118],[35.5482266,31.8440012],[35.5480152,31.8439616],[35.5476405,31.8440696],[35.5472999,31.8442085],[35.5471472,31.8443018],[35.5470388,31.8444684],[35.5469473,31.8446567],[35.5466469,31.8448118],[35.5461368,31.8449164],[35.5456602,31.8450122],[35.5453798,31.8450131],[35.5450272,31.8452102],[35.544719,31.8453584],[35.5442792,31.845297],[35.5439101,31.8453088],[35.5435679,31.8454282],[35.5433708,31.8455387],[35.543266,31.8458229],[35.5432627,31.8461525],[35.5432235,31.8465498],[35.5430967,31.8466529],[35.543058,31.84678],[35.5431987,31.8469605],[35.5434199,31.8471243],[35.5436808,31.8471628],[35.5439695,31.8470124],[35.5441565,31.8468834],[35.544492,31.8466929],[35.5448039,31.846628],[35.5452046,31.8465527],[35.5455234,31.8466022],[35.5457407,31.8466459],[35.5458986,31.8466852],[35.5461548,31.8466935],[35.5463258,31.846748],[35.5464756,31.8468851],[35.5464537,31.8470369],[35.5464203,31.8472694],[35.5464166,31.8474253],[35.5464263,31.8475993],[35.5464112,31.8478197],[35.5464122,31.8480131],[35.5461812,31.8481694],[35.5460761,31.8483339],[35.5457871,31.8484008],[35.5455774,31.8484061],[35.5454248,31.8483853],[35.545246,31.8483536],[35.5450763,31.8483208],[35.5448561,31.8483939],[35.5446956,31.8484809],[35.5445328,31.8486212],[35.5443718,31.8487699],[35.5441573,31.8489806],[35.5438974,31.8491094],[35.5437552,31.8493412],[35.5435421,31.8493995],[35.5432822,31.8492645],[35.5430312,31.8490701],[35.5427451,31.8488373],[35.5423937,31.8485678],[35.5419918,31.8483152],[35.5417747,31.8483408],[35.5415847,31.8483601],[35.5413299,31.8482411],[35.5410662,31.8483143],[35.5410198,31.8485162],[35.5412534,31.8486659],[35.5415653,31.848743],[35.5419504,31.849007],[35.542211,31.849301],[35.542602,31.8496038],[35.5430007,31.8497943],[35.5432022,31.8498911],[35.543282,31.8501336],[35.5432646,31.8503212],[35.543197,31.8504947],[35.5429694,31.8505388],[35.5428804,31.8505369],[35.5427818,31.8505565],[35.5425825,31.8505652],[35.5425073,31.8504462],[35.5424108,31.8503549],[35.5422286,31.8502916],[35.5420465,31.8502467],[35.5415645,31.8501566],[35.5412893,31.8501372],[35.5411149,31.8502037],[35.5407465,31.850314],[35.5404192,31.8505498],[35.5401768,31.850679],[35.5399603,31.8508386],[35.5397923,31.8509196],[35.5396103,31.8510012],[35.5394221,31.8511445],[35.5392553,31.8513033],[35.5391729,31.851514],[35.5390255,31.8516702],[35.5389839,31.8518214],[35.5389722,31.8520088],[35.5390969,31.8521693],[35.5394785,31.8522248],[35.5398158,31.8520263],[35.5399987,31.8520462],[35.5402652,31.8519525],[35.5405091,31.85215],[35.5406006,31.852443],[35.5405093,31.8528608],[35.5406288,31.8529499],[35.5408558,31.8530275],[35.5411354,31.8530606],[35.5414837,31.8533056],[35.5418647,31.8536037],[35.5422411,31.8538943],[35.5423034,31.8541515],[35.5421361,31.8544544],[35.5418537,31.8547406],[35.5415938,31.8547553],[35.5412974,31.854631],[35.540984,31.8544525],[35.5407224,31.8543148],[35.5403729,31.8542745],[35.540196,31.8541936],[35.5399306,31.8541252],[35.5396226,31.8542349],[35.5394331,31.854188],[35.5392692,31.8541013],[35.5390572,31.8542022],[35.5389434,31.8545425],[35.5388076,31.8547129],[35.5386241,31.8549159],[35.5383551,31.8550535],[35.5381365,31.8550484],[35.5379707,31.8550387],[35.537804,31.8550169],[35.5375742,31.8551109],[35.5374498,31.8551364],[35.5371673,31.8552492],[35.536911,31.85548],[35.536775,31.8556404],[35.5366663,31.8557854],[35.5366119,31.8559148],[35.5365631,31.8560364],[35.5365137,31.8561041],[35.5364436,31.8562161],[35.5364542,31.8563685],[35.5365703,31.856599],[35.5367678,31.8567681],[35.5370087,31.8568614],[35.5372376,31.8568237],[35.5375786,31.8568189],[35.537956,31.856843],[35.5382298,31.8568985],[35.5386047,31.8568515],[35.5389857,31.8569677],[35.5393255,31.8571178],[35.5396337,31.8572486],[35.5399486,31.8574686],[35.5399658,31.8576349],[35.5396298,31.8577899],[35.5392805,31.8578941],[35.5387296,31.8579867],[35.5385248,31.858076],[35.5383064,31.8582633],[35.5382903,31.8584207],[35.5383908,31.8585279],[35.5385735,31.8585818],[35.5387309,31.8585615],[35.5389478,31.8584342],[35.5391731,31.8583327],[35.539489,31.8582092],[35.5397755,31.8582739],[35.5399528,31.8584411],[35.54017,31.8588056],[35.5402631,31.8592459],[35.5402462,31.859557],[35.5399335,31.8600019],[35.5396955,31.8604457],[35.5397207,31.8607102],[35.5398724,31.8609383],[35.5401821,31.8610005],[35.5404582,31.860988],[35.54065,31.8609134],[35.5408548,31.8609976],[35.5410304,31.8608774],[35.5410531,31.8605057],[35.5410801,31.8601091],[35.5411714,31.8598934],[35.5413846,31.8593462],[35.5416538,31.8590764],[35.5419179,31.8589385],[35.5421218,31.8590547],[35.5423694,31.8591909],[35.5425302,31.8593245],[35.5428695,31.8593406],[35.5430349,31.8595509],[35.5430464,31.8599572],[35.5430135,31.860347],[35.5428564,31.860564],[35.5425747,31.8608333],[35.5426166,31.8610158],[35.5429936,31.8611861],[35.5432317,31.8612964],[35.5435033,31.8614092],[35.5439557,31.8615569],[35.5442318,31.8617638],[35.5443701,31.8619717],[35.5445043,31.8622481],[35.5445117,31.8624897],[35.5441579,31.8628482],[35.5435469,31.863487],[35.5433385,31.8638292],[35.5433837,31.8641901],[35.5435938,31.8644479],[35.5437865,31.864637],[35.5441002,31.8647827],[35.5444743,31.8648507],[35.5448143,31.8647356],[35.5451429,31.8646092],[35.5453286,31.8644194],[35.545602,31.864183],[35.5457213,31.8638783],[35.5459732,31.863688],[35.5463257,31.8635512],[35.5466644,31.8636377],[35.5468449,31.8638273],[35.5468874,31.8640283],[35.5465334,31.8644384],[35.5461149,31.8645751],[35.5456643,31.8647391],[35.5448167,31.8654042],[35.5446236,31.8661788],[35.5448918,31.8663701],[35.5453532,31.866033],[35.545836,31.8660512],[35.5461364,31.8657049],[35.5460827,31.8653131],[35.5463617,31.8650762],[35.5468445,31.8648849],[35.5477135,31.8649213],[35.5482285,31.8652585],[35.5488293,31.8656229],[35.5487435,31.8662152],[35.548207,31.8664886],[35.5476277,31.8664977],[35.5471985,31.8662881],[35.5470054,31.8665979],[35.5472629,31.8669259],[35.5476277,31.8672722],[35.5475526,31.8678006],[35.5471878,31.868074],[35.5468767,31.8683473],[35.5465119,31.8685478],[35.5460184,31.869058],[35.5457716,31.8693861],[35.5455892,31.8695774],[35.5451601,31.8704885],[35.5451815,31.8708986],[35.545954,31.871345],[35.5468874,31.8715546],[35.5477994,31.8716821],[35.5489688,31.8724292],[35.54987,31.8727299],[35.5495803,31.873067],[35.5488079,31.8738141],[35.5481641,31.8741604],[35.5479496,31.8741695],[35.5474882,31.8740693],[35.5474346,31.8738324],[35.5477135,31.8735226],[35.5480139,31.873067],[35.5478101,31.8729668],[35.5472629,31.8730579],[35.5466192,31.8732766],[35.5462866,31.8735499],[35.5460398,31.8738141],[35.5457823,31.8739508],[35.5453854,31.8740693],[35.5449348,31.8744792],[35.5448811,31.8748437],[35.5448275,31.875199],[35.5445271,31.8754723],[35.5441837,31.8755088],[35.5437975,31.8753175],[35.5433791,31.8751443],[35.5430357,31.875035],[35.5427246,31.8749257],[35.5422204,31.8747981],[35.5416839,31.8746432],[35.5411904,31.8745521],[35.5404501,31.874461],[35.5401175,31.874379],[35.5396133,31.8741695],[35.5393772,31.8743244],[35.539506,31.8748619],[35.5394523,31.8750806],[35.5391305,31.8751352],[35.5391841,31.8754723],[35.5391948,31.875937],[35.5396776,31.8768207],[35.5393497,31.8772673],[35.5392789,31.8773274],[35.5389958,31.8775318],[35.5389533,31.8779045],[35.5393922,31.8781088],[35.5393356,31.8784334],[35.5388401,31.8790104],[35.5389816,31.8792509],[35.5392789,31.8796476],[35.5389816,31.8799241],[35.5387835,31.8800202],[35.538203,31.8800683],[35.5378491,31.8801885],[35.5373536,31.8803809],[35.5364193,31.8806333],[35.5359946,31.8808377],[35.5357256,31.8809819],[35.5348903,31.8813306],[35.5341683,31.8817032],[35.5336162,31.8817513],[35.5330358,31.8818354],[35.5328518,31.8823644],[35.5329933,31.8828091],[35.5329225,31.8833621],[35.5332623,31.8837708],[35.533871,31.8840593],[35.5348479,31.8845401],[35.5356265,31.8849488],[35.5359663,31.8853215],[35.5356973,31.8857182],[35.5354,31.8857182],[35.5347912,31.8857061],[35.5341967,31.8857061],[35.5336587,31.8858263],[35.5332765,31.8860788],[35.5331491,31.8862951],[35.532696,31.8864995],[35.5321156,31.8863072],[35.5316767,31.8863553],[35.5319457,31.8868721],[35.5319457,31.887365],[35.5317617,31.8875693],[35.5311388,31.8880742],[35.5308557,31.8884228],[35.5307566,31.8890959],[35.53053,31.8893363],[35.530249,31.8896772],[35.530162,31.8901056],[35.5299779,31.8906945],[35.5303743,31.8910551],[35.5310397,31.8912475],[35.5321264,31.8913383],[35.5333495,31.8916845],[35.5338859,31.8921764],[35.5338645,31.8928323],[35.5341434,31.893397],[35.5346584,31.8940529],[35.5347872,31.8944537],[35.5335855,31.8945994],[35.532813,31.8939618],[35.5324912,31.8931055],[35.5321049,31.8925408],[35.5309033,31.892231],[35.5302381,31.8925954],[35.5304956,31.8932148],[35.5310535,31.893725],[35.5311823,31.8945812],[35.531826,31.8951642],[35.5325126,31.8955468],[35.5329418,31.895984],[35.5326199,31.8962755],[35.5321264,31.8968949],[35.5316758,31.8971863],[35.5312252,31.896986],[35.5311608,31.8965123],[35.530796,31.8961115],[35.530281,31.8961662],[35.5298733,31.8965669],[35.530045,31.8973503],[35.5306244,31.8976053],[35.5313754,31.8982976],[35.5309033,31.8987895],[35.5297875,31.8986437],[35.5284786,31.8988077],[35.5278992,31.8989716],[35.5272555,31.8999554],[35.5275559,31.9005201],[35.5280924,31.901267],[35.5281782,31.9018135],[35.527792,31.9021778],[35.5273463,31.902761],[35.527239,31.9028703],[35.5267562,31.9030252],[35.5264987,31.9029523],[35.5261983,31.9024604],[35.5256941,31.9021234],[35.5253078,31.9020415],[35.524986,31.9026335],[35.5249323,31.9029796],[35.5253937,31.9034806],[35.5259623,31.9044825],[35.5259838,31.9048923],[35.5260589,31.9055845],[35.5264451,31.906049],[35.5262842,31.9064042],[35.5258979,31.9067321],[35.5251362,31.9068869],[35.5246427,31.9068323],[35.5244173,31.906978],[35.5243208,31.9076793],[35.5246534,31.9079981],[35.5252649,31.9085719],[35.5253722,31.9088451],[35.5252327,31.9092914],[35.525222,31.9101019],[35.5255653,31.9107577],[35.5260052,31.9112404],[35.526252,31.9121329],[35.5262305,31.9124425],[35.5261876,31.9133715],[35.5265095,31.913845],[35.5268099,31.9138815],[35.5274322,31.9137631],[35.5277218,31.9140727],[35.5275502,31.9145372],[35.5274965,31.9148104],[35.5273356,31.9150836],[35.5272176,31.9152748],[35.5271854,31.9156938],[35.5274064,31.9160284],[35.5275674,31.9160648],[35.5278463,31.9161012],[35.5280287,31.91642],[35.5279643,31.9166021],[35.5275245,31.9167842],[35.5275888,31.9169573],[35.5279429,31.9171394],[35.5278463,31.9173033],[35.5279321,31.9174764],[35.5282004,31.9176312],[35.5282004,31.9177587],[35.5279643,31.9177678],[35.5273742,31.9175583],[35.5270631,31.9179681],[35.5273528,31.9185601],[35.5272455,31.9187968],[35.5270417,31.9191611],[35.5270202,31.9195071],[35.5269129,31.9200717],[35.5268163,31.9206181],[35.5266176,31.9212711],[35.5264888,31.921435],[35.5263601,31.9217628],[35.5263816,31.9223456],[35.5265103,31.9226917],[35.5270897,31.9232198],[35.5277119,31.9234202],[35.5282913,31.9236205],[35.5295358,31.9233473],[35.5301581,31.9235294],[35.5307589,31.923839],[35.5314885,31.9242579],[35.5322395,31.924349],[35.5331407,31.9245311],[35.5337201,31.9248043],[35.5343638,31.9248953],[35.5349646,31.9243854],[35.5355011,31.9243125],[35.5358658,31.9242761],[35.5362735,31.9248953],[35.5359517,31.9257331],[35.5354367,31.9267712],[35.5353938,31.9274632],[35.5356298,31.9288108],[35.5354582,31.9294482],[35.5362092,31.9302495],[35.5370995,31.9305914],[35.5378143,31.9310097],[35.53864,31.9316582],[35.5393302,31.9325472],[35.5389235,31.9328087],[35.5385414,31.9329865],[35.5385661,31.9334049],[35.5391453,31.9338233],[35.5396876,31.9337605],[35.5402545,31.9333631],[35.5401682,31.933112],[35.5398231,31.9326937],[35.5397985,31.9324427],[35.5401312,31.9321289],[35.5403161,31.9318883],[35.5411172,31.9322544],[35.5412774,31.9329133],[35.5416841,31.9336768],[35.5420785,31.9338023],[35.5430028,31.9336664],[35.5433972,31.9336768],[35.5440503,31.9337396],[35.5443831,31.9341161],[35.5447282,31.9346809],[35.5458127,31.9356745],[35.5459606,31.9360928],[35.5447528,31.936574],[35.544531,31.9367517],[35.5440134,31.9368877],[35.5434095,31.936825],[35.5417266,31.9362763],[35.5414251,31.9361502],[35.5409226,31.9363664],[35.5407844,31.9367727],[35.5408214,31.9372747],[35.5405872,31.9378708],[35.5410221,31.9385331],[35.543289,31.9403664],[35.5438208,31.9407156],[35.5437176,31.9416672],[35.5435204,31.9418241],[35.5430891,31.9420123],[35.5427316,31.9422215],[35.5419799,31.9425143],[35.5412527,31.9425666],[35.540846,31.942849],[35.5410802,31.9432568],[35.5416225,31.9435183],[35.5420661,31.943602],[35.5424235,31.9434974],[35.5430767,31.9431209],[35.5436313,31.9431836],[35.5438162,31.9434346],[35.5439517,31.9437902],[35.5438901,31.9441876],[35.543756,31.9451106],[35.5429632,31.9463719],[35.542765,31.946408],[35.542496,31.946444],[35.5422695,31.9465161],[35.542043,31.9466482],[35.5418873,31.9468885],[35.5420147,31.9470446],[35.5422978,31.9472969],[35.5425243,31.9474891],[35.5426517,31.9476573],[35.5426376,31.9478375],[35.5426376,31.9480417],[35.5426489,31.948334],[35.5425385,31.9486663],[35.5425654,31.9490382],[35.5423969,31.9492309],[35.5417599,31.9499997],[35.5410803,31.9508646],[35.5409699,31.9509533],[35.5410764,31.9512256],[35.5413855,31.9514519],[35.5417968,31.9515813],[35.5422554,31.9516694],[35.5425668,31.9519096],[35.543303,31.9527985],[35.5434445,31.9542759],[35.5433774,31.9544764],[35.5433454,31.9546243],[35.5433454,31.9547924],[35.5433313,31.9549366],[35.5432322,31.9550687],[35.5430906,31.9552489],[35.542953,31.9555287],[35.5428783,31.9556212],[35.5426659,31.9556933],[35.5423969,31.9556933],[35.5421846,31.9556693],[35.5419722,31.9556813],[35.5417316,31.9557173],[35.5415617,31.9558374],[35.5414626,31.9559695],[35.5413635,31.9561137],[35.541321,31.9563059],[35.5413776,31.9565941],[35.5414484,31.9567623],[35.5415617,31.9569665],[35.5416891,31.9572067],[35.5417457,31.9573749],[35.5416749,31.957519],[35.5414767,31.9575791],[35.541406,31.9580955],[35.5416041,31.9593927],[35.5415758,31.9595489],[35.5416891,31.959729],[35.5418023,31.9599092],[35.5419722,31.9600774],[35.5421138,31.9601975],[35.5422695,31.9603416],[35.5425385,31.9604617],[35.5427084,31.9604977],[35.5429349,31.9605938],[35.5431897,31.9606779],[35.5433879,31.96075],[35.5435719,31.960822],[35.5437277,31.9608821],[35.5438551,31.9609782],[35.5441099,31.9610142],[35.5442656,31.9609061],[35.5444072,31.96075],[35.5445771,31.9606178],[35.5447186,31.9605338],[35.5449027,31.9604857],[35.5451433,31.9604016],[35.545384,31.9603416],[35.5455964,31.9604497],[35.5457521,31.9605578],[35.5458653,31.960786],[35.5459078,31.9609421],[35.5458229,31.9610983],[35.5453274,31.961879],[35.5452141,31.9621072],[35.5451526,31.9622994],[35.5452331,31.9623528],[35.5453132,31.9625636],[35.5452566,31.9627077],[35.5451433,31.9628398],[35.5450301,31.9629599],[35.5449958,31.9630279],[35.5448584,31.9631909],[35.5447027,31.9632907],[35.5444581,31.9633509],[35.5443024,31.9634388],[35.5437033,31.963803],[35.5426801,31.9647855],[35.5426376,31.9649897],[35.5426942,31.9652058],[35.542765,31.965374],[35.5429066,31.9654941],[35.5430906,31.9655782],[35.5432463,31.9656382],[35.5436003,31.9657943],[35.5438834,31.9658424],[35.5440816,31.9658664],[35.5443506,31.9660105],[35.5445346,31.9661186],[35.5447611,31.9661907],[35.5449735,31.9662868],[35.5450867,31.9664669],[35.5450867,31.966623],[35.5452141,31.9668752],[35.5454689,31.9670794],[35.5457096,31.9672836],[35.545837,31.9674157],[35.5460777,31.9675598],[35.5463325,31.967728],[35.5465307,31.967824],[35.5466864,31.9678961],[35.5469271,31.9679081],[35.5471111,31.9678841],[35.5473376,31.967776],[35.5475783,31.967752],[35.5477057,31.9678961],[35.5478614,31.9680882],[35.5480172,31.9682564],[35.5481587,31.9684365],[35.5483569,31.9687368],[35.5483428,31.9689169],[35.5482437,31.969049],[35.548088,31.9691691],[35.5479605,31.9692892],[35.5478048,31.9694574],[35.547281,31.9699257],[35.5466559,31.9696716],[35.5457592,31.9696235],[35.544601,31.9699556],[35.5437977,31.9710161],[35.5437788,31.9726141],[35.5433862,31.9729737],[35.5421712,31.973661],[35.5411236,31.9734987],[35.5400416,31.9738089],[35.5401288,31.9742642],[35.5405709,31.9748898],[35.5405834,31.9751827],[35.539864,31.9750085],[35.539629,31.9754563],[35.5395802,31.975819],[35.5395802,31.9760374],[35.5395802,31.9762831],[35.5396339,31.976356],[35.5398163,31.9763469],[35.5399343,31.9762558],[35.5399665,31.9761466],[35.5400737,31.9760738],[35.5403205,31.9760738],[35.5405673,31.9762285],[35.5406638,31.9763833],[35.5408033,31.9765016],[35.5409857,31.9764743],[35.5410715,31.9763833],[35.5411144,31.9762103],[35.5411895,31.9761284],[35.541329,31.9761284],[35.5414578,31.9762558],[35.5415972,31.9763701],[35.5417796,31.9763378],[35.5419298,31.9763378],[35.5420049,31.9765289],[35.5420049,31.9767291],[35.541962,31.9773115],[35.5418655,31.9776301],[35.5414578,31.9780578],[35.5412968,31.9783126],[35.5412646,31.9785857],[35.5411252,31.9787404],[35.5401596,31.9796413],[35.5398806,31.9798142],[35.539548,31.9799598],[35.5387541,31.9801328],[35.5383893,31.9802693],[35.537649,31.980697],[35.5366834,31.9815433],[35.5362006,31.9822987],[35.5359002,31.9830085],[35.5357071,31.9837547],[35.5356105,31.9843189],[35.5354925,31.9846192],[35.5354174,31.9846556],[35.5352458,31.9848467],[35.5349561,31.9851015],[35.5343016,31.9854018],[35.5340763,31.9854655],[35.5333253,31.9857021],[35.5331,31.9859478],[35.5329069,31.9863664],[35.5329176,31.9866394],[35.5330249,31.986785],[35.5332502,31.9869215],[35.5334541,31.9869579],[35.5337437,31.9868851],[35.5340441,31.9868032],[35.5344518,31.9867395],[35.5350205,31.9865484],[35.5353209,31.9864574],[35.535868,31.9864392],[35.5360826,31.9864301],[35.5362757,31.9864392],[35.5364581,31.986512],[35.5366191,31.9866667],[35.536662,31.9868396],[35.5366727,31.9871035],[35.5368229,31.9874493],[35.5370375,31.9877496],[35.5370589,31.9880044],[35.5369624,31.9880954],[35.5367371,31.9881864],[35.5364367,31.9882228],[35.5359324,31.9881955],[35.5355998,31.9882137],[35.535396,31.9882683],[35.5350097,31.9884321],[35.5348273,31.988605],[35.5347093,31.9887688],[35.5347522,31.9889326],[35.534881,31.9891146],[35.5350419,31.9892419],[35.5352243,31.9893511],[35.5356105,31.9895604],[35.5359646,31.9899426],[35.5365761,31.9904249],[35.5366834,31.9905432],[35.5367585,31.9908617],[35.5368658,31.9910619],[35.5370482,31.9911983],[35.5372521,31.9913621],[35.5372521,31.9915259],[35.5371555,31.9916624],[35.5369838,31.991717],[35.5367049,31.9917352],[35.5360826,31.9916897],[35.5357822,31.9917079],[35.5354603,31.9919081],[35.5352672,31.9921993],[35.5352029,31.9925178],[35.5352136,31.9927634],[35.5354603,31.9929363],[35.5357178,31.9930728],[35.5360933,31.9931547],[35.5362757,31.9932639],[35.5365869,31.9934641],[35.5369302,31.9938735],[35.5374774,31.9940737],[35.5377778,31.9941465],[35.5380353,31.9942284],[35.538679,31.9947562],[35.5389472,31.9951565],[35.5389901,31.9955296],[35.5388292,31.9959481],[35.538679,31.99603],[35.5384537,31.9961756],[35.5372734,31.9966124],[35.5369301,31.9968399],[35.5366662,31.9971119],[35.5362864,31.9973221],[35.5356212,31.9974768],[35.5352886,31.9975678],[35.5348916,31.9976588],[35.5347242,31.997849],[35.5347993,31.9981037],[35.5350461,31.998495],[35.5353143,31.998686],[35.5356994,31.999298],[35.5357181,32.0001883],[35.5356645,32.0004612],[35.5355572,32.0006523],[35.535171,32.0010253],[35.5348303,32.0013997],[35.5341866,32.0017273],[35.5336582,32.001917],[35.5328535,32.001917],[35.5325022,32.0017818],[35.5324029,32.0015621],[35.5323493,32.0013165],[35.5325665,32.0010904],[35.5328562,32.0010267],[35.5331566,32.0009357],[35.5335616,32.000807],[35.5337333,32.0006432],[35.5337762,32.0004612],[35.5337226,31.9997788],[35.5336716,31.9995618],[35.5334463,31.9993162],[35.533111,31.9991965],[35.532757,31.9990782],[35.5322849,31.9987143],[35.5320489,31.9985596],[35.5316439,31.9985519],[35.5313435,31.9987702],[35.5314051,31.9993239],[35.531491,31.9994968],[35.531963,31.9996605],[35.5321347,32.0001064],[35.532234,32.0008993],[35.5321025,32.0010981],[35.5317056,32.0012892],[35.5313193,32.0013711],[35.5309465,32.0012996],[35.530807,32.0012541],[35.5306354,32.0011177],[35.5304288,32.0008706],[35.5304315,32.0007628],[35.5306139,32.0006445],[35.5306541,32.0004521],[35.5306032,32.0001714],[35.5302894,31.9999517],[35.5297958,31.9998607],[35.5295491,31.999888],[35.5291762,31.9999349],[35.5287578,32.0001623],[35.5286586,32.0004066],[35.5284118,32.0007433],[35.5281007,32.0008615],[35.5277573,32.0008524],[35.5271807,32.0009721],[35.5268025,32.0012437],[35.5268025,32.0015348],[35.5269312,32.0019261],[35.5268025,32.0021899],[35.5265128,32.0023446],[35.5262339,32.0023355],[35.5259576,32.002446],[35.5254077,32.002754],[35.5254211,32.0030374],[35.5256357,32.0031557],[35.5258154,32.0031452],[35.5262017,32.0028632],[35.5263224,32.0030829],[35.5265477,32.0034104],[35.5265343,32.0036456],[35.5262687,32.003738],[35.5258932,32.0038745],[35.5256438,32.004237],[35.5255257,32.0047192],[35.5256974,32.0051286],[35.5261802,32.0056108],[35.5265477,32.0059579],[35.5266979,32.006058],[35.527009,32.0061126],[35.5273818,32.0063296],[35.5279961,32.0066585],[35.5282938,32.0071211],[35.528554,32.0078776],[35.5287364,32.0083325],[35.5288436,32.0085417],[35.5289295,32.0088692],[35.5288624,32.0090134],[35.5286586,32.009068],[35.5284896,32.0090603],[35.5283689,32.0089952],[35.5279934,32.0089497],[35.5276098,32.0090148],[35.527406,32.0091694],[35.5270197,32.0095152],[35.5269527,32.0098049],[35.5270171,32.0101142],[35.5272129,32.0107797],[35.5271994,32.0118882],[35.5273818,32.0127707],[35.5274167,32.0133452],[35.5270814,32.0138987],[35.5269017,32.0142185],[35.5269634,32.0143536],[35.5270412,32.0144823],[35.5270305,32.0145642],[35.5270948,32.0148917],[35.5270734,32.0150372],[35.5269205,32.0151269],[35.5266094,32.0150541],[35.5260944,32.0148176],[35.5257618,32.014481],[35.5254936,32.0143991],[35.525161,32.0144264],[35.5247318,32.0141444],[35.5244448,32.0137],[35.524477,32.0135089],[35.5246245,32.0130345],[35.5244851,32.0125887],[35.5243563,32.0122066],[35.5241739,32.0119155],[35.5239379,32.0118337],[35.5236267,32.0118428],[35.5232968,32.0119897],[35.522975,32.0125173],[35.5229213,32.0131814],[35.5228972,32.013362],[35.5226611,32.0134348],[35.5224358,32.013644],[35.5223393,32.0139442],[35.522468,32.014208],[35.522629,32.0142171],[35.5228677,32.014073],[35.5232298,32.0140807],[35.5237367,32.0142549],[35.524241,32.0147007],[35.5245709,32.0153452],[35.5247452,32.0157468],[35.524992,32.015947],[35.5253246,32.0160379],[35.5257108,32.0160106],[35.5260863,32.0158196],[35.5266094,32.0157636],[35.5269446,32.015765],[35.5271887,32.0158637],[35.5276527,32.016138],[35.5281436,32.0164641],[35.5285084,32.0168553],[35.528562,32.0175284],[35.5287766,32.018238],[35.5291548,32.018585],[35.5290689,32.0188125],[35.5287229,32.0190021],[35.5284654,32.0192295],[35.5280363,32.0198572],[35.5275428,32.0202029],[35.5273496,32.0202575],[35.5269098,32.0202211],[35.5265235,32.0202302],[35.5262982,32.0201392],[35.5259978,32.0197844],[35.5253139,32.0195584],[35.5249491,32.0196039],[35.524646,32.01993],[35.5245387,32.0203393],[35.5243992,32.0210125],[35.5243027,32.0212399],[35.5241095,32.0215219],[35.523844,32.0217506],[35.5238091,32.0219039],[35.5236482,32.0220222],[35.5232512,32.022104],[35.523101,32.022104],[35.5228972,32.0219676],[35.5227497,32.021787],[35.5224895,32.0218584],[35.5222105,32.0223405],[35.5221918,32.0226967],[35.5220523,32.0233152],[35.5218887,32.0237687],[35.5217385,32.0242871],[35.5217412,32.0244522],[35.5218377,32.0246251],[35.5218887,32.0249966],[35.5219986,32.0251435],[35.5222132,32.0254801],[35.5224063,32.0255802],[35.5225646,32.0258517],[35.522983,32.0263974],[35.5231144,32.0268809],[35.5232405,32.0279801],[35.5233612,32.0285454],[35.5232834,32.0290989],[35.5230796,32.0293263],[35.5226611,32.0294991],[35.5218994,32.0295628],[35.5216312,32.0295628],[35.5213308,32.0296082],[35.5210438,32.0297006],[35.5209016,32.0298538],[35.5209365,32.0300189],[35.5214595,32.0303632],[35.5217277,32.0306451],[35.5220094,32.031265],[35.5220416,32.031738],[35.5218592,32.0319017],[35.521481,32.0322187],[35.5210974,32.0325929],[35.5208828,32.033075],[35.5207085,32.0335375],[35.5204081,32.033874],[35.5199789,32.0343197],[35.5194774,32.034512],[35.5191877,32.034703],[35.5189946,32.0350759],[35.5189087,32.0353761],[35.5189812,32.0358931],[35.5193272,32.036231],[35.5202257,32.0375302],[35.5207514,32.0383942],[35.5209258,32.0386866],[35.5210867,32.0390777],[35.5209043,32.0393687],[35.5207005,32.0399417],[35.5206361,32.0404237],[35.5209472,32.0407693],[35.5213522,32.0409771],[35.5218243,32.0412408],[35.522232,32.0416592],[35.5225431,32.0420411],[35.5226933,32.0422958],[35.5234444,32.0432689],[35.5234551,32.0434871],[35.5237367,32.0437522],[35.5237555,32.0440146],[35.5235838,32.0442056],[35.5232754,32.0443979],[35.5228328,32.0445693],[35.52235,32.0445966],[35.5215909,32.0445707],[35.5207326,32.0442069],[35.5203866,32.0441055],[35.5200219,32.0441419],[35.5194666,32.0442979],[35.5191314,32.0444966],[35.5190884,32.0447421],[35.5192923,32.0450604],[35.5193459,32.0452926],[35.5193889,32.0454787],[35.5194318,32.0466701],[35.5191635,32.0474976],[35.5191957,32.0477431],[35.5193138,32.0479432],[35.5194961,32.0480159],[35.5197885,32.0478809],[35.5207192,32.0477431],[35.5218458,32.0479068],[35.5224788,32.0480978],[35.5227363,32.0485979],[35.5226209,32.049345],[35.5226209,32.0498542],[35.5228784,32.0502907],[35.5235329,32.0504999],[35.5239164,32.0505531],[35.5247989,32.0505181],[35.5257752,32.0503089],[35.5261614,32.0500179],[35.5264592,32.0496437],[35.5268239,32.0493436],[35.5272665,32.049245],[35.5276849,32.0493359],[35.5284225,32.049671],[35.5291655,32.0500088],[35.5297315,32.0503803],[35.5300024,32.0509],[35.5298924,32.051326],[35.5295812,32.0516443],[35.5290877,32.0520808],[35.5286183,32.0528278],[35.5283823,32.0533916],[35.5280685,32.0537449],[35.5280899,32.0539267],[35.5282616,32.0542177],[35.5284654,32.0545723],[35.5288007,32.0546828],[35.5290448,32.0547633],[35.5294096,32.0548815],[35.5296134,32.0548542],[35.5297529,32.0548724],[35.5299031,32.0549815],[35.5305039,32.0549724],[35.5306112,32.0550361],[35.5307963,32.0551466],[35.5307721,32.0553998],[35.5306327,32.055709],[35.5303242,32.0559286],[35.5293586,32.0564196],[35.5287149,32.0567469],[35.528554,32.0569834],[35.5284011,32.0575367],[35.5285727,32.0579277],[35.5286264,32.0581368],[35.5289938,32.058511],[35.5293157,32.0586473],[35.5296456,32.0589369],[35.5298414,32.0590474],[35.5300131,32.0592838],[35.5304396,32.0601099],[35.5307105,32.0602477],[35.5309438,32.0603827],[35.5312254,32.0604954],[35.5313113,32.0605841],[35.53133,32.0607136],[35.5313193,32.0608597],[35.531263,32.0610143],[35.5312174,32.0611592],[35.531145,32.0612325],[35.5309679,32.061287],[35.5307185,32.0612961],[35.5303296,32.0613069],[35.5298387,32.0614281],[35.5296,32.0616115],[35.5294605,32.0616752],[35.5292299,32.0617161],[35.5291575,32.0618645],[35.5292782,32.0620434],[35.529246,32.0621207],[35.5290984,32.0621282],[35.5289965,32.0621509],[35.5289643,32.0622328],[35.52868,32.0631875],[35.5287015,32.0633648],[35.5287283,32.0636012],[35.5285942,32.0640103],[35.5284762,32.064274],[35.5285352,32.0645013],[35.5286908,32.0646695],[35.5287605,32.064765],[35.5288356,32.0649013],[35.5289751,32.0649604],[35.5291709,32.0649802],[35.5293881,32.0649968],[35.5295598,32.065015],[35.5296483,32.0650075],[35.5297261,32.0649195],[35.5298817,32.0647695],[35.5301043,32.0647438],[35.5304449,32.0647422],[35.5308499,32.0648211],[35.5310055,32.0648029],[35.5311745,32.0648695],[35.5313408,32.0649968],[35.5315017,32.0652605],[35.5315446,32.0656196],[35.5313891,32.0660742],[35.531153,32.0663788],[35.5309384,32.0666061],[35.5308768,32.0668986],[35.530858,32.0671334],[35.5305281,32.0674214],[35.5303001,32.0676608],[35.5302518,32.0680881],[35.530343,32.0683881],[35.5305361,32.0687427],[35.5306541,32.0688882],[35.5308741,32.0689336],[35.5311101,32.0690018],[35.53133,32.0691109],[35.5317002,32.0692609],[35.5319309,32.0692882],[35.5323278,32.0691882],[35.5326872,32.0690882],[35.5330037,32.0690518],[35.5332881,32.0689791],[35.5334114,32.0690109],[35.5335295,32.06907],[35.5335885,32.0690609],[35.5336126,32.0689852],[35.5336475,32.0688427],[35.5337199,32.0687034],[35.5338567,32.068629],[35.5343931,32.0686563],[35.5345755,32.0687518],[35.534715,32.0688882],[35.5349483,32.0692852],[35.5351441,32.0694973],[35.5351978,32.0696973],[35.535061,32.0699307],[35.5349564,32.0702474],[35.5349618,32.070461],[35.5350959,32.0710974],[35.5352139,32.0712838],[35.5354392,32.0714429],[35.5356216,32.0716475],[35.5358281,32.07189],[35.5359488,32.0722384],[35.5361258,32.0723475],[35.5362707,32.0723611],[35.5363458,32.072443],[35.5363887,32.0725066],[35.5363404,32.0727748],[35.5363565,32.0730066],[35.5362546,32.0732384],[35.5361553,32.073381],[35.5359917,32.0734612],[35.5357772,32.0735385],[35.5354365,32.0737628],[35.5346453,32.0739976],[35.5339425,32.0741658],[35.5337709,32.0741658],[35.5336421,32.0740067],[35.5335134,32.0739476],[35.533449,32.0739657],[35.5333417,32.0740521],[35.5332559,32.0742021],[35.5331861,32.0743612],[35.5330467,32.0746021],[35.5328857,32.0749794],[35.5328857,32.0750703],[35.5330252,32.0751794],[35.5331969,32.0752567],[35.5333042,32.0754067],[35.5333578,32.0754931],[35.5334222,32.0756158],[35.5333685,32.0757522],[35.5332988,32.0760385],[35.5333766,32.0762174],[35.5335241,32.0763431],[35.5335456,32.0764703],[35.5336046,32.0766749],[35.5338781,32.0768158],[35.5342081,32.0769219],[35.5344253,32.0768794],[35.5346667,32.0767385],[35.534892,32.0765158],[35.5351146,32.0762583],[35.5355143,32.0760249],[35.5356913,32.0760067],[35.5359005,32.0758385],[35.5366703,32.0754219],[35.5369681,32.0751885],[35.5372095,32.0751021],[35.5373597,32.0750931],[35.5374991,32.0751294],[35.5376762,32.0753385],[35.5378532,32.0754158],[35.5380248,32.0754976],[35.5382019,32.0755976],[35.5383521,32.0757112],[35.538454,32.075984],[35.5387008,32.0765658],[35.5387759,32.0767431],[35.5386525,32.0769067],[35.538395,32.0772749],[35.5383521,32.0775476],[35.5383092,32.0776476],[35.5384325,32.0779431],[35.5384164,32.0781522],[35.5383682,32.0783249],[35.5382206,32.0787083],[35.5383145,32.0789431],[35.5385184,32.0790749],[35.5387061,32.0791931],[35.5388751,32.0792537],[35.5389717,32.0793083],[35.5391219,32.0793537],[35.5392506,32.0793128],[35.5395161,32.0792476],[35.5396073,32.0792294],[35.5397388,32.0792628],[35.5398648,32.0793703],[35.5400445,32.0793765],[35.5400928,32.0793946],[35.5401652,32.0794476],[35.5402055,32.0795401],[35.5400955,32.0797158],[35.539897,32.0798976],[35.5398192,32.0800083],[35.53983,32.0801992],[35.5398541,32.0803385],[35.5399587,32.0804855],[35.5402538,32.08079],[35.5404871,32.0810203],[35.5406346,32.0811355],[35.5407822,32.0811157],[35.5408653,32.0810764],[35.5410236,32.0811521],[35.5411738,32.0812112],[35.5412784,32.0811809],[35.541391,32.0812037],[35.5416324,32.08124],[35.5419248,32.0811793],[35.5421206,32.0811582],[35.5423352,32.0811946],[35.542657,32.0812537],[35.5429816,32.081343],[35.5432659,32.0814839],[35.5434429,32.0815611],[35.5436521,32.0815884],[35.543797,32.0816702],[35.5439579,32.081702],[35.5440384,32.0817066],[35.5441751,32.0816491],[35.5443897,32.0816264],[35.544666,32.0816702],[35.5449396,32.0816611],[35.5451568,32.0817173],[35.5453017,32.0817673],[35.5455404,32.0819111],[35.545696,32.0820657],[35.5457764,32.0820975],[35.5458488,32.0820991],[35.5459159,32.0821066],[35.5460071,32.0821702],[35.5460607,32.082252],[35.5460983,32.0824429],[35.5460393,32.0825384],[35.5461037,32.0826109],[35.5461573,32.0826518],[35.5461251,32.0827518],[35.5460715,32.0828699],[35.5459642,32.0829381],[35.5458623,32.082979],[35.5456048,32.0830108],[35.5452561,32.0830017],[35.5451005,32.0830427],[35.5450308,32.0831517],[35.5449664,32.0833381],[35.544961,32.0835017],[35.5449986,32.0836426],[35.5450361,32.0837426],[35.5449718,32.0838108],[35.5448484,32.0839062],[35.544784,32.0839653],[35.544733,32.0841489],[35.5446177,32.0842835],[35.5441081,32.0845835],[35.5438828,32.084838],[35.5436602,32.0852034],[35.5434858,32.0856561],[35.5433034,32.0861015],[35.5432712,32.0863742],[35.5431961,32.0866833],[35.5431023,32.0870123],[35.5431023,32.0872305],[35.5432927,32.0876922],[35.5433893,32.0880467],[35.5436038,32.0884649],[35.5438291,32.0893829],[35.543754,32.0895829],[35.5435073,32.0899283],[35.5433919,32.0902574],[35.5432203,32.0904755],[35.5429306,32.0905664],[35.5424451,32.09081],[35.5422842,32.09101],[35.542083,32.0915117],[35.541898,32.0916553],[35.5416753,32.0916935],[35.5415224,32.0916917],[35.5413508,32.0916008],[35.5412247,32.0916299],[35.5409957,32.0917821],[35.5407822,32.0917917],[35.5403771,32.0917662],[35.5401196,32.0918571],[35.5399453,32.0920098],[35.5397307,32.0922825],[35.539441,32.0925006],[35.5393552,32.0927733],[35.5392265,32.0931005],[35.5390763,32.0933096],[35.5388644,32.0935568],[35.5387329,32.0938822],[35.5387329,32.0941276],[35.5388429,32.0942658],[35.5392372,32.0945276],[35.539315,32.0946748],[35.5392694,32.0949547],[35.539087,32.0951638],[35.5388724,32.0955092],[35.5388215,32.0958473],[35.5387866,32.0960182],[35.5386042,32.0963726],[35.538218,32.096818],[35.5374991,32.0979632],[35.5371343,32.0983358],[35.5368259,32.0985013],[35.5364933,32.0986103],[35.5362439,32.0988448],[35.5360829,32.0990629],[35.5355143,32.0999445],[35.5354499,32.1001536],[35.5355679,32.1003081],[35.535643,32.1003808],[35.5356109,32.1006989],[35.5355358,32.1015623],[35.5356001,32.1020531],[35.5353641,32.1025984],[35.5348384,32.10318],[35.5345165,32.1035436],[35.5343475,32.1038907],[35.5339372,32.1045978],[35.533744,32.1049522],[35.5336153,32.105543],[35.5333927,32.1059447],[35.5328857,32.1064063],[35.5326497,32.1065517],[35.5324244,32.1068244],[35.5324673,32.1070334],[35.5326738,32.1072442],[35.5327141,32.1075878],[35.5327677,32.1077786],[35.5330145,32.1078422],[35.5331888,32.1079077],[35.5333605,32.108044],[35.5336153,32.1082148],[35.5339586,32.1083421],[35.534259,32.1083966],[35.5346023,32.1083511],[35.5351173,32.1083057],[35.5362868,32.1084693],[35.5365791,32.1085892],[35.5369198,32.1085692],[35.5371048,32.1085983],[35.5373382,32.1088055],[35.537931,32.1096343],[35.5383145,32.1099688],[35.5386364,32.1102959],[35.5390119,32.1106867],[35.5393016,32.1109593],[35.5394652,32.1112701],[35.5396556,32.1114137],[35.5400097,32.111659],[35.5404603,32.1119408],[35.5407526,32.1123242],[35.5409243,32.1123788],[35.5410504,32.1122406],[35.5411496,32.1122152],[35.5412113,32.1123497],[35.541222,32.1125496],[35.5413508,32.1128858],[35.5414259,32.1131403],[35.5416753,32.1134602],[35.541737,32.1137764],[35.5417799,32.1141853],[35.5420052,32.1147306],[35.5421769,32.1149668],[35.5421662,32.1153394],[35.5425014,32.115632],[35.5428019,32.115741],[35.5433364,32.1158912],[35.5435073,32.1159391],[35.5437326,32.1162844],[35.5438291,32.1166298],[35.5441832,32.1177202],[35.5444407,32.1183199],[35.5448189,32.1189578],[35.5450227,32.1192122],[35.5459669,32.1197484],[35.5466186,32.1203826],[35.5474984,32.1212731],[35.5485311,32.1221199],[35.5492043,32.122627],[35.5494296,32.1232721],[35.549333,32.1236991],[35.5491292,32.1241444],[35.5487966,32.1243715],[35.5481743,32.1248531],[35.5480778,32.1252075],[35.5481099,32.1255164],[35.5483674,32.1258889],[35.5487644,32.1260797],[35.5492901,32.1262978],[35.549679,32.1264813],[35.5499124,32.1266431],[35.5505266,32.1272809],[35.5506956,32.1276879],[35.5510604,32.1279969],[35.5511891,32.1283421],[35.5511248,32.1289145],[35.5508351,32.1291235],[35.5504086,32.1293706],[35.5499902,32.1294797],[35.5487456,32.1296069],[35.5478525,32.1296141],[35.5472195,32.1295869],[35.5465677,32.129625],[35.5461144,32.1298776],[35.5457389,32.1301865],[35.5455565,32.1304227],[35.5454492,32.1308134],[35.5454948,32.1315148],[35.5456986,32.1317329],[35.545932,32.1318764],[35.5462887,32.1319328],[35.5467152,32.1319309],[35.5471551,32.1320763],[35.5474662,32.132258],[35.5476835,32.1325506],[35.5480375,32.132705],[35.5489253,32.1328213],[35.5496361,32.1330412],[35.5504274,32.1332029],[35.5508565,32.1333755],[35.551114,32.1337026],[35.5510926,32.1341296],[35.5510604,32.1343658],[35.5508565,32.1345203],[35.5506205,32.1346929],[35.5504166,32.1348655],[35.5500224,32.1348946],[35.54973,32.1349291],[35.5494296,32.1349291],[35.5489361,32.1348019],[35.5484962,32.1346838],[35.5477157,32.1346856],[35.5470612,32.1347583],[35.5466937,32.1349382],[35.5462109,32.1353561],[35.5458354,32.1356922],[35.545248,32.1364754],[35.5445185,32.1378926],[35.5441751,32.1386557],[35.5433678,32.1394625],[35.5433356,32.1401347],[35.5433893,32.1410159],[35.543636,32.1412976],[35.5437889,32.1415719],[35.5437219,32.1418426],[35.5437755,32.1424059],[35.5440571,32.1428347],[35.5443119,32.1430054],[35.5446767,32.1434869],[35.5451059,32.1438321],[35.5454921,32.144041],[35.5456852,32.1440956],[35.5459856,32.1440229],[35.5461385,32.1438793],[35.5462995,32.1436613],[35.5464684,32.1434597],[35.5466294,32.1432961],[35.5470612,32.1430436],[35.5474045,32.1427438],[35.5475091,32.1425603],[35.5474474,32.1421261],[35.547544,32.141908],[35.5477774,32.14177],[35.5483889,32.1416337],[35.5487966,32.1416791],[35.5491292,32.1420516],[35.5493867,32.1426693],[35.5495718,32.1429437],[35.5497434,32.1430618],[35.5500116,32.1435705],[35.5502879,32.1442863],[35.5502343,32.1449767],[35.5501404,32.1454509],[35.5502664,32.1457125],[35.5506849,32.145867],[35.5513527,32.1460686],[35.5519401,32.1461213],[35.5523478,32.1461031],[35.5526161,32.1459215],[35.5529406,32.1455327],[35.5531096,32.1448223],[35.5531981,32.1444971],[35.5534529,32.1440501],[35.5541717,32.1437958],[35.5545902,32.1437231],[35.5551588,32.1438139],[35.5556845,32.1439593],[35.5561807,32.1441246],[35.556575,32.1442318],[35.5568432,32.1440683],[35.5570363,32.144041],[35.5573582,32.144041],[35.5575406,32.1440138],[35.5577042,32.1440883],[35.5577981,32.1442863],[35.5577337,32.1445225],[35.5575728,32.1448223],[35.5574574,32.1450421],[35.5575621,32.1451584],[35.5576908,32.1451766],[35.5579054,32.1452038],[35.5581226,32.1455327],[35.5582487,32.1460123],[35.5584338,32.1461958],[35.5584418,32.1463666],[35.5583453,32.1466028],[35.5583989,32.1468753],[35.5586242,32.1470388],[35.55871,32.1471569],[35.5585947,32.1473313],[35.5584204,32.1475202],[35.558356,32.1476928],[35.5585089,32.1477946],[35.5589166,32.1479399],[35.5589997,32.1481834],[35.5591633,32.1482669],[35.5593457,32.1485395],[35.559343,32.1489282],[35.5596434,32.1496459],[35.5599439,32.1502454],[35.560373,32.1505996],[35.5605769,32.1507177],[35.5606976,32.150883],[35.5606949,32.1511174],[35.5605366,32.1513917],[35.5602979,32.1514626],[35.5598688,32.1514807],[35.5593028,32.1514735],[35.5583238,32.1514626],[35.5566206,32.1516824],[35.5564141,32.1518622],[35.5563175,32.152162],[35.5562209,32.1524708],[35.55606,32.1526888],[35.555824,32.1530249],[35.5557918,32.1533247],[35.5558133,32.1535699],[35.5559125,32.1538261],[35.5568003,32.154887],[35.557039,32.1551613],[35.5572965,32.1552431],[35.5575621,32.1552503],[35.5580153,32.1555973],[35.5582487,32.1558135],[35.5582916,32.1561586],[35.5581843,32.1569034],[35.5580663,32.1573212],[35.5581736,32.1579298],[35.5581629,32.158066],[35.5580663,32.158175],[35.5580448,32.158284],[35.5581414,32.1583476],[35.5583479,32.1584312],[35.5584633,32.1585202],[35.5584096,32.1586928],[35.5582299,32.1591124],[35.5578625,32.1594466],[35.5572536,32.1597209],[35.5567923,32.1598299],[35.5563631,32.1597936],[35.5560842,32.1596846],[35.5558696,32.1595938],[35.5556121,32.1595302],[35.5552017,32.1597282],[35.554676,32.1598735],[35.5537453,32.1600207],[35.5533805,32.1601751],[35.5528977,32.1602568],[35.5525115,32.1602296],[35.5522513,32.1600098],[35.5518329,32.1597645],[35.5515003,32.1597282],[35.5509236,32.1597391],[35.5504274,32.1598463],[35.5500197,32.160037],[35.5498078,32.1601751],[35.549494,32.1602459],[35.5493679,32.1604203],[35.5493223,32.1607091],[35.5493223,32.1608908],[35.5495154,32.1609089],[35.550009,32.1609543],[35.5503952,32.1609998],[35.5507412,32.1611015],[35.5510738,32.1612831],[35.5512884,32.161492],[35.551578,32.1618735],[35.551747,32.1622259],[35.5518436,32.1625892],[35.5519187,32.1634066],[35.5516505,32.1640878],[35.5512642,32.1643966],[35.5507063,32.164669],[35.5503013,32.1648343],[35.5500948,32.1650051],[35.5495718,32.1651976],[35.5492257,32.1654773],[35.548861,32.1658316],[35.5485284,32.1660495],[35.5482843,32.1661694],[35.5480027,32.1661767],[35.5477881,32.1663038],[35.5477344,32.1665036],[35.5478417,32.166767],[35.548464,32.1671484],[35.5487671,32.1674681],[35.5490004,32.1676025],[35.5491748,32.1676498],[35.5492794,32.1677115],[35.549333,32.1678023],[35.5492821,32.1679131],[35.5490219,32.1681202],[35.5489253,32.1682837],[35.5489253,32.1684926],[35.5491211,32.1686397],[35.549333,32.168647],[35.5495798,32.1686197],[35.5496254,32.1685035],[35.5497193,32.1683836],[35.5498373,32.1683927],[35.5499258,32.1684853],[35.5500009,32.1685579],[35.5501699,32.1685925],[35.5502772,32.1685652],[35.5503523,32.1684472],[35.5503415,32.1682383],[35.5503737,32.1680294],[35.5507519,32.1676225],[35.5510389,32.1675662],[35.5514815,32.1676225],[35.5517685,32.1676116],[35.5528762,32.1674046],[35.5530694,32.1673047],[35.5528628,32.166994],[35.5528092,32.1668124],[35.553005,32.1666053],[35.5532705,32.166431],[35.5534958,32.1664037],[35.5537775,32.1665872],[35.5539679,32.1668306],[35.5543783,32.1669959],[35.5546224,32.1670485],[35.5550408,32.1670395],[35.5552768,32.1669668],[35.5554056,32.1668215],[35.5555665,32.1667034],[35.5556952,32.1665672],[35.5559876,32.1664691],[35.5562129,32.1665236],[35.5566421,32.1666417],[35.5567923,32.1667961],[35.5571356,32.1672774],[35.5573904,32.1676025],[35.5576291,32.1682038],[35.5577981,32.1687559],[35.5576506,32.169339],[35.5572751,32.1700928],[35.556972,32.1703725],[35.5568539,32.1705632],[35.5562209,32.1708447],[35.5556765,32.1709918],[35.5552151,32.1708647],[35.5549228,32.1705723],[35.5546545,32.1703543],[35.5542173,32.1701563],[35.5534636,32.1700365],[35.5530345,32.1700546],[35.5525517,32.1701999],[35.5521869,32.1703997],[35.5521011,32.1706722],[35.5521011,32.1709265],[35.5526697,32.1722887],[35.5530238,32.1739687],[35.553013,32.1744864],[35.5528306,32.174777],[35.5528092,32.1750312],[35.5526402,32.1753872],[35.5526053,32.1757396],[35.5527233,32.1761482],[35.5532169,32.1766386],[35.5534636,32.1769383],[35.5542039,32.1770472],[35.5546438,32.17702],[35.5549254,32.1767857],[35.5551186,32.1766132],[35.5552366,32.1764134],[35.5554807,32.1762844],[35.5555021,32.1760392],[35.5554914,32.1757486],[35.5555477,32.1753146],[35.5558052,32.1751057],[35.5561378,32.1747515],[35.5570176,32.1741431],[35.5573502,32.1738434],[35.5575325,32.1737163],[35.5584311,32.1735237],[35.5586349,32.1735147],[35.5587449,32.1733893],[35.5587315,32.173215],[35.5585706,32.1730788],[35.5586242,32.1729879],[35.5588066,32.1729153],[35.5589246,32.1729425],[35.559056,32.1728808],[35.559225,32.172879],[35.5593109,32.172997],[35.5593967,32.1731423],[35.5595254,32.173215],[35.5597427,32.1733621],[35.5599465,32.1734529],[35.5601289,32.1736345],[35.5601799,32.1738507],[35.5601799,32.1740595],[35.5601584,32.1742866],[35.5599358,32.1747334],[35.5594503,32.1754944],[35.5588281,32.1760937],[35.5588173,32.1763026],[35.5588495,32.1764116],[35.5590319,32.1765024],[35.5592143,32.1766567],[35.5592572,32.176793],[35.5591928,32.1770291],[35.5590426,32.177583],[35.5590212,32.1784275],[35.5588522,32.1789651],[35.5588281,32.1793901],[35.5587851,32.1797079],[35.5590024,32.1800003],[35.5590212,32.18028],[35.5592679,32.1808157],[35.5595603,32.1812443],[35.5599036,32.1814895],[35.560019,32.1817056],[35.5601182,32.1818437],[35.5602255,32.1819254],[35.5603623,32.1819962],[35.5604508,32.1821342],[35.5605983,32.1821778],[35.5608236,32.1820779],[35.5610167,32.1819508],[35.5611482,32.18188],[35.5612742,32.1818691],[35.5615666,32.1819708],[35.5618965,32.182196],[35.5620467,32.1823685],[35.5621003,32.1826046],[35.5620896,32.1828861],[35.5622962,32.1831422],[35.5624893,32.183351],[35.5625966,32.1835326],[35.5626261,32.1839031],[35.5624973,32.1843662],[35.5621647,32.1845841],[35.5615425,32.185029],[35.561242,32.1853196],[35.5600002,32.1859933],[35.5598607,32.1860297],[35.5594423,32.1859207],[35.559099,32.1859298],[35.5588602,32.1860006],[35.5587422,32.186155],[35.5584525,32.186727],[35.5583667,32.1870448],[35.5584418,32.1874171],[35.5584955,32.1877258],[35.5584016,32.1880182],[35.5585491,32.1886156],[35.5587342,32.1888717],[35.5592572,32.1892512],[35.559571,32.1896707],[35.5601799,32.1901773],[35.5605125,32.1902591],[35.5607592,32.1902227],[35.5609738,32.1901864],[35.5612957,32.1901683],[35.5616927,32.1900321],[35.5619931,32.189905],[35.5624222,32.1894056],[35.5628085,32.1885975],[35.5631974,32.1880545],[35.5636453,32.1876804],[35.5638921,32.1875533],[35.5641925,32.1870357],[35.564399,32.1868469],[35.564686,32.1867542],[35.5650079,32.186845],[35.5662202,32.1872173],[35.566467,32.1874716],[35.566467,32.187753],[35.5666279,32.1885611],[35.5667915,32.18879],[35.5670705,32.1889352],[35.5673065,32.1890533],[35.5677437,32.1894056],[35.5679368,32.1893783],[35.5681326,32.1891804],[35.5683016,32.1892966],[35.5685484,32.1895962],[35.5686905,32.1900339],[35.5688755,32.1906318],[35.5695703,32.1910236],[35.5697715,32.1912033],[35.5699458,32.1913413],[35.570332,32.1916591],[35.5703186,32.1920205],[35.5701041,32.1923201],[35.5697822,32.1927014],[35.5691304,32.1929393],[35.5688381,32.1931282],[35.5687522,32.1932916],[35.5688273,32.1935186],[35.5689453,32.1938545],[35.5692994,32.1943085],[35.569514,32.1947352],[35.5697393,32.194944],[35.5699324,32.1953708],[35.5698466,32.1958973],[35.5699646,32.1961879],[35.5701282,32.1962805],[35.5701899,32.1964875],[35.5701684,32.1966963],[35.5699217,32.197232],[35.5698573,32.197577],[35.5697929,32.1977858],[35.5695998,32.197813],[35.569463,32.1975788],[35.5693423,32.1973772],[35.5691841,32.1973246],[35.5689561,32.1972683],[35.5686664,32.1972683],[35.5683874,32.1973046],[35.5679824,32.1973155],[35.5677679,32.1972973],[35.5676364,32.1972229],[35.5674433,32.1970685],[35.5672824,32.1969323],[35.5670249,32.1969233],[35.566864,32.1970322],[35.5667137,32.1972229],[35.5665099,32.197577],[35.566298,32.197833],[35.5661666,32.1982125],[35.5659842,32.1985393],[35.565598,32.1989751],[35.565555,32.1991748],[35.5656409,32.1995924],[35.5656409,32.1998648],[35.565555,32.2001009],[35.5654263,32.2006637],[35.5652761,32.2008544],[35.5650615,32.2010269],[35.5650722,32.2011631],[35.5651259,32.2013083],[35.5651473,32.2015988],[35.5650722,32.2018439],[35.5649354,32.2020455],[35.5646645,32.2022343],[35.5639243,32.2026792],[35.5636989,32.2027972],[35.5634978,32.2027354],[35.5632725,32.2027264],[35.5630445,32.2028516],[35.5628836,32.2029969],[35.5627897,32.2031803],[35.5627334,32.2034871],[35.562787,32.2037322],[35.5627655,32.203941],[35.5627226,32.2041226],[35.5627655,32.2044767],[35.563015,32.2049233],[35.5631196,32.2050758],[35.5633771,32.2052029],[35.5639994,32.2056387],[35.5652332,32.2064012],[35.565437,32.2064466],[35.5656114,32.2063849],[35.5658769,32.2063831],[35.5661558,32.2064829],[35.5664026,32.20661],[35.5666923,32.2067462],[35.566821,32.2070367],[35.5668532,32.2072273],[35.5669203,32.2073018],[35.5670785,32.2072999],[35.5671858,32.2072636],[35.567564,32.2075287],[35.5676391,32.2077557],[35.567615,32.208244],[35.5676579,32.2085527],[35.5676579,32.2087342],[35.5674219,32.2088795],[35.5669498,32.2092244],[35.5667915,32.2095349],[35.5667459,32.2097328],[35.5667674,32.2099053],[35.5668854,32.2101231],[35.5672609,32.2105498],[35.5673253,32.2107586],[35.5674782,32.210951],[35.5677142,32.2112778],[35.5678081,32.2114666],[35.5679717,32.2116046],[35.5681326,32.2117498],[35.5684304,32.2118933],[35.5686557,32.2119659],[35.5689561,32.2119114],[35.5692136,32.211857],[35.5694496,32.2118479],[35.5696883,32.2115864],[35.570096,32.211187],[35.5706968,32.2109601],[35.5710294,32.2108239],[35.5711555,32.2107404],[35.5710831,32.2105516],[35.5710697,32.2103047],[35.5712413,32.2100687],[35.5714559,32.2099053],[35.5716088,32.2098254],[35.5722069,32.2098508],[35.5725824,32.2098962],[35.5728185,32.2099779],[35.5731537,32.2102248],[35.573548,32.2105044],[35.5737224,32.2108149],[35.5739021,32.2112669],[35.5739235,32.2117117],[35.5737867,32.2119495],[35.5738055,32.212093],[35.5738357,32.2122079],[35.5738484,32.2122564],[35.5737948,32.2124651],[35.5735266,32.2127919],[35.5728104,32.2131568],[35.572392,32.213293],[35.571877,32.2134746],[35.57148,32.2135109],[35.5711126,32.2134909],[35.5705547,32.2133457],[35.5699887,32.2130842],[35.5695891,32.2129644],[35.5693209,32.2130733],[35.568999,32.2132367],[35.5688702,32.213382],[35.5687978,32.2135744],[35.5688059,32.2136815],[35.5689346,32.2138267],[35.5690339,32.2139738],[35.5692458,32.2145711],[35.5693209,32.2150613],[35.5694281,32.2152428],[35.5696105,32.2154425],[35.5696105,32.2156331],[35.5696213,32.2160053],[35.5695783,32.216323],[35.5694308,32.2166334],[35.5691411,32.2167514],[35.56883,32.2169057],[35.5684089,32.2172307],[35.5682399,32.2174503],[35.5682158,32.2176754],[35.5681434,32.2178588],[35.5680683,32.218004],[35.5678832,32.2181656],[35.5676713,32.2183036],[35.5674996,32.2183399],[35.567328,32.2183126],[35.5671322,32.2182836],[35.5670276,32.2183489],[35.5668023,32.218712],[35.5665662,32.2192022],[35.5665421,32.2194454],[35.5665528,32.2196088],[35.5667781,32.219872],[35.566982,32.2199356],[35.5671027,32.22001],[35.5674031,32.2204638],[35.5676579,32.2208432],[35.5677437,32.2212698],[35.5676686,32.2217781],[35.5674862,32.2222501],[35.5670276,32.2229689],[35.5665984,32.2234954],[35.5664133,32.2236841],[35.5664133,32.2239746],[35.5664133,32.2242378],[35.5665957,32.2245918],[35.5667808,32.2247025],[35.5669712,32.224855],[35.5671134,32.225002],[35.5671107,32.2251363],[35.5671429,32.2253451],[35.5672529,32.2255194],[35.5674674,32.225719],[35.5677115,32.2258534],[35.5680012,32.2259078],[35.568197,32.2258098],[35.5684518,32.2257535],[35.5686664,32.2257989],[35.5690634,32.2258987],[35.5692243,32.2261619],[35.5697527,32.2266539],[35.5699673,32.2267446],[35.5702221,32.22677],[35.5703401,32.22677],[35.5707505,32.2269261],[35.5714801,32.2273],[35.5719843,32.2277158],[35.5722713,32.2279227],[35.5724429,32.228204],[35.5725315,32.2283874],[35.5724215,32.2286669],[35.5723678,32.228912],[35.5724108,32.2290481],[35.572561,32.2291116],[35.5726817,32.229177],[35.5727326,32.229275],[35.5727326,32.2294293],[35.5725744,32.2297487],[35.5723571,32.2298558],[35.5721747,32.2299375],[35.5717241,32.2298649],[35.5714344,32.2298831],[35.5712976,32.2299302],[35.5710804,32.2302007],[35.5708444,32.2302279],[35.5705252,32.2302116],[35.5702462,32.2303477],[35.5700826,32.2303731],[35.5698814,32.2302842],[35.5695354,32.2301281],[35.5692677,32.2300721],[35.5690231,32.230021],[35.5686986,32.229992],[35.5684947,32.2298649],[35.5682909,32.2298558],[35.5680897,32.2299938],[35.5680012,32.2300827],[35.5678751,32.230139],[35.5677464,32.2301299],[35.5676284,32.2300845],[35.5675399,32.2298921],[35.5675291,32.2297106],[35.5673602,32.2293313],[35.5672314,32.2291679],[35.5671456,32.2290862],[35.5655872,32.2283311],[35.5652359,32.2282603],[35.5644634,32.2284872],[35.5640664,32.2287867],[35.5639377,32.2290318],[35.5639135,32.2293113],[35.5639564,32.2296017],[35.5637633,32.2298468],[35.5633878,32.2301462],[35.5631947,32.2303005],[35.5630981,32.2304639],[35.5630552,32.2306999],[35.562736,32.2308378],[35.5624995,32.2307362],[35.5621696,32.2309506],[35.5620437,32.2313713],[35.5621459,32.2320267],[35.562154,32.2324424],[35.5621325,32.2327872],[35.5621969,32.2332501],[35.5624356,32.2334878],[35.5627334,32.2336766],[35.5628541,32.2340414],[35.5629801,32.2348473],[35.5630123,32.2353918],[35.5628299,32.2357276],[35.5627977,32.2360271],[35.5628299,32.2363447],[35.5630338,32.2366623],[35.5634736,32.2370979],[35.5635917,32.2374791],[35.5638304,32.2376987],[35.5641066,32.2378602],[35.5642703,32.2379982],[35.5643749,32.2382232],[35.5643212,32.2385136],[35.564281,32.238706],[35.5638947,32.2391597],[35.5636909,32.239314],[35.5633878,32.2394392],[35.5631759,32.2394955],[35.5628111,32.2397042],[35.5626287,32.2399765],[35.5624544,32.2401834],[35.5621647,32.2403921],[35.5616176,32.2405736],[35.5613091,32.2407841],[35.561116,32.2410836],[35.5609336,32.2413104],[35.5608665,32.241472],[35.5609953,32.2417714],[35.5611562,32.2419257],[35.5613708,32.2421435],[35.5614888,32.2422977],[35.5616524,32.2423722],[35.5619099,32.2425173],[35.5623149,32.2427787],[35.5629801,32.2428694],[35.5632376,32.2428513],[35.563369,32.2427805],[35.5633985,32.2425337],[35.5633583,32.2422723],[35.5634629,32.2421616],[35.5636131,32.2420981],[35.5639886,32.2420164],[35.5643534,32.2419529],[35.564678,32.2418458],[35.5649676,32.2416643],[35.5652332,32.2415355],[35.5654692,32.241472],[35.5660271,32.2414266],[35.5662631,32.2414175],[35.5665421,32.2414175],[35.5668318,32.2414357],[35.5671858,32.2415083],[35.5674433,32.2416807],[35.5677357,32.2419184],[35.5680012,32.2422433],[35.5682828,32.2426716],[35.5683445,32.2428967],[35.5683123,32.2435409],[35.5686557,32.2450473],[35.5690312,32.246118],[35.569235,32.2464265],[35.5694094,32.2465554],[35.5696347,32.2466098],[35.5699217,32.2466443],[35.5705144,32.2467822],[35.5706512,32.2469619],[35.5707156,32.2471161],[35.5707585,32.2474156],[35.5707371,32.2481778],[35.5706727,32.2488402],[35.5707907,32.2494753],[35.570898,32.2499018],[35.5707907,32.2502466],[35.57078,32.2504825],[35.5708792,32.2506295],[35.571016,32.2507547],[35.5711126,32.250909],[35.5710804,32.2510542],[35.5707478,32.251408],[35.5704823,32.2515278],[35.570147,32.2516712],[35.5696454,32.2518],[35.5691626,32.2518182],[35.5688381,32.2518163],[35.5681541,32.2515641],[35.5677437,32.2513717],[35.5673494,32.2511921],[35.5671429,32.2511903],[35.5669203,32.251183],[35.5667459,32.2509997],[35.5664563,32.2507184],[35.5662765,32.2506204],[35.5659547,32.2505116],[35.5657508,32.2504208],[35.5657696,32.2501468],[35.5658474,32.2496405],[35.5658152,32.2493864],[35.5657052,32.2492848],[35.5655041,32.2492049],[35.5653405,32.2492304],[35.5648577,32.249439],[35.563935,32.2499018],[35.5631947,32.2503192],[35.5628192,32.2506549],[35.5626582,32.250909],[35.5626153,32.2510179],[35.562669,32.2514534],[35.5628299,32.2517437],[35.5629801,32.2519615],[35.5629587,32.2521974],[35.5629372,32.252397],[35.5627763,32.2527237],[35.5625536,32.2530975],[35.5625831,32.2533407],[35.5625402,32.2535947],[35.562382,32.2543224],[35.5622425,32.2550845],[35.5623042,32.255981],[35.56239,32.2566705],[35.5624008,32.2568883],[35.562508,32.2570062],[35.5626717,32.2570988],[35.5628836,32.2571423],[35.5630981,32.2571423],[35.5631866,32.2571714],[35.5635085,32.257371],[35.564399,32.2582329],[35.5646002,32.2587936],[35.5644822,32.259592],[35.5643856,32.2600547],[35.5644285,32.2603087],[35.5645036,32.2605083],[35.5648898,32.2609347],[35.5649113,32.2612432],[35.5645036,32.2617331],[35.5638921,32.2626041],[35.5639135,32.2628944],[35.563817,32.263094],[35.5635487,32.263348],[35.563133,32.2634587],[35.5628836,32.263593],[35.5626717,32.2638488],[35.5623257,32.264101],[35.5613627,32.2643387],[35.5607807,32.2642643],[35.560491,32.264228],[35.5602764,32.2643823],[35.5600726,32.2646181],[35.5598473,32.2646181],[35.5596327,32.2647905],[35.5594932,32.265099],[35.5594289,32.265353],[35.5593752,32.2656342],[35.5592358,32.2658247],[35.5593001,32.2659427],[35.559386,32.266106],[35.5594825,32.2661785],[35.5596247,32.2662801],[35.5598151,32.2667229],[35.560019,32.2673488],[35.5600726,32.2677026],[35.5599439,32.2681109],[35.5598178,32.268403],[35.5596676,32.2685572],[35.5590346,32.2688294],[35.5588602,32.2689455],[35.5587342,32.2693011],[35.5585947,32.2696912],[35.5582916,32.2702972],[35.5580985,32.2710047],[35.557959,32.2713858],[35.5579161,32.271676],[35.5579054,32.2718575],[35.5576801,32.2722022],[35.5575933,32.2725689],[35.5575406,32.2727918],[35.5574548,32.2732091],[35.557605,32.2735175],[35.5577579,32.2736736],[35.5581521,32.2738804],[35.5584016,32.2739638],[35.5587664,32.2739185],[35.5590131,32.2738096],[35.5594611,32.2737897],[35.5598795,32.2737715],[35.560955,32.2738006],[35.56147,32.2740092],[35.5618455,32.2741362],[35.5623283,32.2743448],[35.5626797,32.2745879],[35.562897,32.274871],[35.5630659,32.2750415],[35.5632145,32.2752719],[35.5633234,32.2754679],[35.5634549,32.2756692],[35.5635166,32.2758942],[35.5633476,32.2763223],[35.5632591,32.2767378],[35.5631732,32.2771914],[35.5630445,32.2776812],[35.563141,32.2781982],[35.5633878,32.2786518],[35.5636051,32.2789348],[35.5641388,32.2792414],[35.5647718,32.2796042],[35.5651259,32.2797221],[35.5655658,32.279704],[35.565834,32.2798128],[35.5665957,32.280738],[35.5670598,32.2812841],[35.567497,32.2823707],[35.5676042,32.2832415],[35.5677142,32.2834973],[35.5677652,32.2836587],[35.5677008,32.2839308],[35.5676686,32.2841666],[35.5672931,32.284466],[35.5672716,32.284983],[35.567218,32.2854546],[35.5671214,32.2857358],[35.5670463,32.2859716],[35.566931,32.2862274],[35.5666279,32.2871689],[35.5664884,32.2875135],[35.5664992,32.2878763],[35.5663168,32.2887652],[35.5661666,32.2893728],[35.5661773,32.2896449],[35.5661478,32.2898372],[35.5659627,32.2899986],[35.5656006,32.2901546],[35.5644178,32.291223],[35.5639564,32.2916402],[35.5637767,32.2919141],[35.5637445,32.2921409],[35.5636024,32.2925018],[35.5636453,32.2928011],[35.5636131,32.2930007],[35.5637204,32.2932183],[35.563774,32.2934088],[35.5635487,32.2935992],[35.5633798,32.2936736],[35.5630686,32.2937371],[35.5628514,32.2938894],[35.5627012,32.2941887],[35.5623686,32.2950775],[35.561867,32.2952244],[35.5613198,32.2951065],[35.5609229,32.2951791],[35.5605876,32.2953224],[35.5602872,32.2956035],[35.5598902,32.2958665],[35.5593994,32.2961858],[35.5590641,32.2964016],[35.5581414,32.2967825],[35.5573394,32.2970655],[35.5566716,32.297109],[35.5555236,32.2975171],[35.5551481,32.2978164],[35.5550649,32.2982988],[35.5552875,32.2988956],[35.5555692,32.299242],[35.55606,32.299748],[35.5561888,32.3001017],[35.5561888,32.3003465],[35.5562424,32.3010267],[35.556457,32.3013713],[35.5566716,32.3015527],[35.5570042,32.3018247],[35.5574655,32.3020152],[35.5576908,32.3020424],[35.558466,32.3023072],[35.5594289,32.3026772],[35.5598902,32.3031396],[35.5601477,32.303584],[35.5603408,32.3038198],[35.5605125,32.3040555],[35.560373,32.304246],[35.5600726,32.3047629],[35.5598902,32.305316],[35.560137,32.3056878],[35.5604588,32.3059599],[35.561285,32.3065311],[35.5617597,32.306932],[35.5621111,32.3075014],[35.5624115,32.3077916],[35.5627682,32.3080836],[35.5629721,32.3082287],[35.5634844,32.3087619],[35.5637767,32.3092624],[35.563774,32.3096868],[35.5636238,32.3102127],[35.5630659,32.3107295],[35.5625188,32.3112555],[35.5618455,32.3120734],[35.561242,32.3132322],[35.5610275,32.3144472],[35.5612957,32.3151363],[35.5614271,32.3155371],[35.5613922,32.3158073],[35.5609309,32.3172036],[35.5602121,32.3181556],[35.5591261,32.3191137],[35.558989,32.3192346],[35.5575433,32.3199708],[35.5568754,32.3202863],[35.5568003,32.3206308],[35.5567037,32.3209844],[35.5564677,32.3212655],[35.5560707,32.3213924],[35.5556443,32.3215937],[35.5552902,32.3215937],[35.5545177,32.3215937],[35.55411,32.3214849],[35.5538526,32.3213217],[35.5535817,32.3212383],[35.5531954,32.3215284],[35.5530559,32.3219092],[35.5532491,32.3231422],[35.553807,32.3240035],[35.5545177,32.3245947],[35.5549362,32.3252021],[35.55514,32.3255375],[35.5552554,32.3260525],[35.5552017,32.3271495],[35.55503,32.3275484],[35.5548155,32.3278929],[35.5544748,32.3285384],[35.5545365,32.3293434],[35.5546975,32.3297423],[35.55503,32.329978],[35.5553117,32.3302155],[35.5562424,32.3304948],[35.5564597,32.3305782],[35.5565857,32.3307214],[35.5567467,32.3307577],[35.5570283,32.3306326],[35.5571785,32.3307232],[35.5572751,32.3309045],[35.5573904,32.3313016],[35.5573904,32.3318637],[35.5572,32.3323913],[35.5572536,32.332627],[35.5573046,32.3327883],[35.5572643,32.3329443],[35.5571114,32.3331147],[35.557039,32.3332978],[35.5570578,32.3335045],[35.5572536,32.3336876],[35.5573153,32.3337674],[35.5572214,32.3339143],[35.5570363,32.3340575],[35.5567467,32.334266],[35.5566099,32.3343766],[35.5564382,32.334431],[35.5562987,32.334431],[35.5559635,32.3346377],[35.5556309,32.335943],[35.5555343,32.3385628],[35.5556094,32.3390795],[35.5556738,32.3395962],[35.5556195,32.3397604],[35.5554699,32.3402126],[35.5550864,32.3407039],[35.5547618,32.3409468],[35.5542147,32.3419711],[35.5540349,32.3425077],[35.5537882,32.3429791],[35.5538391,32.3434758],[35.5539786,32.3437477],[35.5542147,32.3438384],[35.554507,32.3439127],[35.5547296,32.3443097],[35.5551937,32.3445472],[35.5558562,32.3451708],[35.5561995,32.3455334],[35.5568781,32.3465957],[35.5570927,32.3470036],[35.5573689,32.3472102],[35.5576372,32.3473009],[35.5578732,32.3473099],[35.5584204,32.3472646],[35.5588093,32.3472392],[35.5593323,32.3473915],[35.5594852,32.3475383],[35.5595683,32.3480985],[35.5595898,32.3482888],[35.5585598,32.3494037],[35.5581092,32.349739],[35.5574682,32.3507016],[35.5567896,32.3516968],[35.556693,32.352159],[35.556339,32.3524853],[35.5562317,32.3528297],[35.5560305,32.3532847],[35.5558748,32.3535269],[35.5557811,32.3536726],[35.5552232,32.3542617],[35.5549442,32.3545427],[35.5546867,32.3548418],[35.5546036,32.3550973],[35.5547216,32.3553058],[35.554904,32.3555233],[35.5552017,32.3557299],[35.5555584,32.3558858],[35.5566957,32.3564568],[35.5569714,32.3567994],[35.5567139,32.3573975],[35.5563277,32.3579594],[35.5554479,32.3581951],[35.5547216,32.3581969],[35.5539459,32.359047],[35.5537345,32.3597013],[35.5535817,32.3606964],[35.5535602,32.3611948],[35.5536353,32.3616208],[35.5539464,32.362237],[35.5542361,32.3628986],[35.5542683,32.3636689],[35.5543112,32.3640314],[35.5536675,32.3653726],[35.5529701,32.3659616],[35.5529057,32.3662335],[35.5530989,32.3665959],[35.5534127,32.3667609],[35.5538096,32.3668152],[35.5541074,32.3667772],[35.5549684,32.3667337],[35.5555987,32.3667591],[35.5556845,32.3668406],[35.5560493,32.366904],[35.5564999,32.3668678],[35.5568995,32.3666431],[35.5571329,32.3663966],[35.5574118,32.3661881],[35.5575084,32.3661247],[35.5577471,32.3660178],[35.5580341,32.3658075],[35.5582621,32.3655194],[35.5584445,32.3652113],[35.5591606,32.3643123],[35.5599358,32.3638338],[35.5607512,32.3634079],[35.5610167,32.363397],[35.561242,32.3635964],[35.5613922,32.3638773],[35.5616712,32.3649194],[35.5616927,32.3655447],[35.5618643,32.36588],[35.5623176,32.3662806],[35.562508,32.3665234],[35.5631196,32.3675474],[35.5636802,32.3687001],[35.5638947,32.3693072],[35.5637969,32.3698671],[35.5637526,32.370121],[35.5636024,32.3705288],[35.5633127,32.3710453],[35.5632269,32.3713081],[35.5632913,32.3716343],[35.5633985,32.3719786],[35.563766,32.3724879],[35.5639377,32.3727959],[35.5639779,32.3733559],[35.5638599,32.3737728],[35.5638062,32.3740537],[35.5638384,32.3747695],[35.5637633,32.3750141],[35.5635917,32.3752226],[35.5634307,32.3756394],[35.5633449,32.3757209],[35.5631866,32.3760036],[35.5629801,32.3764277],[35.5629801,32.3767539],[35.5630767,32.3769985],[35.5630874,32.3772522],[35.5629801,32.3775241],[35.563023,32.3777596],[35.5630338,32.3778865],[35.563023,32.3780768],[35.5629828,32.3783051],[35.563023,32.3786929],[35.5628943,32.3787835],[35.5627334,32.3788198],[35.5626073,32.3788034],[35.5624464,32.3787219],[35.5623793,32.3785207],[35.5623042,32.378403],[35.562154,32.3783667],[35.5619743,32.3783595],[35.5617678,32.3783214],[35.5615639,32.378113],[35.5614593,32.3778611],[35.561285,32.3777778],[35.5610945,32.3777615],[35.5607834,32.3777796],[35.5605259,32.3777886],[35.560373,32.3777415],[35.5600082,32.377814],[35.5598044,32.3780496],[35.5593752,32.3784936],[35.5589353,32.3791459],[35.5588415,32.379329],[35.5588924,32.3795356],[35.5589353,32.3797711],[35.5589353,32.3801879],[35.5589783,32.3806047],[35.5590748,32.3808675],[35.5591714,32.3809218],[35.5592787,32.3809309],[35.5593538,32.3808947],[35.5595576,32.3809128],[35.5598473,32.3808493],[35.5601048,32.3807859],[35.5602362,32.3807606],[35.5606439,32.3805884],[35.560719,32.3804797],[35.5611053,32.38038],[35.5612447,32.3802803],[35.5614673,32.3802695],[35.5617704,32.3804434],[35.5619206,32.3806337],[35.5620172,32.3808149],[35.5621755,32.3811121],[35.5627468,32.3817935],[35.5629801,32.3821812],[35.5630445,32.3823715],[35.5629399,32.3829169],[35.5629157,32.3832504],[35.5630874,32.3835403],[35.5633047,32.3837414],[35.5633905,32.3838502],[35.5632591,32.3840386],[35.5629399,32.3842579],[35.5628943,32.3845279],[35.5627012,32.3848903],[35.5624544,32.3851711],[35.562036,32.3854792],[35.5610731,32.386088],[35.5606198,32.3860862],[35.5604374,32.3861677],[35.5603006,32.3863689],[35.5600511,32.386512],[35.5597856,32.3865229],[35.5596434,32.3863037],[35.5595603,32.3861243],[35.5591311,32.3859159],[35.5587449,32.3858615],[35.5585598,32.3859322],[35.5577364,32.3863326],[35.5570149,32.3869741],[35.5566608,32.387418],[35.5562773,32.3878728],[35.555457,32.3881009],[35.5551028,32.388468],[35.5550193,32.3888676],[35.5549603,32.3890173],[35.5550832,32.3892484],[35.5549867,32.3894748],[35.5549223,32.3895926],[35.5550081,32.3897557],[35.5550245,32.3899541],[35.5550269,32.3899833],[35.5549545,32.3901815],[35.5542571,32.3913139],[35.5537743,32.391776],[35.5529697,32.3920296],[35.5525834,32.3920568],[35.5521972,32.3920931],[35.5520363,32.3921837],[35.5519719,32.3922743],[35.5516741,32.3924296],[35.5516071,32.3924645],[35.5506522,32.3927363],[35.5497081,32.3929809],[35.5495579,32.3931168],[35.5494828,32.3935063],[35.5497403,32.3943035],[35.5500085,32.3949105],[35.5500407,32.3952276],[35.549869,32.395907],[35.5494828,32.396369],[35.548882,32.3970032],[35.5486245,32.3973112],[35.5486245,32.397438],[35.5487962,32.3976735],[35.548882,32.3980087],[35.5488069,32.3983258],[35.548764,32.3985885],[35.5480344,32.3993585],[35.5475087,32.4001647],[35.5471654,32.4003368],[35.5466182,32.4003368],[35.5464036,32.4004727],[35.5463178,32.4005814],[35.5463178,32.4006991],[35.5463607,32.4008803],[35.5468328,32.4011792],[35.5479271,32.4015325],[35.5485923,32.4017952],[35.5492038,32.4021304],[35.5496866,32.4024565],[35.5502982,32.4032627],[35.5504913,32.4037881],[35.5507166,32.4039873],[35.5510707,32.4040055],[35.5517037,32.4038968],[35.5523581,32.4033986],[35.5529482,32.4030634],[35.553195,32.4029547],[35.5535705,32.403009],[35.5541177,32.4027826],[35.5541928,32.4024021],[35.5542357,32.40223],[35.5537421,32.4012879],[35.5535168,32.4010615],[35.5533023,32.4007172],[35.5532915,32.4002553],[35.5537207,32.4000107],[35.5544181,32.3997842],[35.5546541,32.3997842],[35.5549974,32.3997933],[35.5551262,32.3998204],[35.5558665,32.4001918],[35.5561883,32.4004998],[35.5568857,32.4005995],[35.5589134,32.4006085],[35.560276,32.4008984],[35.5605013,32.4009981],[35.5606301,32.4011611],[35.5606301,32.4014329],[35.5603189,32.4019764],[35.5596001,32.403],[35.5588705,32.4039511],[35.5581946,32.4051468],[35.5576904,32.4062519],[35.5576582,32.406895],[35.5574436,32.4074022],[35.5574221,32.407529],[35.5577118,32.4079457],[35.5586345,32.4082627],[35.5588062,32.408299],[35.5588491,32.4085073],[35.5587096,32.408779],[35.5584092,32.4089692],[35.5582804,32.4093225],[35.5579264,32.4100471],[35.5579264,32.4103007],[35.5580766,32.4105634],[35.558561,32.4108025],[35.5589456,32.4105906],[35.5591924,32.4102192],[35.5593748,32.4101015],[35.5598361,32.4101558],[35.5601794,32.4103913],[35.5606837,32.410654],[35.5611343,32.4107536],[35.5613489,32.4109166],[35.5613596,32.4110434],[35.5613703,32.4111974],[35.5613274,32.4114782],[35.5611236,32.4117409],[35.5609841,32.4118314],[35.5605979,32.4118405],[35.5603726,32.4120579],[35.5599756,32.4123749],[35.5597396,32.4126194],[35.5594928,32.4129274],[35.5586667,32.4132263],[35.5581517,32.4137335],[35.5574865,32.4144218],[35.5566067,32.4151283],[35.5565531,32.4152913],[35.556596,32.4154453],[35.5569072,32.4159706],[35.5571432,32.4163148],[35.5575509,32.4168039],[35.55798,32.4168944],[35.5579049,32.4171752],[35.5580444,32.4177639],[35.5581195,32.4181986],[35.5583019,32.4183526],[35.5586023,32.4182711],[35.5588383,32.4182167],[35.5590636,32.4182439],[35.559128,32.4183888],[35.5591173,32.4184884],[35.5589134,32.4188507],[35.5584843,32.4191496],[35.5579478,32.4194666],[35.5574007,32.4194666],[35.556832,32.4193669],[35.5562312,32.4187964],[35.5559416,32.4186515],[35.5554051,32.418742],[35.5548258,32.4187873],[35.5539138,32.4185971],[35.5531735,32.4184975],[35.5529053,32.4185066],[35.5525942,32.4186152],[35.5523689,32.4187873],[35.5522723,32.4190771],[35.5521328,32.4193126],[35.5516071,32.419702],[35.5515105,32.4199194],[35.5515535,32.4202002],[35.5516286,32.420653],[35.551768,32.4223737],[35.5518753,32.4226816],[35.5522187,32.423225],[35.5524547,32.4244567],[35.5527444,32.4259057],[35.5529268,32.4260053],[35.5531277,32.4260118],[35.5534847,32.4260234],[35.5549545,32.4259238],[35.5559094,32.4253985],[35.5564136,32.4252355],[35.5572397,32.4249819],[35.5580337,32.4247102],[35.5592675,32.4241035],[35.5599756,32.4240491],[35.5605013,32.4240129],[35.5613382,32.4238046],[35.5618853,32.4238409],[35.5622394,32.4239314],[35.5623574,32.4243027],[35.5623038,32.4244657],[35.5620355,32.424837],[35.5620463,32.4251268],[35.5622501,32.4252808],[35.562175,32.4254347],[35.5619604,32.4256974],[35.5614776,32.4258694],[35.5597825,32.4263313],[35.5586774,32.4266935],[35.5579693,32.4271101],[35.5575616,32.4274089],[35.5572934,32.427581],[35.5568428,32.4282059],[35.5568642,32.4284775],[35.5567462,32.4286496],[35.5565638,32.4290209],[35.5556841,32.4294193],[35.5554373,32.4298993],[35.5555339,32.4305332],[35.5555339,32.4309045],[35.5557699,32.4310765],[35.5559737,32.4310584],[35.5561347,32.4308682],[35.5563922,32.4308592],[35.5564887,32.4312667],[35.5564995,32.4325254],[35.5566389,32.4330778],[35.5569072,32.4335305],[35.556993,32.4343455],[35.5573041,32.435251],[35.5577976,32.4355589],[35.558023,32.4358034],[35.5580873,32.4362109],[35.5583985,32.4362199],[35.5586345,32.4361746],[35.5586989,32.4358034],[35.5593748,32.4351061],[35.560555,32.4342912],[35.5606119,32.4340773],[35.560673,32.4338475],[35.5616278,32.4337388],[35.5627866,32.4337569],[35.563559,32.4340105],[35.5645997,32.4346805],[35.565458,32.4353506],[35.5658228,32.4357853],[35.5661125,32.4362471],[35.5660588,32.4366817],[35.5658979,32.4372431],[35.5662198,32.4377774],[35.5665953,32.4380309],[35.5669708,32.4383569],[35.5676682,32.4394978],[35.568269,32.4407745],[35.5683334,32.4412906],[35.5682046,32.4415441],[35.5679793,32.4418429],[35.5675609,32.4422322],[35.5670674,32.4423228],[35.5668742,32.4422413],[35.5657799,32.441363],[35.5655761,32.4413359],[35.56534,32.4413359],[35.5649001,32.441363],[35.5647821,32.4418248],[35.564825,32.442187],[35.5651254,32.4423409],[35.5656726,32.4424948],[35.5660481,32.4432282],[35.5669386,32.4446407],[35.5671425,32.445193],[35.5670995,32.4464153],[35.5668206,32.4465602],[35.5664987,32.4467503],[35.5663056,32.4472483],[35.5662627,32.4479273],[35.566488,32.4487784],[35.5666275,32.449557],[35.5669708,32.4501817],[35.5667884,32.4508879],[35.5666704,32.4519471],[35.5664022,32.4527619],[35.5664236,32.452943],[35.5665524,32.4531331],[35.5678076,32.4533775],[35.5684728,32.4534681],[35.5691809,32.453278],[35.5698998,32.4531784],[35.5703933,32.4531059],[35.5707044,32.453278],[35.5708439,32.4540656],[35.5710048,32.4543553],[35.5710585,32.4553964],[35.5711121,32.4555956],[35.5719597,32.4566638],[35.5723567,32.4573247],[35.5728287,32.4574333],[35.5731184,32.4575601],[35.5736763,32.4585468],[35.573848,32.458746],[35.573848,32.4591715],[35.5732257,32.459271],[35.5728609,32.4594159],[35.5723352,32.4595155],[35.5716183,32.4598528],[35.5713374,32.4600043],[35.5708976,32.4605565],[35.5709941,32.4608643],[35.5711014,32.4609005],[35.5714555,32.4609186],[35.5715949,32.4610363],[35.5714876,32.4612355],[35.5708546,32.46167],[35.570522,32.4619053],[35.5702646,32.4619053],[35.5702324,32.461679],[35.5699749,32.4611902],[35.569771,32.4611449],[35.5694706,32.4612536],[35.5692024,32.4615795],[35.5688805,32.4619687],[35.5683119,32.4621045],[35.567754,32.4620773],[35.5675931,32.4619687],[35.5675823,32.4613531],[35.5675394,32.4611902],[35.5674107,32.4610363],[35.566767,32.4608643],[35.5664773,32.4610091],[35.56637,32.4611449],[35.5662734,32.4617152],[35.566134,32.4618148],[35.5657906,32.4618058],[35.5650503,32.4616247],[35.5643315,32.4617243],[35.5639131,32.4619234],[35.5627222,32.4629826],[35.5623789,32.4634805],[35.5620677,32.46444],[35.5619926,32.464956],[35.5620999,32.465128],[35.5623574,32.4651913],[35.5629797,32.4651461],[35.5635483,32.4651732],[35.5637629,32.465309],[35.563838,32.4656077],[35.5636663,32.4660603],[35.5634517,32.4662504],[35.563323,32.4663681],[35.5631191,32.4664133],[35.5626256,32.4663952],[35.5625076,32.466703],[35.5626578,32.4671375],[35.5628724,32.4674272],[35.5628295,32.4676625],[35.5629368,32.467925],[35.563087,32.4681242],[35.5628509,32.4685043],[35.5629904,32.4686039],[35.563441,32.4688664],[35.5637736,32.4685948],[35.5640096,32.468278],[35.5645675,32.467744],[35.5648787,32.4675539],[35.5652971,32.4675358],[35.5658014,32.467572],[35.5660374,32.4676806],[35.5664129,32.4683142],[35.566767,32.4689841],[35.5672819,32.4694276],[35.5674965,32.4695724],[35.5673892,32.4700522],[35.5672068,32.4702966],[35.5672712,32.4706767],[35.5675823,32.4710659],[35.5674643,32.471247],[35.5672927,32.4714642],[35.5670244,32.4715638],[35.5667455,32.4716],[35.5666382,32.4714552],[35.5663485,32.4712832],[35.5657799,32.4712379],[35.5647607,32.4711384],[35.5645139,32.471247],[35.5644173,32.4716452],[35.564471,32.4726681],[35.5644495,32.4734917],[35.5645067,32.4740918],[35.5645246,32.4742792],[35.5646319,32.4744149],[35.5652864,32.4750576],[35.5659194,32.4750666],[35.5667455,32.4753201],[35.567636,32.4753382],[35.568387,32.4754558],[35.5686338,32.4756368],[35.5687303,32.4759355],[35.5692024,32.4764062],[35.5694599,32.4765691],[35.5697603,32.476913],[35.5698783,32.4772027],[35.5697925,32.4778362],[35.5695457,32.4783702],[35.5692346,32.4787413],[35.5691702,32.4791033],[35.5688805,32.4792662],[35.5678184,32.4796735],[35.5675931,32.4796373],[35.5672283,32.4796373],[35.5668957,32.4798002],[35.5661876,32.4803885],[35.5659086,32.4805876],[35.5657477,32.4806057],[35.5654902,32.4807325],[35.5653743,32.4809637],[35.5657381,32.4814443],[35.5678549,32.4820117],[35.5699733,32.4827059],[35.5734886,32.4837833],[35.575541,32.4845522],[35.5754873,32.4851219],[35.5763022,32.4857748],[35.5769631,32.4859735],[35.577263,32.4862771],[35.577102,32.4866821],[35.5770554,32.486983],[35.5772742,32.4872608],[35.5783391,32.4876676],[35.5788432,32.4875699],[35.5791577,32.4873486],[35.579755,32.4873057],[35.5799071,32.4872948],[35.580175,32.4874065],[35.5801812,32.4881776],[35.5784301,32.4912224],[35.5778532,32.4933869],[35.577131,32.4950855],[35.5762405,32.4964157],[35.5751176,32.4972134],[35.5747938,32.4973768],[35.5740555,32.4977493],[35.5717957,32.4984035],[35.5704872,32.4996832],[35.5700338,32.499809],[35.5686727,32.4991087],[35.5679248,32.4980327],[35.5674013,32.4978779],[35.5669209,32.4980291],[35.5663399,32.4982119],[35.5660353,32.4984415],[35.5657852,32.4993733],[35.5651136,32.5009252],[35.5644101,32.5016167],[35.5633545,32.5019187],[35.5626171,32.5020894],[35.5603054,32.5019182],[35.55979,32.5016607],[35.5591039,32.5016019],[35.5583228,32.5020543],[35.5578381,32.5028553],[35.5577744,32.5034832],[35.5578255,32.50372],[35.5580473,32.5038389],[35.5587032,32.5039708],[35.5590051,32.5041333],[35.5597084,32.5042352],[35.5605736,32.504089],[35.5612249,32.5041844],[35.5616858,32.5044187],[35.562149,32.5047463],[35.5627912,32.5054528],[35.5629491,32.5061995],[35.5634122,32.5063624],[35.5639205,32.5064708],[35.5645453,32.5069986],[35.5645968,32.5075309],[35.5642666,32.508494],[35.5635886,32.5094599],[35.5634327,32.5098251],[35.563097,32.5106112],[35.5630314,32.5114057],[35.5628084,32.5119537],[35.5628224,32.5123391],[35.5630267,32.5123902],[35.5630731,32.5125156],[35.5630314,32.512915],[35.5628642,32.5131983],[35.5628799,32.5140518],[35.5623951,32.5146007],[35.5621026,32.5146936],[35.5617513,32.514302],[35.5613595,32.5139459],[35.5612294,32.5136321],[35.5615081,32.5125992],[35.5611552,32.5116333],[35.5611034,32.5101094],[35.5613502,32.5097896],[35.5615174,32.5095853],[35.5615128,32.5089119],[35.5616985,32.5087773],[35.5617357,32.5085451],[35.5614758,32.508182],[35.5609834,32.5078717],[35.560389,32.5073887],[35.55992,32.5073388],[35.5595112,32.5076209],[35.5594225,32.5081057],[35.5594834,32.5083593],[35.5598828,32.5086426],[35.5603596,32.5088427],[35.5605376,32.5091998],[35.5603286,32.5095296],[35.5594416,32.5102076],[35.5585825,32.5102865],[35.558262,32.5103423],[35.5579973,32.5105094],[35.5579973,32.5109088],[35.5579555,32.5111596],[35.5577187,32.5112107],[35.5575933,32.5113268],[35.5577698,32.5116565],[35.557584,32.5119026],[35.5574122,32.5119537],[35.5567806,32.5119537],[35.5564973,32.5121302],[35.5557172,32.5125063],[35.5552508,32.5129426],[35.554923,32.5130775],[35.5544085,32.5134772],[35.5541336,32.5132447],[35.5538364,32.513189],[35.5531258,32.5139645],[35.5530698,32.5142411],[35.5527264,32.514463],[35.5526568,32.5145079],[35.5525128,32.5147493],[35.5527089,32.5150552],[35.554495,32.5160382],[35.5551181,32.5165419],[35.5556614,32.5170852],[35.5558075,32.5176458],[35.5555687,32.5186474],[35.5557125,32.5191054],[35.5555028,32.5192162],[35.5545515,32.5198205],[35.5544725,32.5200727],[35.5554051,32.5212935],[35.5557357,32.5214041],[35.5564182,32.5211775],[35.5585066,32.5213688],[35.5594976,32.5210658],[35.5615212,32.520641],[35.5634383,32.5209527],[35.5647526,32.5213752],[35.5655605,32.5225557],[35.5664027,32.5240863],[35.5670497,32.5251592],[35.5672825,32.5266183],[35.5671752,32.5273447],[35.5664467,32.5272723],[35.5663866,32.5269557],[35.5666988,32.526546],[35.564434,32.526669],[35.5640103,32.5281673],[35.5633237,32.5299765],[35.5622079,32.5307725],[35.5604054,32.5309172],[35.5598905,32.531279],[35.5598905,32.5327263],[35.5602338,32.5339565],[35.5607488,32.5347524],[35.5604054,32.5360549],[35.5604054,32.5373574],[35.5609204,32.5384428],[35.5623796,32.539094],[35.5634953,32.5401793],[35.5632379,32.5416988],[35.5617787,32.5427118],[35.5611779,32.5437247],[35.5614354,32.5448824],[35.5627229,32.5453165],[35.564182,32.5449547],[35.5652978,32.5437971],[35.5653836,32.5422053],[35.5652978,32.5407582],[35.5658128,32.5395281],[35.5675294,32.5389493],[35.5694177,32.5388769],[35.570791,32.5400346],[35.5710484,32.5414817],[35.5707051,32.5428565],[35.5704476,32.5443759],[35.5714776,32.5456783],[35.5720784,32.5466912],[35.5713059,32.5484276],[35.5703618,32.5492958],[35.5695035,32.5488617],[35.568731,32.5493681],[35.5688182,32.550066],[35.5689027,32.5507428],[35.5694177,32.5519727],[35.5708768,32.5522621],[35.5717351,32.551828],[35.5713059,32.5508151],[35.5719926,32.5495852],[35.5734517,32.5492958],[35.5752542,32.5505981],[35.5761983,32.5515386],[35.5767586,32.5523257],[35.5769708,32.5526238],[35.5767991,32.553926],[35.5762841,32.5550835],[35.5767133,32.5563134],[35.5768849,32.5571815],[35.5760266,32.5582666],[35.5752542,32.5595688],[35.5741384,32.5603645],[35.5730226,32.5613773],[35.5720784,32.5628241],[35.5708768,32.5641985],[35.5704476,32.5654282],[35.5709626,32.5665856],[35.5723359,32.5668026],[35.5735375,32.5662962],[35.57431,32.5655729],[35.5755116,32.5659346],[35.5761983,32.5673089],[35.5768849,32.5685386],[35.5764558,32.5707809],[35.5767991,32.5725892],[35.5769708,32.5741081],[35.5770566,32.5757717],[35.5771424,32.5775799],[35.5774858,32.5790987],[35.5780007,32.5803282],[35.5776574,32.5812684],[35.5771424,32.5824256],[35.5761516,32.5847754],[35.5758184,32.5857427],[35.5760539,32.5881821],[35.5766476,32.5899852],[35.5765979,32.5914991],[35.5772941,32.592959],[35.5773782,32.5951092],[35.578098,32.5961358],[35.5781081,32.5970235],[35.5772989,32.5977629],[35.576635,32.5980568],[35.5753473,32.5981067],[35.5741856,32.5981706],[35.5734566,32.5979151],[35.5727143,32.5979824],[35.5719594,32.5982132],[35.5709774,32.5979191],[35.5696026,32.5968213],[35.5694568,32.5963596],[35.5691459,32.5960388],[35.5684687,32.5959795],[35.5677869,32.5962381],[35.5671797,32.596553],[35.5671818,32.5972452],[35.5673187,32.5977735],[35.5670214,32.5987111],[35.5671002,32.6002875],[35.5664009,32.6011967],[35.5663604,32.6032444],[35.5666545,32.6040461],[35.5674328,32.6043526],[35.5682753,32.604381],[35.5706167,32.6051429],[35.5719068,32.6054212],[35.5725076,32.6061442],[35.5729367,32.6079518],[35.5729367,32.6102654],[35.5727651,32.6126513],[35.5727651,32.6137357],[35.5719068,32.6150371],[35.5698468,32.617712],[35.5683877,32.6208929],[35.5675294,32.6221941],[35.5664136,32.6226279],[35.5653836,32.6237122],[35.5644322,32.6248118],[35.5638335,32.6249907],[35.5628674,32.6246649],[35.5621641,32.6245224],[35.5617275,32.6245511],[35.5615258,32.6247368],[35.5614104,32.6251642],[35.5615209,32.6256864],[35.5617419,32.6260592],[35.5623465,32.6267658],[35.5625131,32.6273821],[35.5626802,32.6280005],[35.5634655,32.6291286],[35.5641227,32.6294286],[35.5645357,32.6291878],[35.5653828,32.6291928],[35.5660973,32.6294815],[35.56666,32.6300218],[35.5668982,32.6309805],[35.5674904,32.6321248],[35.5679282,32.6328797],[35.5677243,32.6341066],[35.5672394,32.6345412],[35.566888,32.6348322],[35.5659922,32.6350052],[35.5647828,32.6354223],[35.5644349,32.6356778],[35.5617787,32.6364342],[35.5611779,32.6373015],[35.5617787,32.6383134],[35.5634095,32.6386748],[35.5656411,32.6388193],[35.5671861,32.6393253],[35.5679585,32.6406985],[35.5681302,32.6423608],[35.5678727,32.6435172],[35.5668427,32.64424],[35.5647828,32.6441677],[35.5628087,32.6444568],[35.5615212,32.6449627],[35.5612638,32.6459022],[35.562637,32.6470585],[35.5640329,32.6477772],[35.5711538,32.6471809],[35.5726002,32.6460045],[35.5737588,32.6455076],[35.5742363,32.6448572],[35.5737374,32.643326],[35.5746171,32.6427613],[35.5763337,32.6424722],[35.5765109,32.6425334],[35.577707,32.6431949],[35.5780504,32.6444958],[35.578737,32.6455076],[35.580068,32.6463586],[35.5806279,32.6468152],[35.5798717,32.6458776],[35.5792335,32.6451711],[35.5818269,32.6447849],[35.5834942,32.6445366],[35.5849168,32.6440622],[35.5857443,32.6431934],[35.5873201,32.643484],[35.58835,32.6442067],[35.590638,32.6451771],[35.5914399,32.6465194],[35.5910966,32.6478203],[35.5906723,32.6484141],[35.5885217,32.6491211],[35.588865,32.6499884],[35.5883325,32.6513818],[35.58938,32.6518673],[35.5914263,32.6515781],[35.5936579,32.6530235],[35.5956206,32.6528931],[35.5983351,32.6510452],[35.6013647,32.651768],[35.603271,32.6515261],[35.6049429,32.651597],[35.6063609,32.6528789],[35.6070475,32.6554805],[35.6068895,32.6588046],[35.6065462,32.6601053],[35.6052538,32.6615305],[35.6029413,32.6631402],[35.6015865,32.6642051],[35.6003611,32.6647202],[35.5988214,32.6658859],[35.5974684,32.6676407],[35.5984781,32.6702211],[35.5990274,32.6692548],[35.6012246,32.6699321],[35.6032731,32.6700492],[35.6050012,32.6705101],[35.6050215,32.6724968],[35.6055162,32.6749896],[35.6072328,32.675423],[35.6087777,32.6767235],[35.6102981,32.6783039],[35.6134126,32.6800468],[35.6159875,32.6809137],[35.6191535,32.6801535],[35.621309,32.6800468],[35.6222889,32.6791531],[35.6235195,32.6783181],[35.6254289,32.6786019],[35.6278322,32.6804802],[35.6290338,32.6816361],[35.6301682,32.6822633],[35.6313381,32.683067],[35.6315697,32.6837404],[35.631852,32.6844074],[35.6326493,32.6848685],[35.6337562,32.6856785],[35.6352136,32.6865484],[35.637109,32.6848518],[35.6392379,32.6831075],[35.6413049,32.6815076],[35.6434953,32.6780975],[35.6448427,32.6777229],[35.6465603,32.6782426],[35.6485292,32.6797607],[35.6497802,32.6806824],[35.650633,32.6812243],[35.6517948,32.6821526],[35.6533014,32.683858],[35.654488,32.6845777],[35.6550384,32.6848359],[35.6559353,32.6851958],[35.6568687,32.6853132],[35.6577131,32.6851755],[35.6589491,32.6848666],[35.6595231,32.6839393],[35.6599468,32.6829568],[35.6613899,32.680683],[35.6635839,32.6799948],[35.6654466,32.6806367],[35.6660109,32.6810919],[35.6679049,32.6828331],[35.6686653,32.6836709],[35.6692146,32.6841109],[35.6712218,32.6848712],[35.6732206,32.6844088],[35.674714,32.684817],[35.6752247,32.6854111],[35.6750852,32.6861994],[35.6730124,32.6893969],[35.6719033,32.6915565],[35.6710979,32.6930465],[35.6714879,32.6942681],[35.6766629,32.6989957],[35.6776483,32.7024631],[35.6758599,32.7044341],[35.6762249,32.7058575],[35.6816633,32.7065875],[35.6871382,32.7089235],[35.6916276,32.708522],[35.7001384,32.7124384],[35.7003644,32.7125424],[35.7019061,32.7147615],[35.7028062,32.7159262],[35.7036604,32.715658],[35.7069752,32.714855],[35.7117896,32.7187648],[35.7155505,32.7160551],[35.7174192,32.7164756],[35.7185171,32.7196058],[35.718715,32.7221132],[35.7193523,32.722709],[35.7212202,32.7213948],[35.7230291,32.7210761],[35.7243069,32.7220681],[35.7248943,32.7255858],[35.7264429,32.7269748],[35.7277101,32.7266696],[35.7288187,32.7258661],[35.7295428,32.7233199],[35.7313727,32.7234687],[35.7330062,32.7241256],[35.73426,32.7262451],[35.7374542,32.7326632],[35.7413051,32.7307527],[35.7451858,32.730902],[35.7483501,32.7333797],[35.7507682,32.7363052],[35.7520731,32.7375584],[35.7535902,32.7398155],[35.7531353,32.741457],[35.7544142,32.7430326],[35.7556287,32.7449493],[35.7564827,32.7450901],[35.7605886,32.7457822],[35.7617087,32.7461107],[35.7651881,32.7466864],[35.7697586,32.7457867],[35.7736199,32.7458625],[35.7790004,32.7472621],[35.7835279,32.747023],[35.7862756,32.7476375],[35.786373,32.7477067],[35.7890179,32.7495857],[35.79086,32.7513714],[35.7929157,32.7536317],[35.7956226,32.7554588],[35.7970838,32.7554949],[35.7983305,32.754469],[35.7987921,32.7537611],[35.8006254,32.7501821],[35.80081,32.7489892],[35.8002188,32.7485678],[35.7948018,32.7464942],[35.7939843,32.7458932],[35.7937032,32.7450287],[35.7945819,32.7431996],[35.7965152,32.7419217],[35.7980398,32.7419596],[35.7989839,32.7417295],[35.7997457,32.7411493],[35.8000514,32.7395068],[35.8001877,32.7379979],[35.8006082,32.7368915],[35.801576,32.7359773],[35.8030437,32.7356921],[35.804049,32.7358798],[35.80611,32.738016],[35.8066207,32.7397045],[35.8074329,32.7407937],[35.8089274,32.7415301],[35.8097964,32.7408596],[35.8094831,32.7399147],[35.8087461,32.7389112],[35.8088566,32.7375611],[35.8092814,32.7367552],[35.810585,32.7357102],[35.8139828,32.7352607],[35.8178559,32.7350234],[35.820816,32.7349394],[35.8257019,32.7337445],[35.8280644,32.7315415],[35.8301254,32.7296498],[35.833844,32.7280063],[35.8348139,32.7266479],[35.8383255,32.7269241],[35.8417619,32.7285424],[35.8424593,32.7303177],[35.8433552,32.7313754],[35.8444195,32.7316254],[35.8457831,32.7312292],[35.8479181,32.7302915],[35.850492,32.7274638],[35.8527397,32.7257381],[35.8538394,32.7250675],[35.8552373,32.7247606],[35.8563692,32.7251027],[35.8567376,32.7258092],[35.8567265,32.7269331],[35.8549906,32.7278266],[35.8536355,32.729129],[35.8545625,32.7305],[35.8554746,32.7311471],[35.8576385,32.7309079],[35.8595814,32.7312915],[35.8615598,32.7316634],[35.8648472,32.7326534],[35.868864,32.7327148],[35.8711525,32.7318709],[35.8726535,32.7313809],[35.8753217,32.7305623],[35.8766768,32.7292798],[35.8772132,32.7259863],[35.8777196,32.7222288],[35.8802463,32.7175612],[35.882097,32.7145436],[35.8840164,32.713955],[35.8866267,32.7142023],[35.8885783,32.7153813],[35.8912612,32.7167575],[35.8961217,32.7171668],[35.8998414,32.7176641],[35.9012857,32.7189484],[35.9020161,32.7213054],[35.9037928,32.7231684],[35.9044237,32.7237885],[35.9055052,32.7236648],[35.9047327,32.7214751],[35.9039666,32.7205652],[35.904502,32.7191743],[35.9053908,32.7193372],[35.9075769,32.7206916],[35.9102548,32.7219761],[35.9118159,32.7232487],[35.9128544,32.7227162],[35.9135743,32.7214327],[35.9146815,32.7196653],[35.9172672,32.7184729],[35.9196715,32.7184711],[35.9201103,32.7193349],[35.9191544,32.7210852],[35.9195535,32.7218082],[35.9213195,32.7210373],[35.9228869,32.7201888],[35.9242849,32.7212341],[35.9244802,32.7220591],[35.925256,32.7223746],[35.9269489,32.721865],[35.9297244,32.721142],[35.9311127,32.7203829],[35.9316964,32.719742],[35.9323036,32.7196581],[35.9336415,32.7208071],[35.9344826,32.7205789],[35.9354214,32.7189955],[35.936195,32.7180351],[35.9359761,32.7165692],[35.9368205,32.712099],[35.9381455,32.7091417],[35.9394759,32.7083527],[35.9382893,32.7070509],[35.938477,32.7042333],[35.936814,32.6999738],[35.9379374,32.6990167],[35.9390059,32.699293],[35.9400638,32.6989012],[35.9399007,32.6966422],[35.9415326,32.6961411],[35.9432846,32.6966395],[35.9450838,32.6963497],[35.9466642,32.694933],[35.9475032,32.6918018],[35.9472468,32.6889602],[35.9458306,32.6872473],[35.9460065,32.6853709],[35.9475515,32.6823368],[35.9488711,32.6804711],[35.95383,32.6772066],[35.9552848,32.6758429],[35.9591729,32.6698471],[35.9616599,32.6666246],[35.96468,32.6639376],[35.966328,32.6643856],[35.9671997,32.6642004],[35.9671724,32.6624058],[35.9815114,32.6603934],[35.9933765,32.6605785],[36.0024262,32.6613029],[36.0112378,32.659603],[36.0184723,32.6578832],[36.0215472,32.6579085],[36.0223475,32.6587549],[36.0238195,32.6580783],[36.0237455,32.6554182],[36.0269384,32.6533487],[36.0277763,32.6421948],[36.0281776,32.6397211],[36.0262432,32.6275264],[36.0237573,32.6139085],[36.0250308,32.611557],[36.0258795,32.6102394],[36.0247326,32.6077477],[36.0256842,32.6022652],[36.027565,32.600886],[36.0295852,32.5971394],[36.038341,32.5926497],[36.042727,32.5905888],[36.0485506,32.585776],[36.0534247,32.5831725],[36.0595916,32.5787779],[36.0621826,32.5781568],[36.0626418,32.5761805],[36.0664935,32.5708751],[36.0689568,32.5682883],[36.0720553,32.5587705],[36.0722002,32.5532642],[36.0748062,32.5475577],[36.0763039,32.545644],[36.0794346,32.5438705],[36.0789786,32.5380106],[36.075922,32.5334465],[36.0773017,32.5271299],[36.077909,32.5204927],[36.078734,32.513485],[36.0849879,32.5146114],[36.0917299,32.5163656],[36.0964527,32.5185866],[36.1058522,32.5201381],[36.1225871,32.5247382],[36.1338159,32.5239213],[36.1481882,32.5241267],[36.1543487,32.5230755],[36.1562284,32.5238245],[36.1573528,32.5221636],[36.1597045,32.5183297],[36.1632901,32.5146204],[36.1720148,32.5184147],[36.1810592,32.5194261],[36.1899777,32.5225917],[36.1968623,32.5275224],[36.2000073,32.5270417],[36.1999565,32.5289859],[36.1999978,32.5298545],[36.2046393,32.5277538],[36.2055853,32.5261132],[36.2066732,32.5196415],[36.2054523,32.5077389],[36.2099412,32.5004479],[36.2118596,32.4948394],[36.2182475,32.4940684],[36.2250646,32.4941336],[36.2326907,32.4975197],[36.2354394,32.4973387],[36.2370916,32.4999502],[36.240203,32.4989458],[36.2419604,32.4975704],[36.2426084,32.4956231],[36.253569,32.4895075],[36.264727,32.4828413],[36.286661,32.4700613],[36.2895728,32.4670887],[36.2931069,32.4659318],[36.2953256,32.4647432],[36.2969199,32.4620086],[36.3000892,32.4598288],[36.3055566,32.4592675],[36.3111442,32.4545147],[36.3143092,32.4511124],[36.3277267,32.4389799],[36.3313616,32.4359936],[36.3341511,32.4324675],[36.3391744,32.4304355],[36.3418759,32.4270504],[36.346397,32.4236308],[36.3560487,32.4148567],[36.3625675,32.4088824],[36.3729444,32.398844],[36.3813684,32.3953051],[36.3843771,32.390071],[36.3917478,32.3860122],[36.3980349,32.3845064],[36.4004982,32.3800052],[36.4068347,32.3771438],[36.4253312,32.3754494],[36.4369098,32.3729811],[36.4383775,32.371486],[36.448587,32.3731515],[36.4656588,32.3716618],[36.4740702,32.3714171],[36.4805075,32.3695595],[36.4846102,32.3672831],[36.4907621,32.366386],[36.494638,32.3631776],[36.500468,32.360003],[36.5036303,32.3592793],[36.5066257,32.3588968],[36.5102323,32.3575778],[36.5118341,32.3572443],[36.513357,32.3573507],[36.5193437,32.3575175],[36.5458976,32.3554674],[36.5796119,32.3492136],[36.5938898,32.3494892],[36.6461414,32.3428452],[36.6651143,32.3396291],[36.6893185,32.3345092],[36.6916359,32.3323662],[36.6935671,32.3259005],[36.7018926,32.3223932],[36.7046993,32.3189478],[36.7098234,32.3163728],[36.7215307,32.3136418],[36.7237773,32.3164853],[36.734165,32.3187393],[36.7406753,32.3215886],[36.7515007,32.3222341],[36.7605665,32.3206905],[36.7865947,32.3210555],[36.8170346,32.3160125],[36.8380938,32.311354],[36.8585766,32.3190281],[36.8808926,32.333755],[36.8916923,32.3545502],[36.9622623,32.4399799],[36.9760503,32.4355199],[36.9819883,32.4412167],[36.9885758,32.4399908],[36.9931914,32.4307564],[37.0012444,32.4267121],[37.0087782,32.4248193],[37.0207323,32.4248103],[37.0370294,32.4279618],[37.0647611,32.4285058],[37.0725826,32.4318466],[37.0772625,32.4334187],[37.0775672,32.4353945],[37.0943364,32.4476316],[37.1048013,32.4545911],[37.1210491,32.4693429],[37.1334001,32.4844399],[37.1480106,32.5003071],[37.1617221,32.5159254],[37.1685156,32.5213299],[37.1832999,32.5295111],[37.1934709,32.5429031],[37.2067446,32.5574216],[37.2275328,32.5621907],[37.255432,32.5719161],[37.268017,32.5649341],[37.2772215,32.5639968],[37.3013128,32.5655309],[37.3140372,32.5580673],[37.3235065,32.5587111],[37.3251223,32.5615378],[37.330903,32.5646502],[37.3425759,32.5653573],[37.3599159,32.5602285],[37.3673467,32.5753934],[37.3791119,32.5920942],[37.424555,32.6069518],[37.4352581,32.6226491],[37.4442467,32.6429477],[37.4648417,32.6580299],[37.4740471,32.668229],[37.4854733,32.6896441],[37.4940757,32.6925533],[37.5078987,32.6995452],[37.5205287,32.7175011],[37.5356349,32.7217273],[37.5622896,32.724408],[37.5667957,32.7332187],[37.5819212,32.7337169],[37.6062564,32.7374243],[37.6473907,32.744216],[37.6577598,32.7436236],[37.6867184,32.7474122],[37.6981542,32.7531881],[37.7021775,32.7543665],[37.7075312,32.7578294],[37.7166668,32.7576959],[37.7244549,32.7600634],[37.740796,32.7618001],[37.7533423,32.7744637],[37.7621711,32.7878578],[37.764025,32.7989908],[37.7670849,32.8130972],[37.7706286,32.8258823],[37.7716682,32.834555],[37.7742453,32.8427698],[37.7765241,32.8513452],[37.7754609,32.8679854],[37.7693326,32.8787228],[37.7854473,32.89343],[37.8031112,32.9001233],[37.8180372,32.9053839],[37.8673941,32.9035823],[37.8884179,32.8939411],[37.901525,32.8983584],[37.915992,32.9068091],[37.945095,32.92296],[37.9653981,32.9338419],[37.9894921,32.9468613],[38.0120608,32.9589986],[38.039735,32.9732239],[38.0587073,32.984264],[38.0933042,33.0018948],[38.1317755,33.0232591],[38.1591498,33.0383435],[38.1827058,33.050868],[38.2107327,33.0657626],[38.2315587,33.0784336],[38.2417685,33.0837238],[38.2637526,33.0933641],[38.2718287,33.0975202],[38.3181413,33.1228302],[38.3504499,33.1413625],[38.3629106,33.1629291],[38.3683527,33.1653874],[38.3761174,33.1669653],[38.3975793,33.1696413],[38.416112,33.1752316],[38.4221047,33.1775205],[38.4313684,33.1827886],[38.5547324,33.2444706],[38.6243616,33.2839844],[38.6328064,33.2885774],[38.6476924,33.2963757],[38.6745979,33.3101747],[38.6786727,33.3128152],[38.6814513,33.31462],[38.6920456,33.3189369],[38.7008431,33.3245843],[38.7106354,33.3293807],[38.7229613,33.3354049],[38.7325821,33.340233],[38.7547719,33.3539673],[38.7571256,33.355412],[38.757864,33.3560732],[38.7601595,33.3568692],[38.7625839,33.357],[38.7641739,33.3569566],[38.7657896,33.356739],[38.7679264,33.3572505],[38.7696449,33.3581833],[38.7737473,33.3610093],[38.7777895,33.3637583],[38.7818509,33.3665292],[38.7866054,33.3701435],[38.789894,33.3718445],[38.7930132,33.3734961],[38.7927186,33.3744197],[38.7936719,33.3750617],[39.0048446,32.7466831],[39.0039551,32.7455415],[39.0060446,32.7395103],[39.0063037,32.7387439],[39.0076122,32.734873],[39.0080754,32.7345508],[39.0860642,32.5020084],[39.0620846,32.4967329],[38.9855826,32.4776569],[39.0431465,32.3036858],[39.2599162,32.3552243],[39.3012981,32.2305891],[39.2009164,32.1543377],[39.2006011,32.1540981],[39.1791885,32.1353865],[39.1114638,32.0825295],[39.1051467,32.0784951],[39.0997651,32.0745569],[39.0811098,32.0590106],[39.0063116,32.0006304],[38.9801868,31.9941321],[38.9699387,31.9925815],[38.9646805,31.9913786],[38.9460252,31.9858487],[38.8955363,31.9737204],[38.8079713,31.9526442],[38.6670341,31.9192524],[38.5702171,31.8954124],[38.5577182,31.8916135],[38.5212627,31.8826114],[38.5072638,31.8790068],[38.4787152,31.8719042],[38.4350194,31.8616936],[38.4195465,31.8577244],[38.3835347,31.8487634],[38.3509939,31.8411367],[38.3304687,31.8355747],[38.2982261,31.8276866],[38.2781639,31.8227923],[38.2616731,31.8187788],[38.2458856,31.8148454],[38.2047694,31.8045081],[38.1648377,31.7945576],[38.148573,31.7906747],[38.1076404,31.7803974],[38.0832509,31.7743671],[38.0593829,31.7675524],[38.0397789,31.7634896],[38.0244905,31.7587655],[38.0054983,31.7512244],[37.9840037,31.744534],[37.9712965,31.7451032],[37.9642454,31.7442153],[37.9596316,31.7435862],[37.9390074,31.7377133],[37.9156345,31.7319998],[37.8712608,31.7215924],[37.8094112,31.706064],[37.7975097,31.7030947],[37.7548068,31.6923086],[37.7111136,31.6812226],[37.678734,31.6720903],[37.6400393,31.6634602],[37.6155279,31.656643],[37.5422135,31.6377772],[37.4996759,31.6265353],[37.4739913,31.6201526],[37.4032721,31.6017205],[37.3889331,31.5976885],[37.3818039,31.5946434],[37.3660692,31.591079],[37.3412445,31.585206],[37.2752276,31.5689781],[37.1804772,31.5458163],[37.1063831,31.5258243],[37.0939537,31.5228086],[37.0922074,31.5218626],[37.0910289,31.5218595],[37.0901326,31.5214845],[37.0845158,31.5204282],[37.0768241,31.5184031],[37.0674645,31.5157423],[37.0565033,31.5132214],[37.0444111,31.5103002],[37.0263386,31.5056284],[37.011625,31.501826],[37.0061712,31.5006395],[37.0136476,31.4936871],[37.0313543,31.4765662],[37.0392228,31.4688697],[37.04425,31.4633919],[37.0517887,31.456012],[37.0590735,31.4490272],[37.0684157,31.4396969],[37.081851,31.4262929],[37.0885797,31.4197221],[37.0960578,31.4122309],[37.1032413,31.4049011],[37.1119488,31.3964728],[37.1238142,31.3846357],[37.1356494,31.3729681],[37.1408038,31.3678079],[37.147842,31.3610405],[37.1580961,31.3506716],[37.1689672,31.3400078],[37.1753584,31.3335413],[37.1798076,31.3294311],[37.192227,31.3170868],[37.218554,31.2960569],[37.2398733,31.2784223],[37.2587518,31.2551578],[37.2670718,31.2448773],[37.2773233,31.2356118],[37.2828101,31.2278052],[37.2964096,31.2138223],[37.3100895,31.200567],[37.3144775,31.1957339],[37.3201561,31.1895065],[37.3249127,31.1851433],[37.3300428,31.1781876],[37.3335551,31.1760274],[37.3357469,31.1739846],[37.3361237,31.1730909],[37.3451651,31.1641493],[37.3562774,31.1543681],[37.3606392,31.1503775],[37.3661048,31.1447556],[37.3728261,31.1382251],[37.3751219,31.136572],[37.3808683,31.1313451],[37.3887955,31.123418],[37.391087,31.1217273],[37.3957171,31.1163738],[37.4019132,31.1090524],[37.4062453,31.1052825],[37.4090766,31.1018393],[37.4124966,31.0981662],[37.4159289,31.09551],[37.421257,31.0906863],[37.4262444,31.0856389],[37.4358358,31.0747241],[37.4399298,31.0709068],[37.4474118,31.0630776],[37.4591515,31.0500185],[37.4687828,31.0413616],[37.5019684,31.0091457],[37.506413,31.0040657],[37.5135548,30.9968686],[37.5180157,30.9931089],[37.5249656,30.9853761],[37.5358614,30.974178],[37.5436067,30.9655309],[37.5463327,30.9610991],[37.5722982,30.9385198],[37.5741968,30.9371241],[37.5835233,30.9278074],[37.5865152,30.9233498],[37.5915991,30.9181994],[37.5937772,30.9166407],[37.5963135,30.9133496],[37.6110349,30.9003536],[37.6307926,30.8797016],[37.6336082,30.8780747],[37.6726471,30.8386949],[37.7043382,30.806464],[37.7326343,30.7780476],[37.7530141,30.7576054],[37.8018691,30.7088933],[37.8299932,30.680438],[37.863805,30.6466806],[37.9035381,30.6064434],[37.9327887,30.5762665],[37.9614643,30.5376909],[37.9971461,30.5006607],[37.6655574,30.3326227],[37.6641868,30.3301207],[37.6562741,30.3151912],[37.6411779,30.2855498],[37.6363859,30.2766913],[37.632405,30.2685645],[37.6247667,30.2529912],[37.6084793,30.2195481],[37.5765067,30.1556096],[37.5395757,30.0803397],[37.5341954,30.0694657],[37.52943,30.0600875],[37.52084,30.0424659],[37.5055049,30.0007688],[37.5016142,29.9998026],[37.4960624,29.9984885],[37.2139532,29.9487935],[37.207112,29.9479116],[37.2045422,29.9471873],[37.1969964,29.9457867],[37.1581507,29.9373832],[37.1394724,29.9339891],[37.1264703,29.9314209],[37.1250338,29.9323252],[37.1231094,29.9322149],[37.1222204,29.9308386],[37.1047541,29.9285747],[37.1007386,29.928977],[37.0798527,29.9239001],[37.0571632,29.9192952],[37.0563451,29.9199439],[37.0547464,29.9200288],[37.0532403,29.9180563],[37.0496427,29.9168738],[37.0451616,29.9171118],[37.0415261,29.9168705],[37.0372797,29.9171209],[37.0301521,29.9160118],[37.0259457,29.9145642],[37.0208309,29.9143304],[37.0141585,29.9121883],[37.0103339,29.9119308],[37.0042585,29.910824],[37.0002014,29.9106247],[36.9798921,29.9067125],[36.8786951,29.8881277],[36.8649845,29.8856103],[36.841171,29.8803892],[36.8044458,29.872539],[36.7987551,29.8720906],[36.7968612,29.8708795],[36.7920401,29.8715299],[36.7906237,29.8708894],[36.788199,29.8687259],[36.7849032,29.8679012],[36.7836516,29.8662879],[36.7787601,29.8584556],[36.7757762,29.8520384],[36.769583,29.8438576],[36.7647738,29.837799],[36.7639466,29.8349672],[36.7638675,29.8319661],[36.7631866,29.8292435],[36.7616074,29.8246444],[36.7598732,29.8204542],[36.757927,29.817576],[36.7557384,29.8150787],[36.7448223,29.8011126],[36.7360779,29.7889886],[36.7327733,29.786337],[36.7268109,29.78221],[36.7109824,29.7703843],[36.6902299,29.7550516],[36.6809221,29.7494058],[36.6676932,29.7277916],[36.6595733,29.7161234],[36.6474244,29.6998225],[36.6441187,29.6943972],[36.6431171,29.6920332],[36.6438183,29.6873765],[36.6392385,29.6737922],[36.631392,29.6550796],[36.627882,29.6441919],[36.6258863,29.6391382],[36.6244587,29.6368563],[36.6232517,29.6358025],[36.6189599,29.6335678],[36.6159716,29.6317777],[36.607896,29.6233871],[36.5744342,29.5892887],[36.5668996,29.5817876],[36.5503771,29.5636375],[36.5484671,29.5605264],[36.5472841,29.5462442],[36.5396777,29.5337912],[36.5349574,29.5269595],[36.5272872,29.5143326],[36.5200067,29.5073189],[36.5076946,29.4984061],[36.5004053,29.4918729],[36.4922954,29.4853161],[36.4817498,29.4741288],[36.4803331,29.4729664],[36.4778233,29.4691613],[36.4740593,29.4643212],[36.4665838,29.4585345],[36.460084,29.4524646],[36.4552247,29.4422094],[36.4493379,29.4303741],[36.4426732,29.4253672],[36.4371469,29.4207286],[36.4308447,29.4199872],[36.425605,29.4151569],[36.4232862,29.4133853],[36.4212602,29.412407],[36.4093314,29.4057279],[36.3970023,29.4013873],[36.3868493,29.4027781],[36.3709416,29.3975525],[36.3690184,29.3961934],[36.3568507,29.3882563],[36.3475494,29.3826399],[36.3417408,29.3801086],[36.337124,29.3763094],[36.3339417,29.3741273],[36.3313248,29.3730873],[36.3200389,29.3621232],[36.3102611,29.3520463],[36.2980449,29.3439036],[36.2879024,29.3382089],[36.273917,29.3289583],[36.2497018,29.3126665],[36.21258,29.2861835],[36.1953924,29.2700526],[36.1761444,29.2526984],[36.1518434,29.2319967],[36.1497373,29.2306702],[36.1374629,29.2239759],[36.1184508,29.2136316],[36.0981653,29.202582],[36.0850355,29.1908658],[36.0828026,29.1889626],[36.0728117,29.183401],[36.0023764,29.1951371],[35.9696396,29.1982328],[35.9594418,29.199961],[35.9455931,29.202499],[35.9323617,29.2054061],[35.912613,29.20902],[35.9098912,29.2090685],[35.9083463,29.2099577],[35.9071208,29.2097474],[35.9058953,29.2098584],[35.9013677,29.21075],[35.9006906,29.2103566],[35.8875983,29.21193],[35.8743749,29.2134758],[35.8691641,29.2138601],[35.8534064,29.2158342],[35.8485069,29.2162638],[35.8435544,29.2172838],[35.8229845,29.2197498],[35.8198913,29.2199751],[35.8182427,29.2206699],[35.7371031,29.2379941],[35.2318498,29.3163585],[35.1766343,29.3251616],[35.1350785,29.3317546],[35.1267243,29.3331775],[35.1164933,29.334936],[35.0972291,29.3378562],[35.0887986,29.3392791],[35.076191,29.3434487],[35.0742026,29.3441385],[35.0469073,29.3444813],[35.0115575,29.3497898],[34.9916442,29.3524226],[34.9817691,29.3535888],[34.9761354,29.3547515],[34.9672586,29.3562411],[34.9606906,29.3573886],[34.9607527,29.3574399],[34.9609123,29.3573907],[34.9616622,29.3577497],[34.9625865,29.3583152],[34.9636676,29.3592682],[34.9646328,29.3598573],[34.9650495,29.3604308],[34.9652123,29.3609752],[34.965147,29.3617493],[34.9648448,29.3622898],[34.9641736,29.363192],[34.9640078,29.3635661],[34.9634455,29.3648602],[34.9627184,29.3655667],[34.9623641,29.3659123],[34.9621136,29.3662835],[34.961723,29.3668828],[34.9614305,29.366947],[34.9610106,29.3679817],[34.9602494,29.3680787],[34.9590864,29.368017],[34.9589013,29.3668127],[34.9587756,29.3656804],[34.9585537,29.365693],[34.9586401,29.3661395],[34.9584459,29.3660796],[34.9587292,29.3681927],[34.9603481,29.3682839],[34.9607902,29.3685121],[34.9607097,29.3688856],[34.9610788,29.3688678],[34.9610482,29.3690646],[34.9619182,29.3693822],[34.9622166,29.3696349],[34.9631019,29.3698791],[34.9639923,29.3703803],[34.9649315,29.3708865],[34.965296,29.3713701],[34.965837,29.3716597],[34.9660135,29.3723997],[34.9654073,29.3732483],[34.9648059,29.3739433],[34.96422,29.3746204],[34.9642249,29.3748774],[34.9640581,29.3751903],[34.9652652,29.375122],[34.9654942,29.3749798],[34.9659371,29.3750273],[34.9659916,29.3751105],[34.9658417,29.3751639],[34.9658281,29.3756388],[34.9655624,29.3757516],[34.9651268,29.3756043],[34.963952,29.3756105],[34.9636624,29.3761713],[34.963374,29.3764329],[34.9632497,29.376739],[34.9644638,29.3768352],[34.9644332,29.3775317],[34.9632509,29.3775004],[34.9633533,29.3770016],[34.9631547,29.3769732],[34.9627981,29.3775958],[34.9622821,29.3775584],[34.9622155,29.3773368],[34.9620058,29.3773999],[34.9620407,29.378189],[34.9622686,29.3780824],[34.9628679,29.3782306],[34.9634184,29.3787464],[34.9636741,29.3791407],[34.9641671,29.3796156],[34.9643457,29.3798272],[34.9643356,29.380242],[34.9642264,29.3803213],[34.9641789,29.3808859],[34.964293,29.3812528],[34.9643243,29.3813534],[34.9642597,29.3815532],[34.9644866,29.3816803],[34.9645249,29.3818374],[34.964309,29.3817617],[34.9644285,29.3820076],[34.9644747,29.3821868],[34.9643755,29.3823913],[34.9644941,29.3824332],[34.964446,29.3825139],[34.9651381,29.382902],[34.9661351,29.3834638],[34.9667558,29.3843544],[34.9670639,29.3846735],[34.9677985,29.3851104],[34.9682658,29.3863671],[34.9684677,29.387294],[34.96846,29.387882],[34.9682899,29.3882337],[34.9680595,29.3886282],[34.9677224,29.3889295],[34.967437,29.3892303],[34.9663619,29.390359],[34.9649522,29.3920218],[34.9641848,29.3931299],[34.9642073,29.3964579],[34.9643615,29.3964551],[34.9643972,29.3950696],[34.9645488,29.3950759],[34.9645367,29.3941638],[34.9653317,29.3941622],[34.9653234,29.3952016],[34.9655801,29.3952133],[34.9655661,29.3965645],[34.9650385,29.3965591],[34.9650291,29.3966472],[34.9650989,29.3967755],[34.9648358,29.3976803],[34.9639997,29.3973071],[34.9639549,29.3974193],[34.9648529,29.3978044],[34.9648787,29.3980189],[34.9649852,29.3981346],[34.9652531,29.3981327],[34.9652928,29.398329],[34.9651043,29.3983825],[34.9653261,29.398645],[34.965745,29.398705],[34.9658432,29.3985279],[34.966091,29.3985531],[34.9660631,29.3988632],[34.9665529,29.3994388],[34.9668651,29.3997821],[34.9671041,29.4004637],[34.9673661,29.4008027],[34.9677025,29.401343],[34.9683669,29.4018456],[34.9694557,29.402572],[34.9695825,29.403061],[34.970797,29.4034839],[34.971129,29.4037517],[34.9716853,29.4039528],[34.9722161,29.4041763],[34.9732488,29.4045637],[34.9739344,29.4048004],[34.9744939,29.4050588],[34.9749868,29.405304],[34.9753927,29.4055883],[34.975718,29.4058979],[34.9760458,29.406118],[34.9762786,29.4063671],[34.9767297,29.4068768],[34.9770299,29.407216],[34.97732,29.4077686],[34.9774426,29.4086666],[34.9778458,29.4086206],[34.9788512,29.4085319],[34.9788438,29.4084388],[34.9789635,29.4084203],[34.9789786,29.4085327],[34.9795256,29.4084505],[34.9796465,29.4084487],[34.9797196,29.4090155],[34.9792293,29.4090707],[34.9792416,29.4091674],[34.9795188,29.4091402],[34.979556,29.4093565],[34.9798041,29.4094004],[34.9795786,29.410272],[34.9791561,29.4103241],[34.9786953,29.4103803],[34.9784965,29.4091229],[34.9787886,29.4090912],[34.9787761,29.4089854],[34.9781335,29.4090275],[34.9774608,29.4090898],[34.9775102,29.4093975],[34.9775972,29.4096548],[34.9776464,29.409938],[34.9776385,29.4101267],[34.9776223,29.4102157],[34.9776265,29.4102655],[34.9776773,29.4103683],[34.9776865,29.4106004],[34.9777053,29.4107571],[34.9777078,29.4108908],[34.9775566,29.4114519],[34.9774845,29.4117251],[34.9771771,29.4122431],[34.9767983,29.4128277],[34.9759594,29.4137761],[34.9754249,29.414666],[34.97507,29.4160716],[34.9746277,29.4167744],[34.9734478,29.4178312],[34.9730449,29.418504],[34.9727925,29.4198283],[34.9730822,29.4209074],[34.9727046,29.4217321],[34.9721936,29.4224353],[34.9724251,29.4231839],[34.9727622,29.423731],[34.9730072,29.4247067],[34.9731864,29.4254202],[34.973289,29.4264553],[34.9731471,29.4268288],[34.973208,29.427135],[34.9736989,29.4277844],[34.9740403,29.4285466],[34.9743748,29.4292375],[34.9746794,29.4306292],[34.9746773,29.4315001],[34.9745898,29.4319737],[34.9744149,29.4325059],[34.9741601,29.4330446],[34.9738347,29.4336983],[34.9736832,29.4340026],[34.9732846,29.4345],[34.9723507,29.4352363],[34.9718297,29.4356833],[34.9715063,29.4360483],[34.9712447,29.4364664],[34.9711541,29.4366113],[34.9707596,29.4376289],[34.9705311,29.4389458],[34.9702727,29.4401359],[34.9701945,29.4418402],[34.970033,29.4425563],[34.9696846,29.4430932],[34.9691523,29.444516],[34.9683708,29.4452741],[34.9680074,29.445557],[34.9676247,29.4456914],[34.9676372,29.4460378],[34.9675096,29.4465524],[34.9678206,29.4472104],[34.9681601,29.447493],[34.969541,29.4482609],[34.9704113,29.4493936],[34.970657,29.4498349],[34.970767,29.4505522],[34.9709545,29.4509705],[34.9708968,29.4514801],[34.9711276,29.4520186],[34.9711354,29.4525696],[34.9720618,29.4538333],[34.9725093,29.4542128],[34.9727718,29.4547349],[34.9729191,29.4552126],[34.9733968,29.4555715],[34.9737191,29.4559949],[34.9742093,29.4566436],[34.9741324,29.456783],[34.9746301,29.4575241],[34.9756713,29.4581512],[34.9761097,29.4584525],[34.9763093,29.4587494],[34.976294,29.4589917],[34.9761247,29.4589917],[34.9762286,29.4591263],[34.976294,29.4594532],[34.9761438,29.4598159],[34.9758973,29.460166],[34.97574021,29.46050075],[34.9754918,29.4610301],[34.9755132,29.4612686],[34.9754101,29.4615356],[34.9752093,29.4629263],[34.9750846,29.4632113],[34.9747824,29.4633032],[34.9747247,29.4629801],[34.9743897,29.463028],[34.974644,29.4643878],[34.9749512,29.464322],[34.974972,29.4640291],[34.9753184,29.4640501],[34.9757431,29.4652304],[34.9756863,29.4654801],[34.9757662,29.4660896],[34.9757942,29.4668868],[34.9749779,29.4670039],[34.9758855,29.4718499],[34.9765305,29.4719334],[34.9766324,29.4722301],[34.9765917,29.4723683],[34.9768601,29.4725058],[34.9771225,29.4736687],[34.9774209,29.4739494],[34.9777324,29.474184],[34.9781137,29.4742841],[34.9788214,29.4745236],[34.9789282,29.4745598],[34.9793759,29.4749393],[34.9794588,29.4754382],[34.9796345,29.4757486],[34.9797908,29.4761241],[34.9799934,29.476473],[34.9803095,29.4768998],[34.980551,29.4776178],[34.9805903,29.4790186],[34.9806585,29.4792035],[34.9805366,29.4792367],[34.9804185,29.4789446],[34.98007,29.4790514],[34.9805778,29.4803073],[34.9809204,29.4802115],[34.9808124,29.479919],[34.9809123,29.4798911],[34.9809324,29.4799455],[34.9812935,29.4805027],[34.9817363,29.4811686],[34.9819747,29.4813724],[34.9819435,29.4814926],[34.9822268,29.4816482],[34.9824669,29.4819953],[34.9829206,29.4826489],[34.984427,29.4848597],[34.9851323,29.4858613],[34.9855963,29.4867987],[34.9855016,29.4870609],[34.9855363,29.4871494],[34.9854324,29.487407],[34.9854901,29.4877147],[34.9854286,29.4878647],[34.9855786,29.4880109],[34.9855093,29.4882763],[34.9858315,29.4886404],[34.9861324,29.4900263],[34.9863948,29.4906017],[34.9871016,29.4920658],[34.9879682,29.4935825],[34.9881439,29.493962],[34.9888798,29.4951117],[34.9894473,29.4961936],[34.9893916,29.4968835],[34.9897972,29.4975019],[34.9901768,29.4980826],[34.991316,29.4994467],[34.9919247,29.5000728],[34.9921785,29.5003424],[34.992225,29.5007776],[34.9922297,29.5012849],[34.9921828,29.501442],[34.9922087,29.5015366],[34.9921661,29.5017663],[34.9922098,29.5018511],[34.9921375,29.501997],[34.9922307,29.5021933],[34.992213,29.5022931],[34.992249,29.5024122],[34.9922793,29.5025039],[34.992211,29.5027029],[34.9923067,29.5027829],[34.9923977,29.5028498],[34.9924394,29.5029702],[34.992455,29.5031343],[34.9924197,29.5032914],[34.9924636,29.5033699],[34.9924486,29.503613],[34.9923918,29.5036219],[34.9923227,29.5033627],[34.9922457,29.5033774],[34.9927983,29.5054359],[34.9929142,29.5054077],[34.9929722,29.5054847],[34.9930794,29.5056583],[34.9934764,29.5068658],[34.9933874,29.5068937],[34.9934463,29.5070985],[34.9935619,29.5073439],[34.9935981,29.5075765],[34.9935727,29.507777],[34.993499,29.5083458],[34.9932239,29.5084019],[34.9947469,29.512631],[34.9966183,29.5174989],[34.9980516,29.5169965],[34.9969855,29.5141803],[34.9971345,29.5141565],[34.9972558,29.5141595],[34.9976277,29.5142539],[34.9976653,29.5143129],[34.998505,29.514534],[34.9991627,29.515341],[34.9993181,29.5155395],[34.9993679,29.5155065],[34.9994089,29.5155458],[34.9995674,29.515474],[34.9995879,29.5153929],[34.9999809,29.5158601],[34.9995419,29.5173065],[34.9996012,29.5173152],[35.0000435,29.5158839],[35.0002713,29.5157934],[35.0006288,29.5159076],[35.0008029,29.5160462],[35.0009774,29.5162524],[35.0008155,29.5165897],[35.0010404,29.5167846],[35.0011461,29.5169964],[35.0012354,29.5172541],[35.0012843,29.5174992],[35.0012925,29.5177406],[35.0012804,29.5180246],[35.0012276,29.5183474],[35.0011885,29.5185377],[35.0011243,29.5187938],[35.0010519,29.5189791],[35.0010453,29.5191552],[35.0010876,29.5193136],[35.0010786,29.5193489],[35.0010202,29.5194107],[35.0009193,29.5195601],[35.0009286,29.5196541],[35.0008192,29.5196023],[35.0007998,29.5196409],[35.0009736,29.5197258],[35.0010464,29.5198196],[35.0010719,29.5198171],[35.0011139,29.5199092],[35.0011272,29.5200196],[35.001117,29.5201191],[35.0010178,29.5201541],[35.0009495,29.5201595],[35.0008549,29.5201816],[35.0008239,29.5201819],[35.0007775,29.520201],[35.0007233,29.5202319],[35.0006546,29.5203098],[35.0006392,29.52033],[35.0006309,29.5203502],[35.0005576,29.5204014],[35.0004386,29.5203941],[35.0003664,29.5203443],[35.0003208,29.5203036],[35.0002898,29.5203139],[35.0002826,29.519965],[35.0002269,29.5199662],[35.0002259,29.5203208],[35.0001854,29.5203213],[35.0001864,29.5204629],[35.0001449,29.5204611],[35.0001443,29.5205995],[35.0000664,29.5206008],[35.0000783,29.52088],[35.0001171,29.5220018],[35.0004729,29.5220494],[35.0005155,29.5220745],[35.0005437,29.5221268],[35.0004844,29.5221697],[35.0004527,29.5222259],[35.0004548,29.5222633],[35.0004747,29.5222998],[35.0005086,29.5223363],[35.0005547,29.5223554],[35.0006054,29.5223582],[35.0006546,29.522348],[35.0006362,29.5224068],[35.0007099,29.5226757],[35.0007016,29.5227214],[35.0006811,29.5230899],[35.0006942,29.5232883],[35.000698,29.5234197],[35.0007072,29.5235574],[35.0007235,29.5236568],[35.0007191,29.5237662],[35.0007054,29.5238756],[35.0006826,29.523936],[35.0006791,29.5239877],[35.0006867,29.5240318],[35.0007083,29.5240819],[35.0007357,29.5241243],[35.0007845,29.5241759],[35.0008252,29.5242018],[35.0008339,29.5243914],[35.0008125,29.5247403],[35.0007445,29.5251703],[35.000689,29.525332],[35.0006238,29.5255176],[35.0005773,29.5257032],[35.0005731,29.5257274],[35.0005488,29.5258675],[35.0005563,29.5259891],[35.0006071,29.5260808],[35.0006804,29.5261989],[35.0006981,29.5263427],[35.0006691,29.5265922],[35.0006465,29.5267488],[35.0005522,29.5270047],[35.0004712,29.5271905],[35.0003716,29.5273601],[35.0003179,29.527402],[35.0003296,29.527452],[35.0002848,29.5275235],[35.0001977,29.5276079],[35.0000292,29.5277001],[34.9998981,29.5276283],[34.9998175,29.5277524],[35.0003453,29.5280197],[35.00015,29.5283584],[34.999634,29.5281214],[34.9993601,29.5278907],[34.9995105,29.5276485],[34.999473,29.5276338],[34.9995096,29.5275736],[34.9995454,29.5275365],[34.9995664,29.5275157],[34.9995927,29.527499],[34.9996293,29.5274855],[34.9996622,29.5274679],[34.9996877,29.5274514],[34.9997093,29.5274159],[34.9997069,29.5273731],[34.999689,29.5273266],[34.9996457,29.5273059],[34.9995866,29.5273025],[34.9995436,29.5273113],[34.9995167,29.5273362],[34.9994952,29.5273772],[34.9994805,29.5274058],[34.999455,29.5274345],[34.999226,29.5277117],[34.999043,29.5278639],[34.9976148,29.5289519],[34.9977802,29.5290819],[34.9980752,29.5288265],[34.999234,29.5279518],[34.999491,29.5281815],[34.9986587,29.5289932],[34.9989473,29.529217],[34.9990379,29.5291146],[34.9989872,29.5290709],[34.9995623,29.5285073],[34.9997078,29.528469],[35.0000165,29.5286115],[34.9999672,29.5286536],[34.9999544,29.5286469],[34.9991256,29.5294411],[34.9991357,29.5294475],[34.9987649,29.5298297],[34.9984377,29.5295998],[34.998498,29.5295555],[34.9983506,29.5294224],[34.9983049,29.5294644],[34.9982763,29.5294565],[34.9982558,29.5294322],[34.9982415,29.5293907],[34.9982372,29.5293451],[34.9982151,29.5293215],[34.9981762,29.5292975],[34.9981391,29.5293007],[34.9980951,29.5293244],[34.9980718,29.5293445],[34.9980118,29.5293615],[34.997976,29.5293832],[34.9979529,29.5294011],[34.9979415,29.5294277],[34.9979509,29.5294552],[34.9979926,29.5294728],[34.9980389,29.5294652],[34.9981188,29.5295394],[34.9982854,29.5297132],[34.9983058,29.529691],[34.9983413,29.5297213],[34.998321,29.5297421],[34.9984894,29.529897],[34.9981092,29.5304589],[34.9977352,29.5308077],[34.9976223,29.5306648],[34.9975582,29.5307117],[34.9977128,29.530889],[34.9976026,29.5309644],[34.9974362,29.531077],[34.9972868,29.5311667],[34.9971347,29.5312635],[34.9969241,29.531383],[34.9964857,29.5316418],[34.9956249,29.532147],[34.9955398,29.5322506],[34.9953293,29.5323644],[34.9946722,29.5327332],[34.9944237,29.5328959],[34.9940619,29.5330967],[34.9939049,29.5331517],[34.9938241,29.5331916],[34.9937409,29.5331904],[34.9934953,29.5327534],[34.992999,29.5330076],[34.9934946,29.5336636],[34.9932489,29.5338069],[34.993094,29.5339601],[34.9923408,29.5343582],[34.9915259,29.5348676],[34.9920205,29.5351295],[34.9926517,29.5357736],[34.9929073,29.5357642],[34.992868,29.5361282],[34.9930736,29.5363522],[34.9935733,29.5363476],[34.993555,29.5365833],[34.9940233,29.5365938],[34.9943532,29.5363396],[34.9950304,29.5370083],[34.9954629,29.536981],[34.9955092,29.5370283],[34.9954231,29.5379495],[34.9952929,29.5380206],[34.9947658,29.5379798],[34.9944164,29.5379127],[34.994185,29.5377335],[34.9934969,29.5375993],[34.9926882,29.5376795],[34.9926062,29.5376352],[34.9922195,29.5369174],[34.9914637,29.5360449],[34.9913264,29.5358873],[34.9902234,29.5355601],[34.9901617,29.5357128],[34.9897321,29.5359956],[34.9890988,29.5363902],[34.9889492,29.5365097],[34.9886201,29.5366368],[34.9881924,29.5367026],[34.9881607,29.5366337],[34.9881009,29.5366062],[34.9880534,29.5366169],[34.988071,29.5367241],[34.9882452,29.5370778],[34.9883051,29.5371819],[34.9883614,29.537162],[34.9884758,29.5374254],[34.988379,29.5379047],[34.9883667,29.5379659],[34.9883913,29.5380226],[34.9884423,29.5380762],[34.9886822,29.5381902],[34.9888932,29.5390126],[34.9886621,29.5390747],[34.9886811,29.5391351],[34.9888923,29.5390909],[34.9889073,29.5391277],[34.9886955,29.5391808],[34.9887261,29.5392784],[34.988901,29.539235],[34.9889346,29.5393487],[34.9887629,29.5393953],[34.9888985,29.5398013],[34.9887741,29.5398598],[34.9886347,29.5399312],[34.9885103,29.539968],[34.9882589,29.5399919],[34.988239,29.5399074],[34.9881369,29.5398793],[34.9880398,29.5399009],[34.9879876,29.5400352],[34.9879925,29.5400936],[34.9880523,29.5401521],[34.988107,29.5401868],[34.988229,29.5402084],[34.9882813,29.5402561],[34.9882638,29.540373],[34.9881137,29.5405524],[34.9879403,29.5405917],[34.9877685,29.5405982],[34.9877262,29.5405571],[34.9876565,29.5404856],[34.9876067,29.5404986],[34.9875644,29.540609],[34.9875346,29.5407216],[34.9873778,29.5407411],[34.9871338,29.5406978],[34.9870741,29.540635],[34.987084,29.5405765],[34.9870218,29.5405138],[34.9869347,29.5404791],[34.9868376,29.5404618],[34.9867281,29.5404401],[34.9866758,29.5403925],[34.986636,29.5403189],[34.986631,29.5402474],[34.9866236,29.5401781],[34.9865514,29.5401326],[34.9865464,29.5400438],[34.9865962,29.5399507],[34.9866609,29.5399312],[34.9867256,29.5398554],[34.9867256,29.5397775],[34.9866982,29.5396909],[34.9867829,29.5396541],[34.9868053,29.5395869],[34.986875,29.5395674],[34.986972,29.5395956],[34.9869795,29.5396584],[34.9870442,29.5397147],[34.9870442,29.5397645],[34.9870044,29.5398966],[34.9869671,29.5399572],[34.9869372,29.540046],[34.9870343,29.5400958],[34.9873329,29.5400633],[34.9874474,29.5400373],[34.9874848,29.540098],[34.9875594,29.5401803],[34.9876939,29.5401348],[34.987781,29.5401781],[34.987878,29.5401694],[34.9878805,29.5400179],[34.9879378,29.5398728],[34.9879378,29.539797],[34.9877461,29.5397255],[34.987669,29.5395999],[34.987669,29.5393877],[34.987898,29.538803],[34.9879029,29.5386124],[34.988107,29.5383223],[34.9880672,29.5381187],[34.9882073,29.5375684],[34.9879765,29.5372499],[34.9879221,29.5372807],[34.9878228,29.5371305],[34.9876954,29.5369519],[34.9874407,29.5367409],[34.9870829,29.5366245],[34.9867146,29.5366385],[34.9865324,29.5368048],[34.986568,29.5368947],[34.9866799,29.5369611],[34.986804,29.5369356],[34.9868899,29.5368369],[34.9869683,29.5368136],[34.9871469,29.5368812],[34.9872639,29.5370174],[34.9873227,29.5372192],[34.9871824,29.5375151],[34.9868505,29.5378972],[34.9866712,29.5379893],[34.9862131,29.5382246],[34.9859977,29.5383078],[34.9853286,29.5385577],[34.985197,29.5384311],[34.9850924,29.5384882],[34.985182,29.5387918],[34.9844652,29.5392076],[34.9829917,29.5399872],[34.9818583,29.5405637],[34.9814493,29.54071],[34.9809803,29.5407591],[34.9806264,29.5406881],[34.9806578,29.539729],[34.9805968,29.5395859],[34.980437,29.5395359],[34.9802904,29.5396008],[34.9798291,29.5394853],[34.9796122,29.5395364],[34.9793764,29.5395122],[34.9791089,29.539685],[34.9789648,29.5399506],[34.9790675,29.5420125],[34.9782159,29.5424686],[34.978066,29.5424666],[34.9780716,29.5425507],[34.9773642,29.5429248]]]]}
        } ]
}